{"type":"FeatureCollection","features":[{"type":"Feature","properties":{"text":"Camp Waschbär"},"geometry":{"type":"Polygon","coordinates":[[[14.506579,52.275517],[14.500959,52.276421],[14.500779,52.277159],[14.507065,52.27793],[14.507354,52.277192],[14.508921,52.277269],[14.506579,52.275517]]]}},{"type":"Feature","properties":{"text":"Camp Qualle"},"geometry":{"type":"Polygon","coordinates":[[[14.494854,52.276861],[14.494569,52.27787],[14.500216,52.278601],[14.500927,52.276043],[14.494854,52.276861]]]}},{"type":"Feature","properties":{"text":"Camp Stille Fische"},"geometry":{"type":"Polygon","coordinates":[[[14.501283,52.277589],[14.501013,52.279209],[14.506633,52.279804],[14.506939,52.278184],[14.501283,52.277589]]]}},{"type":"Feature","properties":{"text":"Camp Taucher"},"geometry":{"type":"Polygon","coordinates":[[[14.494807,52.276617],[14.489025,52.276702],[14.488979,52.27735],[14.4943,52.278294],[14.494807,52.276617]]]}}]}
