{"type": "FeatureCollection", "features": [{"geometry": {"coordinates": [[[14.4958254, 52.2767485], [14.4959714, 52.2767269], [14.4959409, 52.2766496], [14.4957949, 52.2766712], [14.4958254, 52.2767485]]], "crs": {"properties": {"name": "EPSG:4326"}, "type": "name"}, "type": "Polygon"}, "properties": {"name": "Leuchtstoff", "description": "9 x 10", "felt:color": "#6ACE45", "felt:fillOpacity": 0.55, "felt:hasLongDescription": false, "felt:id": "DUT1OU6uRcaznRxdgiNz1D", "felt:locked": false, "felt:ordering": 1775078094192439, "felt:parentId": "1p2IQHWqSfmZNIAKaowG7D", "felt:radiusDisplayAngle": 90, "felt:showArea": false, "felt:strokeOpacity": 1, "felt:strokeStyle": "solid", "felt:strokeWidth": 2, "felt:type": "Rectangle", "felt:widthScale": 1, "category": "food"}, "type": "Feature"}, {"geometry": {"coordinates": [[[14.4959837, 52.2767366], [14.4960828, 52.276722], [14.4960479, 52.2766336], [14.4959488, 52.2766482], [14.4959837, 52.2767366]]], "crs": {"properties": {"name": "EPSG:4326"}, "type": "name"}, "type": "Polygon"}, "properties": {"name": "Langos", "description": "7 x 10", "felt:color": "#6ACE45", "felt:fillOpacity": 0.55, "felt:id": "25AewYPAQjmdOHOWTLld7D", "felt:locked": false, "felt:ordering": 1775078235562545, "felt:parentId": "1p2IQHWqSfmZNIAKaowG7D", "felt:radiusDisplayAngle": 90, "felt:showArea": true, "felt:strokeOpacity": 1, "felt:strokeStyle": "solid", "felt:strokeWidth": 2, "felt:type": "Rectangle", "felt:widthScale": 1, "category": "food"}, "type": "Feature"}, {"geometry": {"coordinates": [[[14.4960902, 52.2767206], [14.4961752, 52.2767081], [14.4961403, 52.2766196], [14.4960553, 52.2766322], [14.4960902, 52.2767206]]], "crs": {"properties": {"name": "EPSG:4326"}, "type": "name"}, "type": "Polygon"}, "properties": {"name": "Apfelkrapfen", "description": "6 x 10", "felt:color": "#6ACE45", "felt:fillOpacity": 0.55, "felt:id": "LyR4RY2FQZ6IMFQabiFBPD", "felt:locked": false, "felt:ordering": 1775078364799572, "felt:parentId": "1p2IQHWqSfmZNIAKaowG7D", "felt:radiusDisplayAngle": 90, "felt:showArea": true, "felt:strokeOpacity": 1, "felt:strokeStyle": "solid", "felt:strokeWidth": 2, "felt:type": "Rectangle", "felt:widthScale": 1, "category": "food"}, "type": "Feature"}, {"geometry": {"coordinates": [[[14.4961802, 52.2766978], [14.4962652, 52.2766853], [14.4962339, 52.2766058], [14.4961488, 52.2766184], [14.4961802, 52.2766978]]], "crs": {"properties": {"name": "EPSG:4326"}, "type": "name"}, "type": "Polygon"}, "properties": {"name": "Spätzlemacher", "description": "6 x 9", "felt:color": "#6ACE45", "felt:fillOpacity": 0.55, "felt:id": "WCO8w9ChSRISVor7EK5WiYD", "felt:locked": false, "felt:ordering": 1775078421965160, "felt:parentId": "1p2IQHWqSfmZNIAKaowG7D", "felt:radiusDisplayAngle": 90, "felt:showArea": true, "felt:strokeOpacity": 1, "felt:strokeStyle": "solid", "felt:strokeWidth": 2, "felt:type": "Rectangle", "felt:widthScale": 1, "category": "food"}, "type": "Feature"}, {"geometry": {"coordinates": [[[14.4962406, 52.2766046], [14.4963572, 52.2765865], [14.4963856, 52.2766553], [14.496269, 52.2766734], [14.4962406, 52.2766046]]], "crs": {"properties": {"name": "EPSG:4326"}, "type": "name"}, "type": "Polygon"}, "properties": {"name": "Om Ganesh", "description": "8 x 8", "felt:color": "#6BCE46", "felt:fillOpacity": 0.55, "felt:id": "GRT2olrYQHad9AYCpIhd0eA", "felt:locked": false, "felt:ordering": 1775078589912423, "felt:parentId": "1p2IQHWqSfmZNIAKaowG7D", "felt:radiusDisplayAngle": 90, "felt:showArea": true, "felt:strokeOpacity": 1, "felt:strokeStyle": "solid", "felt:strokeWidth": 2, "felt:type": "Rectangle", "felt:widthScale": 1, "category": "food"}, "type": "Feature"}, {"geometry": {"coordinates": [[[14.4963626, 52.2765853], [14.4964341, 52.2765743], [14.4964807, 52.2766875], [14.4964091, 52.2766985], [14.4963626, 52.2765853]]], "crs": {"properties": {"name": "EPSG:4326"}, "type": "name"}, "type": "Polygon"}, "properties": {"felt:color": "#6BCE46", "felt:fillOpacity": 0.55, "felt:id": "EZH6pi9B8Qr2faszGkCHNSA", "felt:locked": false, "felt:ordering": 1775078706771746, "felt:parentId": "1p2IQHWqSfmZNIAKaowG7D", "felt:radiusDisplayAngle": 90, "felt:showArea": true, "felt:strokeOpacity": 1, "felt:strokeStyle": "solid", "felt:strokeWidth": 2, "felt:type": "Rectangle", "felt:widthScale": 1, "name": "Foodstall EZH6pi", "category": "food"}, "type": "Feature"}, {"geometry": {"coordinates": [[[14.4956274, 52.2766225], [14.4957104, 52.2766864], [14.4955734, 52.2767531], [14.4954903, 52.2766893], [14.4956274, 52.2766225]]], "crs": {"properties": {"name": "EPSG:4326"}, "type": "name"}, "type": "Polygon"}, "properties": {"name": "Vegitos", "description": "9 x 12", "felt:color": "#6BCE46", "felt:fillOpacity": 0.55, "felt:hasLongDescription": false, "felt:id": "9C4AXn0SARxOGaryIcYfM2A", "felt:locked": false, "felt:ordering": 1775078996270956, "felt:parentId": "1p2IQHWqSfmZNIAKaowG7D", "felt:radiusDisplayAngle": 90, "felt:showArea": false, "felt:strokeOpacity": 1, "felt:strokeStyle": "solid", "felt:strokeWidth": 2, "felt:type": "Rectangle", "felt:widthScale": 1, "category": "food"}, "type": "Feature"}, {"geometry": {"coordinates": [[[14.4955685, 52.2765759], [14.4956245, 52.2766189], [14.4955319, 52.2766641], [14.4954759, 52.2766211], [14.4955685, 52.2765759]]], "crs": {"properties": {"name": "EPSG:4326"}, "type": "name"}, "type": "Polygon"}, "properties": {"name": "Nice Fries", "description": "6 x 8", "felt:color": "#6BCE46", "felt:fillOpacity": 0.55, "felt:id": "3nKQakTrRhWMcd3pDTIorC", "felt:locked": false, "felt:ordering": 1775079053452835, "felt:parentId": "1p2IQHWqSfmZNIAKaowG7D", "felt:radiusDisplayAngle": 90, "felt:showArea": true, "felt:strokeOpacity": 1, "felt:strokeStyle": "solid", "felt:strokeWidth": 2, "felt:type": "Rectangle", "felt:widthScale": 1, "category": "food"}, "type": "Feature"}, {"geometry": {"coordinates": [[[14.4954904, 52.2765173], [14.4955643, 52.2765731], [14.495425, 52.2766422], [14.4953512, 52.2765864], [14.4954904, 52.2765173]]], "crs": {"properties": {"name": "EPSG:4326"}, "type": "name"}, "type": "Polygon"}, "properties": {"name": "Vegabunt", "description": "6 x 12", "felt:color": "#6BCE46", "felt:fillOpacity": 0.55, "felt:hasLongDescription": false, "felt:id": "c9BewrU5jQjuNRIAXQQfjBA", "felt:locked": false, "felt:ordering": 1775079093342591, "felt:parentId": "1p2IQHWqSfmZNIAKaowG7D", "felt:radiusDisplayAngle": 90, "felt:showArea": false, "felt:strokeOpacity": 1, "felt:strokeStyle": "solid", "felt:strokeWidth": 2, "felt:type": "Rectangle", "felt:widthScale": 1, "category": "food"}, "type": "Feature"}, {"geometry": {"coordinates": [[[14.4954135, 52.276459], [14.4954865, 52.2765137], [14.4953704, 52.2765717], [14.4952974, 52.2765171], [14.4954135, 52.276459]]], "crs": {"properties": {"name": "EPSG:4326"}, "type": "name"}, "type": "Polygon"}, "properties": {"name": "Bullarbü", "description": "8 x 10", "felt:color": "#6BCE46", "felt:fillOpacity": 0.55, "felt:hasLongDescription": false, "felt:id": "cUmcrUNqScW49Ch6q8bKSkB", "felt:locked": false, "felt:ordering": 1775079145407650, "felt:parentId": "1p2IQHWqSfmZNIAKaowG7D", "felt:radiusDisplayAngle": 90, "felt:showArea": false, "felt:strokeOpacity": 1, "felt:strokeStyle": "solid", "felt:strokeWidth": 2, "felt:type": "Rectangle", "felt:widthScale": 1, "category": "food"}, "type": "Feature"}, {"geometry": {"coordinates": [[[14.4966718, 52.2765531], [14.4967058, 52.2764384], [14.4969377, 52.2764641], [14.4969037, 52.2765788], [14.4966718, 52.2765531]]], "crs": {"properties": {"name": "EPSG:4326"}, "type": "name"}, "type": "Polygon"}, "properties": {"name": "l'Amore Pizza", "description": "13 x 16", "felt:color": "#6BCE46", "felt:fillOpacity": 0.55, "felt:hasLongDescription": false, "felt:id": "jUVLVEUySWS9BaK4B1g3Y4D", "felt:locked": false, "felt:ordering": 1775079279474955, "felt:parentId": "1p2IQHWqSfmZNIAKaowG7D", "felt:radiusDisplayAngle": 90, "felt:showArea": false, "felt:strokeOpacity": 1, "felt:strokeStyle": "solid", "felt:strokeWidth": 2, "felt:type": "Rectangle", "felt:widthScale": 1, "category": "food"}, "type": "Feature"}, {"geometry": {"coordinates": [[[14.495291, 52.2767984], [14.4952163, 52.2768017], [14.4952195, 52.2768287], [14.4952942, 52.2768254], [14.495291, 52.2767984]]], "crs": {"properties": {"name": "EPSG:4326"}, "type": "name"}, "type": "Polygon"}, "properties": {"name": "Communitea", "felt:color": "#6BCE46", "felt:fillOpacity": 0.55, "felt:id": "Wb4Z6v28S4SdjWMDfcLfoD", "felt:locked": false, "felt:ordering": 1775208792907036, "felt:parentId": "1p2IQHWqSfmZNIAKaowG7D", "felt:radiusDisplayAngle": 90, "felt:showArea": true, "felt:strokeOpacity": 1, "felt:strokeStyle": "solid", "felt:strokeWidth": 2, "felt:type": "Rectangle", "felt:widthScale": 1, "category": "food"}, "type": "Feature"}, {"geometry": {"coordinates": [[[14.4973841, 52.2764422], [14.4973666, 52.2764114], [14.497455, 52.2763926], [14.4974725, 52.2764234], [14.4973841, 52.2764422]]], "crs": {"properties": {"name": "EPSG:4326"}, "type": "name"}, "type": "Polygon"}, "properties": {"name": "Zirkus Mond Bar", "felt:color": "#6BCE46", "felt:fillOpacity": 0.55, "felt:hasLongDescription": false, "felt:id": "Dyz4xuwwQB9B9BiClxk1X0gD", "felt:locked": false, "felt:ordering": 1775209228843712, "felt:parentId": "1p2IQHWqSfmZNIAKaowG7D", "felt:radiusDisplayAngle": 90, "felt:showArea": true, "felt:strokeOpacity": 1, "felt:strokeStyle": "solid", "felt:strokeWidth": 2, "felt:type": "Rectangle", "felt:widthScale": 1, "category": "food"}, "type": "Feature"}, {"geometry": {"coordinates": [[[14.5025617, 52.2755619], [14.5025447, 52.2755105], [14.5026334, 52.2754997], [14.5026503, 52.275551], [14.5025617, 52.2755619]]], "crs": {"properties": {"name": "EPSG:4326"}, "type": "name"}, "type": "Polygon"}, "properties": {"name": "Bitte Drehen Sie durch", "felt:color": "#6ACE45", "felt:fillOpacity": 0.25, "felt:hasLongDescription": false, "felt:id": "PLzDnE5fRI9BYpidPVH6IBA", "felt:locked": false, "felt:ordering": 1783701225423202, "felt:parentId": "1p2IQHWqSfmZNIAKaowG7D", "felt:radiusDisplayAngle": 90, "felt:showArea": true, "felt:strokeOpacity": 1, "felt:strokeStyle": "solid", "felt:strokeWidth": 2, "felt:type": "Rectangle", "felt:widthScale": 1, "category": "food"}, "type": "Feature"}, {"geometry": {"coordinates": [[[14.5024133, 52.2758662], [14.5023869, 52.2758863], [14.5023525, 52.2758691], [14.5023789, 52.2758492], [14.5024133, 52.2758662]]], "crs": {"properties": {"name": "EPSG:4326"}, "type": "name"}, "type": "Polygon"}, "properties": {"name": "FanMan", "felt:color": "#6ACE45", "felt:fillOpacity": 0.25, "felt:hasLongDescription": false, "felt:id": "QKOpbcFtTtuv1fLM0tvISC", "felt:locked": false, "felt:ordering": 1783701231287816, "felt:parentId": "1p2IQHWqSfmZNIAKaowG7D", "felt:radiusDisplayAngle": 90, "felt:showArea": true, "felt:strokeOpacity": 1, "felt:strokeStyle": "solid", "felt:strokeWidth": 2, "felt:type": "Rectangle", "felt:widthScale": 1, "category": "food"}, "type": "Feature"}, {"geometry": {"coordinates": [[[14.5024723, 52.2755172], [14.5025257, 52.2755794], [14.5024183, 52.275614], [14.5023648, 52.2755515], [14.5024723, 52.2755172]]], "crs": {"properties": {"name": "EPSG:4326"}, "type": "name"}, "type": "Polygon"}, "properties": {"name": "De Loite", "felt:color": "#6ACE45", "felt:fillOpacity": 0.25, "felt:hasLongDescription": false, "felt:id": "wHC6AGM9BTxekQuAUhsy87A", "felt:locked": false, "felt:ordering": 1783701239115913, "felt:parentId": "1p2IQHWqSfmZNIAKaowG7D", "felt:radiusDisplayAngle": 90, "felt:showArea": true, "felt:strokeOpacity": 1, "felt:strokeStyle": "solid", "felt:strokeWidth": 2, "felt:type": "Rectangle", "felt:widthScale": 1, "category": "food"}, "type": "Feature"}, {"geometry": {"coordinates": [[[14.4944581, 52.2763637], [14.4944053, 52.2763408], [14.4943847, 52.2763077], [14.4944079, 52.2762573], [14.4944517, 52.2762383], [14.4945251, 52.2762383], [14.4945676, 52.2762517], [14.4945947, 52.2762967], [14.4945766, 52.2763448], [14.4945148, 52.2763668], [14.4944581, 52.2763637]]], "crs": {"properties": {"name": "EPSG:4326"}, "type": "name"}, "type": "Polygon"}, "properties": {"name": "Community Corner", "felt:color": "#C93535", "felt:fillOpacity": 0.25, "felt:hasLongDescription": false, "felt:id": "9CUoU6leqQW63vDJUUTiV8B", "felt:locked": false, "felt:ordering": 1783701453071890, "felt:radiusDisplayAngle": 90, "felt:showArea": false, "felt:strokeOpacity": 1, "felt:strokeStyle": "solid", "felt:strokeWidth": 2, "felt:type": "Polygon", "felt:widthScale": 1, "category": "info"}, "type": "Feature"}, {"geometry": {"coordinates": [[[14.5029079, 52.2757368], [14.5028151, 52.2757513], [14.5027604, 52.2756208], [14.5028531, 52.2756062], [14.5029079, 52.2757368]]], "crs": {"properties": {"name": "EPSG:4326"}, "type": "name"}, "type": "Polygon"}, "properties": {"name": "Asta la Pasta Foodtruck", "felt:color": "#6ACE45", "felt:fillOpacity": 0.25, "felt:hasLongDescription": false, "felt:id": "TR9CoXN9AGS3umT1p0y04PvC", "felt:locked": false, "felt:ordering": 1783714611368280, "felt:parentId": "1p2IQHWqSfmZNIAKaowG7D", "felt:radiusDisplayAngle": 90, "felt:showArea": true, "felt:strokeOpacity": 1, "felt:strokeStyle": "solid", "felt:strokeWidth": 1, "felt:type": "Rectangle", "felt:widthScale": 1, "category": "food"}, "type": "Feature"}, {"geometry": {"coordinates": [[[14.5028016, 52.2755805], [14.5027505, 52.2755885], [14.5027337, 52.2755484], [14.5027849, 52.2755405], [14.5028016, 52.2755805]]], "crs": {"properties": {"name": "EPSG:4326"}, "type": "name"}, "type": "Polygon"}, "properties": {"name": "Moving Cafe", "felt:color": "#6ACE45", "felt:fillOpacity": 0.25, "felt:hasLongDescription": false, "felt:id": "29BUMemc8Qh67fYVZpFWomA", "felt:locked": false, "felt:ordering": 1783714689958469, "felt:parentId": "1p2IQHWqSfmZNIAKaowG7D", "felt:radiusDisplayAngle": 90, "felt:showArea": true, "felt:strokeOpacity": 1, "felt:strokeStyle": "solid", "felt:strokeWidth": 1, "felt:type": "Rectangle", "felt:widthScale": 1, "category": "food"}, "type": "Feature"}, {"geometry": {"coordinates": [[[14.5023667, 52.2759593], [14.5024462, 52.2759886], [14.5025296, 52.2759038], [14.5024501, 52.2758746], [14.5023667, 52.2759593]]], "crs": {"properties": {"name": "EPSG:4326"}, "type": "name"}, "type": "Polygon"}, "properties": {"name": "Tante Eden", "felt:color": "#6ACE45", "felt:fillOpacity": 0.25, "felt:hasLongDescription": false, "felt:id": "rG9BQAeVPSSqIlLF2tF9BwFC", "felt:locked": false, "felt:ordering": 1783714892564308, "felt:parentId": "1p2IQHWqSfmZNIAKaowG7D", "felt:radiusDisplayAngle": 90, "felt:showArea": true, "felt:strokeOpacity": 1, "felt:strokeStyle": "solid", "felt:strokeWidth": 1, "felt:type": "Rectangle", "felt:widthScale": 1, "category": "food"}, "type": "Feature"}, {"geometry": {"coordinates": [[[14.5025432, 52.2759998], [14.5024994, 52.2759884], [14.502553, 52.2759111], [14.5025966, 52.2759223], [14.5025432, 52.2759998]]], "crs": {"properties": {"name": "EPSG:4326"}, "type": "name"}, "type": "Polygon"}, "properties": {"name": "Fullpower Jewellery", "felt:color": "#6ACE45", "felt:fillOpacity": 0.25, "felt:hasLongDescription": false, "felt:id": "lGrwBdWuTxKSQUUb2yx33C", "felt:locked": false, "felt:ordering": 1783715138429217, "felt:parentId": "1p2IQHWqSfmZNIAKaowG7D", "felt:radiusDisplayAngle": 90, "felt:showArea": true, "felt:strokeOpacity": 1, "felt:strokeStyle": "solid", "felt:strokeWidth": 1, "felt:type": "Rectangle", "felt:widthScale": 1, "category": "food"}, "type": "Feature"}]}