{"type": "FeatureCollection", "name": "GASTRO", "features": [{"type": "Feature", "geometry": {"type": "Polygon", "coordinates": [[[14.4973841, 52.2764422], [14.4973666, 52.2764114], [14.497455, 52.2763926], [14.4974725, 52.2764234], [14.4973841, 52.2764422]]]}, "properties": {"id": "0f2cf8c6-ec30-401f-be88-29719355f483", "text": "Zirkus Mond Bar", "symbol": null, "description": null, "color": "#6BCE46", "type": "Rectangle", "parentId": "d69d8840-75aa-49f9-9934-800a6a8c06ef", "radius": null, "rotation": null}}, {"type": "Feature", "geometry": {"type": "Polygon", "coordinates": [[[14.4954904, 52.2765173], [14.4955643, 52.2765731], [14.495425, 52.2766422], [14.4953512, 52.2765864], [14.4954904, 52.2765173]]]}, "properties": {"id": "73e7b0ad-4e63-423b-8d44-80174107e304", "text": "Vegabunt", "symbol": null, "description": "6 x 12", "color": "#6BCE46", "type": "Rectangle", "parentId": "d69d8840-75aa-49f9-9934-800a6a8c06ef", "radius": null, "rotation": null}}, {"type": "Feature", "geometry": {"type": "Polygon", "coordinates": [[[14.4960902, 52.2767206], [14.4961752, 52.2767081], [14.4961403, 52.2766196], [14.4960553, 52.2766322], [14.4960902, 52.2767206]]]}, "properties": {"id": "2f247845-8d85-419e-8830-541a6e21413f", "text": "Apfelkrapfen", "symbol": null, "description": "6 x 10", "color": "#6ACE45", "type": "Rectangle", "parentId": "d69d8840-75aa-49f9-9934-800a6a8c06ef", "radius": null, "rotation": null}}, {"type": "Feature", "geometry": {"type": "Polygon", "coordinates": [[[14.4959837, 52.2767366], [14.4960828, 52.276722], [14.4960479, 52.2766336], [14.4959488, 52.2766482], [14.4959837, 52.2767366]]]}, "properties": {"id": "db901ec1-83c0-4239-9d38-73964cb95def", "text": "Langos", "symbol": null, "description": "7 x 10", "color": "#6ACE45", "type": "Rectangle", "parentId": "d69d8840-75aa-49f9-9934-800a6a8c06ef", "radius": null, "rotation": null}}, {"type": "Feature", "geometry": {"type": "Polygon", "coordinates": [[[14.4961802, 52.2766978], [14.4962652, 52.2766853], [14.4962339, 52.2766058], [14.4961488, 52.2766184], [14.4961802, 52.2766978]]]}, "properties": {"id": "5823bcc3-f852-4484-95a2-bec42b95a263", "text": "Spätzlemacher", "symbol": null, "description": "6 x 9", "color": "#6ACE45", "type": "Rectangle", "parentId": "d69d8840-75aa-49f9-9934-800a6a8c06ef", "radius": null, "rotation": null}}, {"type": "Feature", "geometry": {"type": "Polygon", "coordinates": [[[14.4956274, 52.2766225], [14.4957104, 52.2766864], [14.4955734, 52.2767531], [14.4954903, 52.2766893], [14.4956274, 52.2766225]]]}, "properties": {"id": "ff80179f-4480-4713-866a-bc887187ccd8", "text": "Vegitos", "symbol": null, "description": "9 x 12", "color": "#6BCE46", "type": "Rectangle", "parentId": "d69d8840-75aa-49f9-9934-800a6a8c06ef", "radius": null, "rotation": null}}, {"type": "Feature", "geometry": {"type": "Polygon", "coordinates": [[[14.4966718, 52.2765531], [14.4967058, 52.2764384], [14.4969377, 52.2764641], [14.4969037, 52.2765788], [14.4966718, 52.2765531]]]}, "properties": {"id": "8d454b54-4532-4964-be68-ae01d60dd8e3", "text": "l'Amore Pizza", "symbol": null, "description": "13 x 16", "color": "#6BCE46", "type": "Rectangle", "parentId": "d69d8840-75aa-49f9-9934-800a6a8c06ef", "radius": null, "rotation": null}}, {"type": "Feature", "geometry": {"type": "Polygon", "coordinates": [[[14.4955685, 52.2765759], [14.4956245, 52.2766189], [14.4955319, 52.2766641], [14.4954759, 52.2766211], [14.4955685, 52.2765759]]]}, "properties": {"id": "de72906a-44eb-4615-8c71-dde90d3228ae", "text": "Nice Fries", "symbol": null, "description": "6 x 8", "color": "#6BCE46", "type": "Rectangle", "parentId": "d69d8840-75aa-49f9-9934-800a6a8c06ef", "radius": null, "rotation": null}}, {"type": "Feature", "geometry": {"type": "Polygon", "coordinates": [[[14.4962406, 52.2766046], [14.4963572, 52.2765865], [14.4963856, 52.2766553], [14.496269, 52.2766734], [14.4962406, 52.2766046]]]}, "properties": {"id": "1914f6a2-5ad8-4076-9df5-80a922177478", "text": "Om Ganesh", "symbol": null, "description": "8 x 8", "color": "#6BCE46", "type": "Rectangle", "parentId": "d69d8840-75aa-49f9-9934-800a6a8c06ef", "radius": null, "rotation": null}}, {"type": "Feature", "geometry": {"type": "Polygon", "coordinates": [[[14.4958254, 52.2767485], [14.4959714, 52.2767269], [14.4959409, 52.2766496], [14.4957949, 52.2766712], [14.4958254, 52.2767485]]]}, "properties": {"id": "0d44f539-4eae-45c6-b39d-1c5d822373d7", "text": "Leuchtstoff", "symbol": null, "description": "9 x 10", "color": "#6ACE45", "type": "Rectangle", "parentId": "d69d8840-75aa-49f9-9934-800a6a8c06ef", "radius": null, "rotation": null}}, {"type": "Feature", "geometry": {"type": "Polygon", "coordinates": [[[14.495291, 52.2767984], [14.4952163, 52.2768017], [14.4952195, 52.2768287], [14.4952942, 52.2768254], [14.495291, 52.2767984]]]}, "properties": {"id": "59be19ea-fdbc-4b84-9d8d-63037dc2dfa3", "text": "Communitea", "symbol": null, "description": null, "color": "#6BCE46", "type": "Rectangle", "parentId": "d69d8840-75aa-49f9-9934-800a6a8c06ef", "radius": null, "rotation": null}}, {"type": "Feature", "geometry": {"type": "Polygon", "coordinates": [[[14.5024723, 52.2755172], [14.5025257, 52.2755794], [14.5024183, 52.275614], [14.5023648, 52.2755515], [14.5024723, 52.2755172]]]}, "properties": {"id": "c070ba00-633e-4f17-a442-e01486ccbcec", "text": "De Loite", "symbol": null, "description": null, "color": "#6ACE45", "type": "Rectangle", "parentId": "d69d8840-75aa-49f9-9934-800a6a8c06ef", "radius": null, "rotation": null}}, {"type": "Feature", "geometry": {"type": "Polygon", "coordinates": [[[14.5024133, 52.2758662], [14.5023869, 52.2758863], [14.5023525, 52.2758691], [14.5023789, 52.2758492], [14.5024133, 52.2758662]]]}, "properties": {"id": "40a3a96d-c16d-4edb-afd5-f2ccd2dbc84a", "text": "FanMan", "symbol": null, "description": null, "color": "#6ACE45", "type": "Rectangle", "parentId": "d69d8840-75aa-49f9-9934-800a6a8c06ef", "radius": null, "rotation": null}}, {"type": "Feature", "geometry": {"type": "Polygon", "coordinates": [[[14.5028016, 52.2755805], [14.5027505, 52.2755885], [14.5027337, 52.2755484], [14.5027849, 52.2755405], [14.5028016, 52.2755805]]]}, "properties": {"id": "dbe50c7a-673c-421e-bb7d-8559a455a898", "text": "Moving Cafe", "symbol": null, "description": null, "color": "#6ACE45", "type": "Rectangle", "parentId": "d69d8840-75aa-49f9-9934-800a6a8c06ef", "radius": null, "rotation": null}}, {"type": "Feature", "geometry": {"type": "Polygon", "coordinates": [[[14.5029079, 52.2757368], [14.5028151, 52.2757513], [14.5027604, 52.2756208], [14.5028531, 52.2756062], [14.5029079, 52.2757368]]]}, "properties": {"id": "4d1fe85c-df46-4b7b-a64f-5a74cb4e0fbe", "text": "Asta la Pasta Foodtruck", "symbol": null, "description": null, "color": "#6ACE45", "type": "Rectangle", "parentId": "d69d8840-75aa-49f9-9934-800a6a8c06ef", "radius": null, "rotation": null}}, {"type": "Feature", "geometry": {"type": "Polygon", "coordinates": [[[14.5023667, 52.2759593], [14.5024462, 52.2759886], [14.5025296, 52.2759038], [14.5024501, 52.2758746], [14.5023667, 52.2759593]]]}, "properties": {"id": "ac6f9001-e54f-492a-8894-b176b45fb016", "text": "Tante Eden", "symbol": null, "description": null, "color": "#6ACE45", "type": "Rectangle", "parentId": "d69d8840-75aa-49f9-9934-800a6a8c06ef", "radius": null, "rotation": null}}, {"type": "Feature", "geometry": {"type": "Polygon", "coordinates": [[[14.5025617, 52.2755619], [14.5025447, 52.2755105], [14.5026334, 52.2754997], [14.5026503, 52.275551], [14.5025617, 52.2755619]]]}, "properties": {"id": "3cbcc39c-4e5f-448f-98a6-274f547e8804", "text": "Bitte Drehen Sie durch", "symbol": null, "description": null, "color": "#6ACE45", "type": "Rectangle", "parentId": "d69d8840-75aa-49f9-9934-800a6a8c06ef", "radius": null, "rotation": null}}, {"type": "Feature", "geometry": {"type": "Polygon", "coordinates": [[[14.5025432, 52.2759998], [14.5024994, 52.2759884], [14.502553, 52.2759111], [14.5025966, 52.2759223], [14.5025432, 52.2759998]]]}, "properties": {"id": "946af005-d5ae-4f12-9241-451bdb2c77de", "text": "Fullpower Jewellery", "symbol": null, "description": null, "color": "#6ACE45", "type": "Rectangle", "parentId": "d69d8840-75aa-49f9-9934-800a6a8c06ef", "radius": null, "rotation": null}}, {"type": "Feature", "geometry": {"type": "Polygon", "coordinates": [[[14.4954135, 52.276459], [14.4954865, 52.2765137], [14.4953704, 52.2765717], [14.4952974, 52.2765171], [14.4954135, 52.276459]]]}, "properties": {"id": "71499cad-436a-49c5-b8fe-1eaaf1b29291", "text": "Bullarbü", "symbol": null, "description": "8 x 10", "color": "#6BCE46", "type": "Rectangle", "parentId": "d69d8840-75aa-49f9-9934-800a6a8c06ef", "radius": null, "rotation": null}}, {"type": "Feature", "geometry": {"type": "Polygon", "coordinates": [[[14.4963626, 52.2765853], [14.4964341, 52.2765743], [14.4964807, 52.2766875], [14.4964091, 52.2766985], [14.4963626, 52.2765853]]]}, "properties": {"id": "1191faa6-2fbc-42bd-9f6a-ccc69021cd48", "text": "", "symbol": null, "description": null, "color": "#6BCE46", "type": "Rectangle", "parentId": "d69d8840-75aa-49f9-9934-800a6a8c06ef", "radius": null, "rotation": null}}, {"type": "Feature", "geometry": {"type": "Polygon", "coordinates": [[[14.484536, 52.2755114], [14.4846089, 52.2755114], [14.4846089, 52.2754648], [14.484536, 52.2754648], [14.484536, 52.2755114]]]}, "properties": {"id": "23411a7e-d1eb-41b0-a68f-3ee259c08931", "text": "Catuma", "symbol": null, "description": null, "color": "#6ACE45", "type": "Rectangle", "parentId": "d69d8840-75aa-49f9-9934-800a6a8c06ef", "radius": null, "rotation": null}}, {"type": "Feature", "geometry": {"type": "Polygon", "coordinates": [[[14.4933035, 52.276667], [14.4935259, 52.2766594], [14.4935174, 52.2765671], [14.493295, 52.2765747], [14.4933035, 52.276667]]]}, "properties": {"id": "51edf9ac-4dfe-4a0a-8fab-6c6544ac4952", "text": "Küche", "symbol": null, "description": null, "color": "#6ACE45", "type": "Rectangle", "parentId": "d69d8840-75aa-49f9-9934-800a6a8c06ef", "radius": null, "rotation": null}}, {"type": "Feature", "geometry": {"type": "Polygon", "coordinates": [[[14.4932561, 52.2765787], [14.4932543, 52.2765229], [14.4932901, 52.2765225], [14.4932919, 52.2765783], [14.4932561, 52.2765787]]]}, "properties": {"id": "560b4c67-9b0b-46b5-bda3-a7a624807c24", "text": "Spüllmobil ", "symbol": null, "description": "6,18 x 2,43", "color": "#6ACE45", "type": "Rectangle", "parentId": "d69d8840-75aa-49f9-9934-800a6a8c06ef", "radius": null, "rotation": null}}, {"type": "Feature", "geometry": {"type": "Polygon", "coordinates": [[[14.4936074, 52.2765672], [14.4936096, 52.276593], [14.493523, 52.2765958], [14.4935208, 52.27657], [14.4936074, 52.2765672]]]}, "properties": {"id": "7f121f55-2ee4-4440-a0db-dc29f6fecc4c", "text": "Kühlung", "symbol": null, "description": null, "color": "#6ACE45", "type": "Rectangle", "parentId": "d69d8840-75aa-49f9-9934-800a6a8c06ef", "radius": null, "rotation": null}}, {"type": "Feature", "geometry": {"type": "Polygon", "coordinates": [[[14.493464, 52.2763204], [14.4935077, 52.2763212], [14.4935103, 52.2762671], [14.4934665, 52.2762663], [14.493464, 52.2763204]]]}, "properties": {"id": "64feb714-3f40-43ad-8bf3-db02cf65c862", "text": "Strandflitzer Bar", "symbol": null, "description": null, "color": "#6ACE45", "type": "Rectangle", "parentId": "d69d8840-75aa-49f9-9934-800a6a8c06ef", "radius": null, "rotation": null}}, {"type": "Feature", "geometry": {"type": "Polygon", "coordinates": [[[14.4821903, 52.2716485], [14.4821394, 52.2715925], [14.4822053, 52.27157], [14.4822563, 52.271626], [14.4821903, 52.2716485]]]}, "properties": {"id": "b2622358-7993-4c07-a608-340e324376fd", "text": "Waldtraut Bar", "symbol": null, "description": null, "color": "#6ACE45", "type": "Rectangle", "parentId": "d69d8840-75aa-49f9-9934-800a6a8c06ef", "radius": null, "rotation": null}}, {"type": "Feature", "geometry": {"type": "Polygon", "coordinates": [[[14.4828559, 52.272872], [14.482817, 52.2728372], [14.4828767, 52.2728122], [14.4829155, 52.272847], [14.4828559, 52.272872]]]}, "properties": {"id": "3786e2e2-8c95-488f-9fb2-668b5fab968a", "text": "Bar", "symbol": null, "description": null, "color": "#6BCE46", "type": "Rectangle", "parentId": "d69d8840-75aa-49f9-9934-800a6a8c06ef", "radius": null, "rotation": null}}, {"type": "Feature", "geometry": {"type": "Polygon", "coordinates": [[[14.4819956, 52.2718204], [14.4819512, 52.2717836], [14.4819931, 52.2717647], [14.4820375, 52.2718015], [14.4819956, 52.2718204]]]}, "properties": {"id": "e09ff185-3bf7-429d-b32c-b26508dab772", "text": "Bimsbar", "symbol": null, "description": null, "color": "#6ACE45", "type": "Rectangle", "parentId": "d69d8840-75aa-49f9-9934-800a6a8c06ef", "radius": null, "rotation": null}}, {"type": "Feature", "geometry": {"type": "Polygon", "coordinates": [[[14.48257, 52.272765], [14.4825214, 52.2727276], [14.4826107, 52.2726842], [14.4826592, 52.2727215], [14.48257, 52.272765]]]}, "properties": {"id": "323648f5-9255-4697-b5a0-a9b5483c170e", "text": "Food", "symbol": null, "description": null, "color": "#6BCE46", "type": "Rectangle", "parentId": "d69d8840-75aa-49f9-9934-800a6a8c06ef", "radius": null, "rotation": null}}, {"type": "Feature", "geometry": {"type": "Polygon", "coordinates": [[[14.4852939, 52.2766784], [14.4852518, 52.2766442], [14.4853028, 52.2766208], [14.4853448, 52.2766549], [14.4852939, 52.2766784]]]}, "properties": {"id": "5ae4b7f1-46a2-441e-bd52-82694a394e84", "text": "Bar", "symbol": null, "description": null, "color": "#6ACE45", "type": "Rectangle", "parentId": "d69d8840-75aa-49f9-9934-800a6a8c06ef", "radius": null, "rotation": null}}, {"type": "Feature", "geometry": {"type": "Polygon", "coordinates": [[[14.4927269, 52.2766699], [14.4927584, 52.2766684], [14.4927522, 52.2766211], [14.4927207, 52.2766226], [14.4927269, 52.2766699]]]}, "properties": {"id": "8151bff1-6d31-49e2-86ae-a43ee048483d", "text": "Gastroplan Raumcont.", "symbol": null, "description": null, "color": "#6ACE45", "type": "Rectangle", "parentId": "d69d8840-75aa-49f9-9934-800a6a8c06ef", "radius": null, "rotation": null}}, {"type": "Feature", "geometry": {"type": "Polygon", "coordinates": [[[14.4844263, 52.2750484], [14.4844975, 52.2750494], [14.4844992, 52.2750069], [14.484428, 52.2750059], [14.4844263, 52.2750484]]]}, "properties": {"id": "22ceb53d-7718-4bbe-910d-e5f6f9852b3e", "text": "Grinskäffchen", "symbol": null, "description": null, "color": "#6ACE45", "type": "Rectangle", "parentId": "d69d8840-75aa-49f9-9934-800a6a8c06ef", "radius": null, "rotation": null}}, {"type": "Feature", "geometry": {"type": "Polygon", "coordinates": [[[14.4828741, 52.2752298], [14.4828031, 52.2752291], [14.4828041, 52.275187], [14.4828751, 52.2751876], [14.4828741, 52.2752298]]]}, "properties": {"id": "273a081d-f0d2-454d-896b-cea92b9ac2a1", "text": "Backstage Bar", "symbol": null, "description": null, "color": "#6BCE46", "type": "Rectangle", "parentId": "d69d8840-75aa-49f9-9934-800a6a8c06ef", "radius": null, "rotation": null}}, {"type": "Feature", "geometry": {"type": "Polygon", "coordinates": [[[14.4833494, 52.2753525], [14.4834203, 52.2753519], [14.4834194, 52.2753122], [14.4833484, 52.2753128], [14.4833494, 52.2753525]]]}, "properties": {"id": "0bd9fe56-6928-4dac-842b-329964f42e40", "text": "Bar Schlupfloch", "symbol": null, "description": null, "color": "#6ACE45", "type": "Rectangle", "parentId": "d69d8840-75aa-49f9-9934-800a6a8c06ef", "radius": null, "rotation": null}}, {"type": "Feature", "geometry": {"type": "Polygon", "coordinates": [[[14.4842905, 52.2748779], [14.4843651, 52.2748779], [14.4843651, 52.2748333], [14.4842905, 52.2748333], [14.4842905, 52.2748779]]]}, "properties": {"id": "c5e4ec31-e48a-4081-9ed9-6288807f2633", "text": "PinkPuk Bar", "symbol": null, "description": null, "color": "#6ACE45", "type": "Rectangle", "parentId": "d69d8840-75aa-49f9-9934-800a6a8c06ef", "radius": null, "rotation": null}}, {"type": "Feature", "geometry": {"type": "Polygon", "coordinates": [[[14.4828258, 52.275119], [14.4829019, 52.275119], [14.4829019, 52.2750762], [14.4828258, 52.2750762], [14.4828258, 52.275119]]]}, "properties": {"id": "9790fce9-c3a0-4ea1-9ed7-a25790c66202", "text": "BdT Foodie", "symbol": null, "description": null, "color": "#6BCE46", "type": "Rectangle", "parentId": "d69d8840-75aa-49f9-9934-800a6a8c06ef", "radius": null, "rotation": null}}, {"type": "Feature", "geometry": {"type": "Polygon", "coordinates": [[[14.4841262, 52.2757019], [14.4841089, 52.27567], [14.4842752, 52.2756363], [14.4842925, 52.2756682], [14.4841262, 52.2757019]]]}, "properties": {"id": "5bb3955c-6c7f-492a-be60-ccfdd7db6f87", "text": "", "symbol": null, "description": null, "color": "#6BCE46", "type": "Rectangle", "parentId": "d69d8840-75aa-49f9-9934-800a6a8c06ef", "radius": null, "rotation": null}}, {"type": "Feature", "geometry": {"type": "Polygon", "coordinates": [[[14.4833103, 52.2747954], [14.4833119, 52.2747515], [14.4834899, 52.2747539], [14.4834883, 52.2747979], [14.4833103, 52.2747954]]]}, "properties": {"id": "56f7a781-e52e-4342-9a28-74ffc4aebf5c", "text": "bar", "symbol": null, "description": null, "color": "#6BCE46", "type": "Rectangle", "parentId": "d69d8840-75aa-49f9-9934-800a6a8c06ef", "radius": null, "rotation": null}}, {"type": "Feature", "geometry": {"type": "Polygon", "coordinates": [[[14.4841732, 52.2746653], [14.4842478, 52.2746653], [14.4842478, 52.2746207], [14.4841732, 52.2746207], [14.4841732, 52.2746653]]]}, "properties": {"id": "9857b4f1-a26b-4ed5-a001-f396dd915fe3", "text": "Haus of Flausch Teabar", "symbol": null, "description": null, "color": "#6ACE45", "type": "Rectangle", "parentId": "d69d8840-75aa-49f9-9934-800a6a8c06ef", "radius": null, "rotation": null}}, {"type": "Feature", "geometry": {"type": "Polygon", "coordinates": [[[14.4840376, 52.2745047], [14.4841121, 52.2745047], [14.4841121, 52.2744601], [14.4840376, 52.2744601], [14.4840376, 52.2745047]]]}, "properties": {"id": "66a45060-f83c-4353-8680-6ebdf8f4c3b5", "text": "Re:set Raversnacks", "symbol": null, "description": null, "color": "#6ACE45", "type": "Rectangle", "parentId": "d69d8840-75aa-49f9-9934-800a6a8c06ef", "radius": null, "rotation": null}}, {"type": "Feature", "geometry": {"type": "Polygon", "coordinates": [[[14.4826855, 52.2743172], [14.4826721, 52.274273], [14.4828475, 52.2742532], [14.4828609, 52.2742974], [14.4826855, 52.2743172]]]}, "properties": {"id": "2bdc19ef-bf7d-4214-8218-2a2c5ed65913", "text": "Bar - Porto LOco", "symbol": null, "description": null, "color": "#6BCE46", "type": "Rectangle", "parentId": "d69d8840-75aa-49f9-9934-800a6a8c06ef", "radius": null, "rotation": null}}, {"type": "Feature", "geometry": {"type": "Polygon", "coordinates": [[[14.4831681, 52.2745778], [14.4831975, 52.2745728], [14.4831737, 52.2745203], [14.4831443, 52.2745253], [14.4831681, 52.2745778]]]}, "properties": {"id": "82e0d30f-7d3b-45d2-bdcd-44714b5e35db", "text": "FOH / Tante Frizzante (?)", "symbol": null, "description": null, "color": "#6BCE46", "type": "Rectangle", "parentId": "d69d8840-75aa-49f9-9934-800a6a8c06ef", "radius": null, "rotation": null}}]}