{"type": "FeatureCollection", "features": [{"type": "Feature", "properties": {"kind": "beach", "name": "Hauptstrand", "osm_id": 51349891}, "geometry": {"type": "Polygon", "coordinates": [[[14.4964921, 52.2755927], [14.497935, 52.2753949], [14.4990924, 52.2752989], [14.49943, 52.2752004], [14.499911, 52.2753039], [14.5005849, 52.2753], [14.5008225, 52.2751545], [14.5018301, 52.2751546], [14.5032409, 52.2749135], [14.5044463, 52.2747178], [14.5049631, 52.2745773], [14.5062252, 52.2746246], [14.5074716, 52.2740955], [14.5079519, 52.2740457], [14.5086802, 52.273852], [14.5091089, 52.2738665], [14.5097071, 52.2738114], [14.5097107, 52.2738598], [14.5097906, 52.2738868], [14.5099725, 52.2738666], [14.5103194, 52.2737396], [14.510496, 52.2737349], [14.5107119, 52.2736631], [14.5110412, 52.2735699], [14.511647, 52.2732803], [14.5120788, 52.2732803], [14.5123445, 52.2731771], [14.5126511, 52.2734198], [14.5117707, 52.2737827], [14.5115515, 52.2737216], [14.5106355, 52.2740144], [14.5077411, 52.274554], [14.5073187, 52.274407], [14.5062845, 52.2746731], [14.504901, 52.274837], [14.5040757, 52.2749988], [14.5037617, 52.2751491], [14.5014724, 52.2755102], [14.5001067, 52.2757101], [14.5000533, 52.2755643], [14.4965763, 52.2760116], [14.4949853, 52.2759538], [14.4948867, 52.2755128], [14.4952386, 52.2755012], [14.495459, 52.2755877], [14.4964921, 52.2755927]]]}}, {"type": "Feature", "properties": {"kind": "beach", "name": "Weststrand", "osm_id": 51349892}, "geometry": {"type": "Polygon", "coordinates": [[[14.4819833, 52.2704354], [14.481635, 52.2704921], [14.4811138, 52.2704474], [14.4806628, 52.2704006], [14.4803773, 52.2703022], [14.479983, 52.2698966], [14.4791261, 52.2695047], [14.4789755, 52.2693681], [14.4789353, 52.269227], [14.4788717, 52.2689265], [14.4790897, 52.2688057], [14.4794373, 52.2690406], [14.4805017, 52.2697154], [14.4819833, 52.2704354]]]}}, {"type": "Feature", "properties": {"kind": "beach", "name": "Weststrand", "osm_id": 111500658}, "geometry": {"type": "Polygon", "coordinates": [[[14.4832877, 52.2725037], [14.4842126, 52.2732363], [14.4854118, 52.2746264], [14.4857562, 52.2751027], [14.4865539, 52.2762462], [14.4861765, 52.2762301], [14.4854081, 52.2756425], [14.4853302, 52.2753851], [14.4838409, 52.2738817], [14.4839285, 52.2735315], [14.4831308, 52.2726629], [14.4830942, 52.2725388], [14.4832877, 52.2725037]]]}}, {"type": "Feature", "properties": {"kind": "recreation", "name": "Eurocamp Helenesee", "osm_id": 77350660}, "geometry": {"type": "Polygon", "coordinates": [[[14.5080374, 52.2800403], [14.5083597, 52.278944], [14.5087885, 52.279236], [14.5096698, 52.2788515], [14.5108113, 52.2789887], [14.5109137, 52.2789131], [14.5112362, 52.2793657], [14.5109366, 52.280377], [14.5103965, 52.2803171], [14.5087811, 52.2801233], [14.5080374, 52.2800403]]]}}, {"type": "Feature", "properties": {"kind": "recreation", "name": "Bungalowsiedlung", "osm_id": 141621379}, "geometry": {"type": "Polygon", "coordinates": [[[14.5100385, 52.2778025], [14.5097733, 52.2776573], [14.5096945, 52.2763577], [14.5090901, 52.2746375], [14.5109103, 52.2741806], [14.5128145, 52.2744967], [14.5162307, 52.2750639], [14.5198092, 52.2757188], [14.5177856, 52.2778004], [14.5106309, 52.2776645], [14.5100385, 52.2778025]]]}}, {"type": "Feature", "properties": {"kind": "recreation", "name": "", "osm_id": 151701412}, "geometry": {"type": "Polygon", "coordinates": [[[14.4962436, 52.2828108], [14.4957879, 52.2827569], [14.4948191, 52.2819292], [14.4950443, 52.2816759], [14.4949803, 52.2814998], [14.4953641, 52.2810938], [14.4949643, 52.2808541], [14.495556, 52.2802475], [14.4968913, 52.2804383], [14.4988103, 52.2805802], [14.4994179, 52.2805459], [14.4998097, 52.2804236], [14.5005134, 52.2804432], [14.5010731, 52.2805753], [14.5024483, 52.2808101], [14.5022164, 52.2814362], [14.5032079, 52.2815585], [14.5032239, 52.2818618], [14.5002255, 52.2818324], [14.4991301, 52.2816612], [14.4989462, 52.282077], [14.4980667, 52.2819596], [14.4981706, 52.2813922], [14.497483, 52.2813531], [14.4969952, 52.2816661], [14.4968833, 52.2818814], [14.4970672, 52.2825711], [14.4962436, 52.2828108]]]}}]}