{"type":"FeatureCollection","features":[{"type":"Feature","properties":{"text":"DRK / Secu Base"},"geometry":{"type":"Polygon","coordinates":[[[14.499351,52.275905],[14.499259,52.275671],[14.500007,52.275582],[14.500122,52.275788],[14.499351,52.275905]]]}},{"type":"Feature","properties":{"text":"Awareness & Eclipse"},"geometry":{"type":"Polygon","coordinates":[[[14.489059,52.276704],[14.488982,52.276577],[14.489334,52.276474],[14.489455,52.276619],[14.489059,52.276704]]]}},{"type":"Feature","properties":{"text":"Supporta Base"},"geometry":{"type":"Polygon","coordinates":[[[14.491555,52.276692],[14.491402,52.27663],[14.491527,52.276559],[14.491704,52.276641],[14.491555,52.276692]]]}},{"type":"Feature","properties":{"text":"Info-point / Lost & Found / Kiosk / DIY station"},"geometry":{"type":"MultiPolygon","coordinates":[[[[14.494626,52.276272],[14.494752,52.27628],[14.494748,52.276181],[14.494689,52.276124],[14.494582,52.276154],[14.49462,52.276194],[14.494626,52.276272]]]]}},{"type":"Feature","properties":{"text":"Einlass / Check-in"},"geometry":{"type":"Polygon","coordinates":[[[14.494268,52.278269],[14.494302,52.278132],[14.494175,52.27812],[14.49414,52.278257],[14.494268,52.278269]]]}},{"type":"Feature","properties":{"text":"Check-in Autos"},"geometry":{"type":"Polygon","coordinates":[[[14.494537,52.278764],[14.494653,52.278787],[14.49472,52.278661],[14.494604,52.278638],[14.494537,52.278764]]]}},{"type":"Feature","properties":{"text":"Psycare / DRK zelt"},"geometry":{"type":"Polygon","coordinates":[[[14.489271,52.276651],[14.489233,52.276604],[14.489382,52.276574],[14.489431,52.276613],[14.489271,52.276651]]]}},{"type":"Feature","properties":{"text":"Produktion"},"geometry":{"type":"Polygon","coordinates":[[[14.492004,52.276521],[14.492078,52.276522],[14.492078,52.276464],[14.492005,52.276464],[14.492004,52.276521]]]}},{"type":"Feature","properties":{"text":"SupportA"},"geometry":{"type":"Polygon","coordinates":[[[14.491582,52.276575],[14.491625,52.276575],[14.491623,52.276519],[14.49158,52.27652],[14.491582,52.276575]]]}},{"type":"Feature","properties":{"text":"Bänderkontrolle"},"geometry":{"type":"Polygon","coordinates":[[[14.487424,52.27686],[14.487469,52.27686],[14.487469,52.276833],[14.487424,52.276833],[14.487424,52.27686]]]}},{"type":"Feature","properties":{"text":"Bänderkontrolle 3x3"},"geometry":{"type":"Polygon","coordinates":[[[14.505563,52.274991],[14.505543,52.274967],[14.505582,52.274954],[14.505602,52.274979],[14.505563,52.274991]]]}},{"type":"Feature","properties":{"text":"Secu point"},"geometry":{"type":"Polygon","coordinates":[[[14.494361,52.278324],[14.494403,52.278329],[14.494413,52.278302],[14.494371,52.278297],[14.494361,52.278324]]]}}]}
