{"type":"FeatureCollection","_smoothed":true,"features":[{"type":"Feature","properties":{"text":"Produktion","slug":"produktion-base"},"geometry":{"type":"Polygon","coordinates":[[[14.490603,52.276487],[14.490593,52.276489],[14.490586,52.276494],[14.490582,52.276501],[14.490582,52.276511],[14.490598,52.276688],[14.4906,52.276699],[14.490605,52.276706],[14.490613,52.27671],[14.490623,52.276711],[14.492619,52.276675],[14.492629,52.276673],[14.492636,52.276669],[14.49264,52.276661],[14.492641,52.276651],[14.492636,52.276428],[14.492634,52.276418],[14.49263,52.276411],[14.492622,52.276407],[14.492612,52.276406],[14.490603,52.276487]]]}}]}
