{"type":"FeatureCollection","_smoothed":true,"features":[{"type":"Feature","properties":{"text":"Sammelstelle","slug":"sammelstelle-nw"},"geometry":{"type":"Point","coordinates":[14.488925,52.277668]}},{"type":"Feature","properties":{"text":"Sammelstelle","slug":"sammelstelle-n"},"geometry":{"type":"Point","coordinates":[14.494086,52.278566]}},{"type":"Feature","properties":{"text":"Sammelstelle","slug":"sammelstelle-ne"},"geometry":{"type":"Point","coordinates":[14.500259,52.279394]}},{"type":"Feature","properties":{"text":"Sammelstelle","slug":"sammelstelle-sw"},"geometry":{"type":"Point","coordinates":[14.479336,52.270342]}}]}
