{
  "type": "FeatureCollection",
  "features": [
    {
      "type": "Feature",
      "properties": {
        "slug": "mirage-arco"
      },
      "geometry": {
        "type": "Polygon",
        "coordinates": [
          [
            [
              14.503117,
              52.275695
            ],
            [
              14.503063,
              52.275535
            ],
            [
              14.502922,
              52.275333
            ],
            [
              14.503318,
              52.275273
            ],
            [
              14.503354,
              52.27567
            ],
            [
              14.503117,
              52.275695
            ]
          ]
        ]
      }
    },
    {
      "type": "Feature",
      "properties": {
        "slug": "seeblick"
      },
      "geometry": {
        "type": "Polygon",
        "coordinates": [
          [
            [
              14.501531,
              52.275764
            ],
            [
              14.500686,
              52.275878
            ],
            [
              14.50063,
              52.275636
            ],
            [
              14.500993,
              52.275585
            ],
            [
              14.501417,
              52.275525
            ],
            [
              14.501531,
              52.275764
            ]
          ]
        ]
      }
    },
    {
      "type": "Feature",
      "properties": {
        "slug": "zirkus-mond-turmbuehnchen"
      },
      "geometry": {
        "type": "Polygon",
        "coordinates": [
          [
            [
              14.496925,
              52.276516
            ],
            [
              14.496939,
              52.276411
            ],
            [
              14.496837,
              52.276226
            ],
            [
              14.497339,
              52.276163
            ],
            [
              14.497492,
              52.276436
            ],
            [
              14.496925,
              52.276516
            ]
          ]
        ]
      }
    },
    {
      "type": "Feature",
      "properties": {
        "slug": "zirkus-mond-zelt"
      },
      "geometry": {
        "type": "Polygon",
        "coordinates": [
          [
            [
              14.496514,
              52.276578
            ],
            [
              14.496365,
              52.276291
            ],
            [
              14.496821,
              52.276228
            ],
            [
              14.496909,
              52.276405
            ],
            [
              14.496881,
              52.276521
            ],
            [
              14.496514,
              52.276578
            ]
          ]
        ]
      }
    },
    {
      "type": "Feature",
      "properties": {
        "slug": "schweissperle"
      },
      "geometry": {
        "type": "Polygon",
        "coordinates": [
          [
            [
              14.495101,
              52.276442
            ],
            [
              14.495049,
              52.276191
            ],
            [
              14.495705,
              52.276123
            ],
            [
              14.495779,
              52.27622
            ],
            [
              14.495844,
              52.276294
            ],
            [
              14.495761,
              52.276365
            ],
            [
              14.495691,
              52.276425
            ],
            [
              14.495101,
              52.276442
            ]
          ]
        ]
      }
    },
    {
      "type": "Feature",
      "properties": {
        "slug": "strandflitzer"
      },
      "geometry": {
        "type": "Polygon",
        "coordinates": [
          [
            [
              14.492743,
              52.276411
            ],
            [
              14.492738,
              52.276156
            ],
            [
              14.493662,
              52.276178
            ],
            [
              14.493703,
              52.276423
            ],
            [
              14.492743,
              52.276411
            ]
          ]
        ]
      }
    },
    {
      "type": "Feature",
      "properties": {
        "slug": "community-corner"
      },
      "geometry": {
        "type": "Polygon",
        "coordinates": [
          [
            [
              14.494331,
              52.276443
            ],
            [
              14.494361,
              52.276218
            ],
            [
              14.494723,
              52.276213
            ],
            [
              14.494737,
              52.27644
            ],
            [
              14.494331,
              52.276443
            ]
          ]
        ]
      }
    },
    {
      "type": "Feature",
      "properties": {
        "slug": "neustockland"
      },
      "geometry": {
        "type": "Polygon",
        "coordinates": [
          [
            [
              14.4847421,
              52.2763637
            ],
            [
              14.4855726,
              52.2762264
            ],
            [
              14.4862609,
              52.2764781
            ],
            [
              14.4858494,
              52.2767024
            ],
            [
              14.4855052,
              52.2767894
            ],
            [
              14.485247,
              52.276738
            ],
            [
              14.485127,
              52.276658
            ],
            [
              14.4847421,
              52.2763637
            ]
          ]
        ]
      }
    },
    {
      "type": "Feature",
      "properties": {
        "slug": "atlantis"
      },
      "geometry": {
        "type": "Polygon",
        "coordinates": [
          [
            [
              14.4840399,
              52.2763482
            ],
            [
              14.4836692,
              52.275546
            ],
            [
              14.4848084,
              52.2754216
            ],
            [
              14.4853283,
              52.2761352
            ],
            [
              14.4840399,
              52.2763482
            ]
          ]
        ]
      }
    },
    {
      "type": "Feature",
      "properties": {
        "slug": "stroboklo"
      },
      "geometry": {
        "type": "Polygon",
        "coordinates": [
          [
            [
              14.4837774,
              52.2754431
            ],
            [
              14.483739,
              52.275216
            ],
            [
              14.4841255,
              52.2750725
            ],
            [
              14.4842973,
              52.2754154
            ],
            [
              14.4837774,
              52.2754431
            ]
          ]
        ]
      }
    },
    {
      "type": "Feature",
      "properties": {
        "slug": "schlupfloch"
      },
      "geometry": {
        "type": "Polygon",
        "coordinates": [
          [
            [
              14.482824,
              52.275148
            ],
            [
              14.482937,
              52.274953
            ],
            [
              14.4840956,
              52.2749744
            ],
            [
              14.4835712,
              52.2751819
            ],
            [
              14.483393,
              52.275332
            ],
            [
              14.482932,
              52.275381
            ],
            [
              14.482824,
              52.275148
            ]
          ]
        ]
      }
    },
    {
      "type": "Feature",
      "properties": {
        "slug": "porto-loco"
      },
      "geometry": {
        "type": "Polygon",
        "coordinates": [
          [
            [
              14.482566,
              52.274787
            ],
            [
              14.482474,
              52.274467
            ],
            [
              14.482792,
              52.27426
            ],
            [
              14.4840707,
              52.2740476
            ],
            [
              14.4844883,
              52.2745006
            ],
            [
              14.4848083,
              52.2748058
            ],
            [
              14.483483,
              52.274937
            ],
            [
              14.482766,
              52.274906
            ],
            [
              14.482566,
              52.274787
            ]
          ]
        ]
      }
    },
    {
      "type": "Feature",
      "properties": {
        "slug": "sektamt"
      },
      "geometry": {
        "type": "Polygon",
        "coordinates": [
          [
            [
              14.4822082,
              52.2739495
            ],
            [
              14.4827261,
              52.2735745
            ],
            [
              14.483385,
              52.2735048
            ],
            [
              14.4836615,
              52.2740025
            ],
            [
              14.482776,
              52.274075
            ],
            [
              14.4822082,
              52.2739495
            ]
          ]
        ]
      }
    },
    {
      "type": "Feature",
      "properties": {
        "slug": "unterholz"
      },
      "geometry": {
        "type": "Polygon",
        "coordinates": [
          [
            [
              14.4837583,
              52.2728033
            ],
            [
              14.482851,
              52.272996
            ],
            [
              14.482556,
              52.273079
            ],
            [
              14.482355,
              52.272675
            ],
            [
              14.4833245,
              52.2722259
            ],
            [
              14.4837583,
              52.2728033
            ]
          ]
        ]
      }
    },
    {
      "type": "Feature",
      "properties": {
        "slug": "waldtraut"
      },
      "geometry": {
        "type": "Polygon",
        "coordinates": [
          [
            [
              14.4823671,
              52.2720409
            ],
            [
              14.481786,
              52.271634
            ],
            [
              14.482273,
              52.271422
            ],
            [
              14.4828341,
              52.271321
            ],
            [
              14.4830395,
              52.2715891
            ],
            [
              14.4831878,
              52.2720328
            ],
            [
              14.4823671,
              52.2720409
            ]
          ]
        ]
      }
    },
    {
      "type": "Feature",
      "properties": {
        "slug": "mirage-glimmer"
      },
      "geometry": {
        "type": "Polygon",
        "coordinates": [
          [
            [
              14.502813,
              52.275712
            ],
            [
              14.502683,
              52.275373
            ],
            [
              14.502916,
              52.275326
            ],
            [
              14.502998,
              52.275436
            ],
            [
              14.503047,
              52.275529
            ],
            [
              14.503106,
              52.275688
            ],
            [
              14.502813,
              52.275712
            ]
          ]
        ]
      }
    }
  ]
}
