{"type": "FeatureCollection", "name": "STERNE", "features": [{"type": "Feature", "geometry": {"type": "Polygon", "coordinates": [[[14.4949733, 52.276912], [14.4949678, 52.2768382], [14.4953535, 52.2768275], [14.495359, 52.2769013], [14.4949733, 52.276912]]]}, "properties": {"id": "adcaea88-6a7f-4ad5-a1e6-d91fe5115e26", "text": "Cuddle Poodle", "symbol": null, "description": null, "color": "#DBB7FF", "type": "Rectangle", "parentId": "d68f766a-acd8-46d5-b7e2-753e26e5f53a", "radius": null, "rotation": null}}, {"type": "Feature", "geometry": {"type": "MultiPolygon", "coordinates": [[[[14.502185, 52.2758059], [14.5022617, 52.2757667], [14.5023568, 52.2758338], [14.5022745, 52.2758741], [14.502185, 52.2758059]]]]}, "properties": {"id": "cfff94f0-d032-4fe9-8462-bd9e07e7214f", "text": "A Quarter to Infinity", "symbol": null, "description": "Space", "color": "#DBB7FF", "type": "Polygon", "parentId": "d68f766a-acd8-46d5-b7e2-753e26e5f53a", "radius": null, "rotation": null}}, {"type": "Feature", "geometry": {"type": "Polygon", "coordinates": [[[14.4952041, 52.2765633], [14.4950622, 52.2765897], [14.4951307, 52.2767273], [14.4952726, 52.2767008], [14.4952041, 52.2765633]]]}, "properties": {"id": "81621d06-1998-47f0-977b-7419b4ab084f", "text": "Neuro|divers", "symbol": null, "description": null, "color": "#DBB7FF", "type": "Rectangle", "parentId": "d68f766a-acd8-46d5-b7e2-753e26e5f53a", "radius": null, "rotation": null}}, {"type": "Feature", "geometry": {"type": "Polygon", "coordinates": [[[14.4942437, 52.278106], [14.4942982, 52.2781127], [14.4943199, 52.2780463], [14.4942654, 52.2780396], [14.4942437, 52.278106]]]}, "properties": {"id": "d6b32dc7-7a12-469f-a397-b4243f9e83fb", "text": "Outzip Zeltverleih", "symbol": null, "description": null, "color": "#DBB7FF", "type": "Rectangle", "parentId": "d68f766a-acd8-46d5-b7e2-753e26e5f53a", "radius": null, "rotation": null}}, {"type": "Feature", "geometry": {"type": "Polygon", "coordinates": [[[14.4943404, 52.2762198], [14.4943087, 52.2761739], [14.4943831, 52.2761547], [14.4944147, 52.2762006], [14.4943404, 52.2762198]]]}, "properties": {"id": "f674fa66-73da-4904-9b4d-a070acc310f3", "text": "Skalahara FOH", "symbol": null, "description": null, "color": "#DBB7FF", "type": "Rectangle", "parentId": "d68f766a-acd8-46d5-b7e2-753e26e5f53a", "radius": null, "rotation": null}}, {"type": "Feature", "geometry": {"type": "Polygon", "coordinates": [[[14.4949562, 52.2768093], [14.4950525, 52.2768041], [14.4950406, 52.2767208], [14.4949443, 52.2767259], [14.4949562, 52.2768093]]]}, "properties": {"id": "95b4313b-38c6-4568-b724-40cc112f0727", "text": "Sterne Backstage", "symbol": null, "description": null, "color": "#DBB7FF", "type": "Rectangle", "parentId": "d68f766a-acd8-46d5-b7e2-753e26e5f53a", "radius": null, "rotation": null}}, {"type": "Feature", "geometry": {"type": "MultiPolygon", "coordinates": [[[[14.4950498, 52.2761817], [14.4950628, 52.2763387], [14.4951047, 52.2764019], [14.4953468, 52.276393], [14.4955615, 52.2763753], [14.4957374, 52.2762963], [14.4958246, 52.2762163], [14.4958294, 52.2761392], [14.4958101, 52.2761126], [14.4955002, 52.2761175], [14.495392, 52.2761323], [14.4950498, 52.2761817]]]]}, "properties": {"id": "5754419f-a36b-4e2c-befd-dad4d7de940b", "text": "Schweißperle", "symbol": null, "description": null, "color": "#DBB7FF", "type": "Polygon", "parentId": "d68f766a-acd8-46d5-b7e2-753e26e5f53a", "radius": null, "rotation": null}}, {"type": "Feature", "geometry": {"type": "Polygon", "coordinates": [[[14.502822, 52.2757849], [14.5027442, 52.275878], [14.5030144, 52.2759626], [14.5030924, 52.2758694], [14.502822, 52.2757849]]]}, "properties": {"id": "93d29a40-af73-42c9-8e13-fe8353cf6759", "text": "The Losers Arcade", "symbol": null, "description": "Space", "color": "#DBB7FF", "type": "Rectangle", "parentId": "d68f766a-acd8-46d5-b7e2-753e26e5f53a", "radius": null, "rotation": null}}, {"type": "Feature", "geometry": {"type": "Point", "coordinates": [14.4984786, 52.2761865]}, "properties": {"id": "5d2c7d15-1e76-49cd-8ed6-387cac140de4", "text": "Momentarium ", "symbol": null, "description": null, "color": "#DBB7FF", "type": "Circle", "parentId": "d68f766a-acd8-46d5-b7e2-753e26e5f53a", "radius": 8.214560003033599, "rotation": null, "_shape": "circle"}}, {"type": "Feature", "geometry": {"type": "MultiPolygon", "coordinates": [[[[14.500379, 52.2759787], [14.5003477, 52.2758929], [14.5003032, 52.2758788], [14.500262, 52.2758848], [14.5002405, 52.275905], [14.5002719, 52.2759958], [14.500379, 52.2759787]]]]}, "properties": {"id": "a6d5abed-277b-4131-b866-ef547be89cd7", "text": "Noland Friseur", "symbol": null, "description": "", "color": "#DBB7FF", "type": "Polygon", "parentId": "d68f766a-acd8-46d5-b7e2-753e26e5f53a", "radius": null, "rotation": null}}, {"type": "Feature", "geometry": {"type": "Polygon", "coordinates": [[[14.5031196, 52.2757677], [14.5031025, 52.2757319], [14.5033244, 52.2756923], [14.5033415, 52.2757281], [14.5031196, 52.2757677]]]}, "properties": {"id": "53fe31aa-70e3-442c-8985-7ddbcbfb152c", "text": "Neo:Trash Oasis", "symbol": null, "description": null, "color": "#DBB7FF", "type": "Rectangle", "parentId": "d68f766a-acd8-46d5-b7e2-753e26e5f53a", "radius": null, "rotation": null}}, {"type": "Feature", "geometry": {"type": "Point", "coordinates": [14.4826084, 52.2740205]}, "properties": {"id": "80c8a83f-c726-4196-8941-7a92c7e6b5a4", "text": "Shenanigames", "symbol": null, "description": null, "color": "#DBB7FF", "type": "Circle", "parentId": "d68f766a-acd8-46d5-b7e2-753e26e5f53a", "radius": 10.33997191450424, "rotation": null, "_shape": "circle"}}, {"type": "Feature", "geometry": {"type": "Point", "coordinates": [14.4989573, 52.2761711]}, "properties": {"id": "1cb3c2bd-9184-48c9-a536-330b101fb7f6", "text": "Kollektiv Sonnenallee", "symbol": null, "description": null, "color": "#DBB7FF", "type": "Circle", "parentId": "d68f766a-acd8-46d5-b7e2-753e26e5f53a", "radius": 3.210295195516711, "rotation": null, "_shape": "circle"}}, {"type": "Feature", "geometry": {"type": "Polygon", "coordinates": [[[14.4829327, 52.2738245], [14.4829749, 52.2738356], [14.4830536, 52.2737234], [14.4830114, 52.2737123], [14.4829327, 52.2738245]]]}, "properties": {"id": "9ec14db0-66d4-46b0-b617-0764a4f02f17", "text": "Sektamt", "symbol": null, "description": null, "color": "#DBB7FF", "type": "Rectangle", "parentId": "d68f766a-acd8-46d5-b7e2-753e26e5f53a", "radius": null, "rotation": null}}, {"type": "Feature", "geometry": {"type": "Polygon", "coordinates": [[[14.4827987, 52.2740356], [14.4828028, 52.273964], [14.4828936, 52.273966], [14.4828894, 52.2740376], [14.4827987, 52.2740356]]]}, "properties": {"id": "56abc01d-5098-4259-a36e-b9f22938e272", "text": "Burghain", "symbol": null, "description": null, "color": "#DBB7FF", "type": "Rectangle", "parentId": "d68f766a-acd8-46d5-b7e2-753e26e5f53a", "radius": null, "rotation": null}}, {"type": "Feature", "geometry": {"type": "Polygon", "coordinates": [[[14.4979499, 52.2762299], [14.4979288, 52.2761876], [14.4979723, 52.2761793], [14.4979936, 52.2762217], [14.4979499, 52.2762299]]]}, "properties": {"id": "e0e21f5d-f999-43cd-a465-9669dda2f973", "text": "The Peepshow", "symbol": null, "description": "possibility", "color": "#DBB7FF", "type": "Rectangle", "parentId": "d68f766a-acd8-46d5-b7e2-753e26e5f53a", "radius": null, "rotation": null}}, {"type": "Feature", "geometry": {"type": "Polygon", "coordinates": [[[14.4821383, 52.2712636], [14.4821315, 52.2712249], [14.482273, 52.2712156], [14.4822798, 52.2712543], [14.4821383, 52.2712636]]]}, "properties": {"id": "15d6187b-ed99-4db6-84a3-dfaf8690df90", "text": "Krawal & Zunft zur Kuh", "symbol": null, "description": null, "color": "#DBB7FF", "type": "Rectangle", "parentId": "d68f766a-acd8-46d5-b7e2-753e26e5f53a", "radius": null, "rotation": null}}, {"type": "Feature", "geometry": {"type": "Point", "coordinates": [14.4842541, 52.2747684]}, "properties": {"id": "fc947663-1a4c-4409-8aaa-38d9dd612628", "text": "Skull", "symbol": null, "description": null, "color": "#DBB7FF", "type": "Circle", "parentId": "d68f766a-acd8-46d5-b7e2-753e26e5f53a", "radius": 3.775711837162561, "rotation": null, "_shape": "circle"}}, {"type": "Feature", "geometry": {"type": "Point", "coordinates": [14.4837741, 52.2741146]}, "properties": {"id": "2d4201fb-66c8-42d3-9d4b-fded17b8c8c4", "text": "Wasserwand Projektion", "symbol": null, "description": null, "color": "#DBB7FF", "type": "Circle", "parentId": "d68f766a-acd8-46d5-b7e2-753e26e5f53a", "radius": 3.9381782517797674, "rotation": null, "_shape": "circle"}}, {"type": "Feature", "geometry": {"type": "Polygon", "coordinates": [[[14.4985023, 52.2759274], [14.4986365, 52.2759088], [14.4986291, 52.2758887], [14.4984949, 52.2759074], [14.4985023, 52.2759274]]]}, "properties": {"id": "db27f61a-7745-4808-b05e-3ab834c41e7e", "text": "Human Wash", "symbol": null, "description": "FIXED!", "color": "#DBB7FF", "type": "Rectangle", "parentId": "d68f766a-acd8-46d5-b7e2-753e26e5f53a", "radius": null, "rotation": null}}, {"type": "Feature", "geometry": {"type": "Point", "coordinates": [14.4949631, 52.2783136]}, "properties": {"id": "06e447d9-5436-4fed-a208-4220b8f790f8", "text": "Müllstation Recycling", "symbol": null, "description": null, "color": "#DBB7FF", "type": "Circle", "parentId": "d68f766a-acd8-46d5-b7e2-753e26e5f53a", "radius": 8.993892646232775, "rotation": null, "_shape": "circle"}}, {"type": "Feature", "geometry": {"type": "Polygon", "coordinates": [[[14.4890666, 52.276793], [14.4891055, 52.2767882], [14.4890977, 52.2767645], [14.4890588, 52.2767693], [14.4890666, 52.276793]]]}, "properties": {"id": "5966d478-13db-4bdf-8a1c-40027e6c74d2", "text": "Geländegestaltung Plaform", "symbol": null, "description": null, "color": "#DBB7FF", "type": "Rectangle", "parentId": "d68f766a-acd8-46d5-b7e2-753e26e5f53a", "radius": null, "rotation": null}}, {"type": "Feature", "geometry": {"type": "Polygon", "coordinates": [[[14.5039763, 52.2757021], [14.5038012, 52.2752546], [14.5052356, 52.2750445], [14.5054106, 52.275492], [14.5039763, 52.2757021]]]}, "properties": {"id": "7c8553e7-6474-47c6-bd4f-7c788b4615f9", "text": "Mein Zelt Steht Schon + KuschelMuschel", "symbol": null, "description": "", "color": "#DBB7FF", "type": "Rectangle", "parentId": "d68f766a-acd8-46d5-b7e2-753e26e5f53a", "radius": null, "rotation": null}}, {"type": "Feature", "geometry": {"type": "Polygon", "coordinates": [[[14.4943555, 52.2763215], [14.4942864, 52.2763076], [14.4943144, 52.2762554], [14.4943836, 52.2762694], [14.4943555, 52.2763215]]]}, "properties": {"id": "38a0e69a-8721-40d8-a42e-8865b848d6e1", "text": "Schrottpurri", "symbol": null, "description": "5 x 6", "color": "#DBB7FF", "type": "Rectangle", "parentId": "d68f766a-acd8-46d5-b7e2-753e26e5f53a", "radius": null, "rotation": null}}, {"type": "Feature", "geometry": {"type": "Point", "coordinates": [14.5007568, 52.2789752]}, "properties": {"id": "e264a795-c8aa-4c56-b939-7119cec5062e", "text": "Müllstation Recycling", "symbol": null, "description": "if we do an afterhour, should happen here", "color": "#DBB7FF", "type": "Circle", "parentId": "d68f766a-acd8-46d5-b7e2-753e26e5f53a", "radius": 8.993892646232775, "rotation": null, "_shape": "circle"}}, {"type": "Feature", "geometry": {"type": "Point", "coordinates": [14.5045833, 52.2752541]}, "properties": {"id": "caada208-5695-4c76-8c7e-ddc3110dff26", "text": "KuschelMuschel ", "symbol": null, "description": "10 2er + 10 4er", "color": "#DBB7FF", "type": "Circle", "parentId": "d68f766a-acd8-46d5-b7e2-753e26e5f53a", "radius": 4.452697782835229, "rotation": null, "_shape": "circle"}}]}