{"type":"FeatureCollection","_smoothed":true,"features":[{"type":"Feature","properties":{"text":"Dusche","slug":"dusche-community-corner"},"geometry":{"type":"Point","coordinates":[14.494858,52.276328]}},{"type":"Feature","properties":{"text":"WC"},"geometry":{"type":"Point","coordinates":[14.499183,52.276398]}},{"type":"Feature","properties":{"text":"WC"},"geometry":{"type":"Point","coordinates":[14.496677,52.278221]}},{"type":"Feature","properties":{"text":"WC"},"geometry":{"type":"Point","coordinates":[14.499438,52.278572]}},{"type":"Feature","properties":{"text":"WC"},"geometry":{"type":"Point","coordinates":[14.489641,52.276656]}},{"type":"Feature","properties":{"text":"WC"},"geometry":{"type":"Point","coordinates":[14.483272,52.274016]}},{"type":"Feature","properties":{"text":"Missoir"},"geometry":{"type":"Point","coordinates":[14.484071,52.275508]}},{"type":"Feature","properties":{"text":"WC"},"geometry":{"type":"Point","coordinates":[14.485277,52.276405]}},{"type":"Feature","properties":{"text":"WC"},"geometry":{"type":"Point","coordinates":[14.494851,52.276416]}},{"type":"Feature","properties":{"text":"Dusche"},"geometry":{"type":"Point","coordinates":[14.492058,52.276943]}},{"type":"Feature","properties":{"text":"Dusche"},"geometry":{"type":"Point","coordinates":[14.492144,52.276942]}},{"type":"Feature","properties":{"text":"WC"},"geometry":{"type":"Point","coordinates":[14.492729,52.278094]}},{"type":"Feature","properties":{"text":"Dusche"},"geometry":{"type":"Point","coordinates":[14.503036,52.276113]}},{"type":"Feature","properties":{"text":"Dusche"},"geometry":{"type":"Point","coordinates":[14.503013,52.276069]}},{"type":"Feature","properties":{"text":"Dusche"},"geometry":{"type":"Point","coordinates":[14.503057,52.276158]}},{"type":"Feature","properties":{"text":"WC"},"geometry":{"type":"Point","coordinates":[14.482538,52.275288]}},{"type":"Feature","properties":{"text":"WC"},"geometry":{"type":"Point","coordinates":[14.48243,52.275173]}},{"type":"Feature","properties":{"text":"WC"},"geometry":{"type":"Point","coordinates":[14.492058,52.27682]}},{"type":"Feature","properties":{"text":"WC"},"geometry":{"type":"Point","coordinates":[14.492142,52.276821]}},{"type":"Feature","properties":{"text":"WC"},"geometry":{"type":"Point","coordinates":[14.482172,52.271973]}},{"type":"Feature","properties":{"text":"WC"},"geometry":{"type":"Point","coordinates":[14.482982,52.272951]}},{"type":"Feature","properties":{"text":"WC"},"geometry":{"type":"Point","coordinates":[14.503407,52.275656]}},{"type":"Feature","properties":{"text":"WC"},"geometry":{"type":"Point","coordinates":[14.501558,52.275725]}},{"type":"Feature","properties":{"text":"WC"},"geometry":{"type":"Point","coordinates":[14.502755,52.277954]}},{"type":"Feature","properties":{"text":"Urinale"},"geometry":{"type":"Point","coordinates":[14.492246,52.276882]}},{"type":"Feature","properties":{"text":"WC"},"geometry":{"type":"Point","coordinates":[14.494191,52.278279]}},{"type":"Feature","properties":{"text":"Urinale"},"geometry":{"type":"Point","coordinates":[14.482315,52.271978]}},{"type":"Feature","properties":{"text":"Urinale"},"geometry":{"type":"Point","coordinates":[14.494998,52.276232]}},{"type":"Feature","properties":{"text":"WC"},"geometry":{"type":"Point","coordinates":[14.488944,52.276526]}},{"type":"Feature","properties":{"text":"WC"},"geometry":{"type":"Point","coordinates":[14.488933,52.276546]}},{"type":"Feature","properties":{"text":"WC"},"geometry":{"type":"Point","coordinates":[14.489599,52.276498]}},{"type":"Feature","properties":{"text":"WC"},"geometry":{"type":"Point","coordinates":[14.48957,52.276508]}},{"type":"Feature","properties":{"text":"Urinale"},"geometry":{"type":"Point","coordinates":[14.485232,52.276329]}},{"type":"Feature","properties":{"text":"Urinale"},"geometry":{"type":"Point","coordinates":[14.48525,52.276362]}},{"type":"Feature","properties":{"text":"Urinale"},"geometry":{"type":"Point","coordinates":[14.48524,52.276346]}},{"type":"Feature","properties":{"text":"WC","slug":"wc-mirage-east"},"geometry":{"type":"Point","coordinates":[14.502892,52.276134]}}]}
