{"type":"FeatureCollection","_smoothed":true,"features":[{"type":"Feature","properties":{"slug":"parking-p4-p5-fill"},"geometry":{"type":"MultiPolygon","coordinates":[[[[14.508356,52.277381],[14.508368,52.277382],[14.508379,52.277385],[14.508389,52.277389],[14.508399,52.277394],[14.509196,52.277896],[14.509203,52.277902],[14.509206,52.277908],[14.509203,52.277914],[14.509195,52.277919],[14.508346,52.278384],[14.508113,52.278511],[14.508103,52.278515],[14.508093,52.278516],[14.508083,52.278515],[14.508073,52.27851],[14.5073,52.278037],[14.507292,52.278031],[14.507287,52.278023],[14.507284,52.278013],[14.507285,52.278003],[14.507419,52.277346],[14.507423,52.277336],[14.507429,52.27733],[14.507437,52.277326],[14.507447,52.277325],[14.508356,52.277381]]],[[[14.508185,52.278672],[14.508177,52.278678],[14.508174,52.278684],[14.508176,52.27869],[14.508183,52.278696],[14.508982,52.279269],[14.508991,52.279274],[14.509001,52.279276],[14.509011,52.279275],[14.509021,52.279271],[14.510163,52.278675],[14.510171,52.27867],[14.510173,52.278664],[14.510171,52.278657],[14.510164,52.278651],[14.509366,52.278079],[14.509356,52.278073],[14.509347,52.278071],[14.509337,52.278072],[14.509327,52.278076],[14.508185,52.278672]]],[[[14.507082,52.279221],[14.507082,52.27923],[14.507085,52.279235],[14.507091,52.279235],[14.507099,52.279231],[14.508016,52.278634],[14.508023,52.278627],[14.508025,52.278621],[14.508023,52.278615],[14.508015,52.278609],[14.5072,52.278118],[14.507191,52.278114],[14.507185,52.278114],[14.50718,52.278119],[14.507178,52.278129],[14.507082,52.279221]]],[[[14.507912,52.278844],[14.508007,52.278646],[14.50801,52.278637],[14.50801,52.278633],[14.508006,52.278633],[14.507998,52.278638],[14.507114,52.279236],[14.507107,52.279242],[14.507105,52.279247],[14.507109,52.279251],[14.507117,52.279254],[14.507705,52.279379],[14.507715,52.27938],[14.507724,52.279377],[14.50773,52.279371],[14.507735,52.279362],[14.507912,52.278844]]]]}},{"type":"Feature","properties":{"slug":"parking-p6-fill"},"geometry":{"type":"MultiPolygon","coordinates":[[[[14.511387,52.279349],[14.511378,52.279344],[14.51137,52.279344],[14.511364,52.279348],[14.511359,52.279357],[14.510974,52.280369],[14.510972,52.280378],[14.510974,52.280386],[14.510979,52.28039],[14.510989,52.280393],[14.513121,52.280588],[14.51313,52.280588],[14.513133,52.280586],[14.513132,52.280583],[14.513125,52.280577],[14.511387,52.279349]]]]}},{"type":"Feature","properties":{"text":"Parkplatz","slug":"parking-p4-p5-label"},"geometry":{"type":"Point","coordinates":[14.508354,52.278365]}},{"type":"Feature","properties":{"text":"Parkplatz","slug":"parking-p6-label"},"geometry":{"type":"Point","coordinates":[14.511826,52.280105]}},{"type":"Feature","properties":{"text":"E3","slug":"entrance-e3"},"geometry":{"type":"Point","coordinates":[14.509576,52.277855]}}]}
