{"type": "FeatureCollection", "features": [{"geometry": {"coordinates": [[[14.502185, 52.2758059], [14.5022617, 52.2757667], [14.5023568, 52.2758338], [14.5022745, 52.2758741], [14.502185, 52.2758059]]], "crs": {"properties": {"name": "EPSG:4326"}, "type": "name"}, "type": "Polygon"}, "properties": {"name": "A Quarter to Infinity", "description": "Space", "felt:color": "#DBB7FF", "felt:fillOpacity": 0.55, "felt:hasLongDescription": false, "felt:id": "z9C9BU8NAyT9BmEYr2eB9BchTD", "felt:locked": false, "felt:ordering": 1771597610443655, "felt:parentId": "1o9A2aqzYRtW34nU9BJuX1OC", "felt:radiusDisplayAngle": 90, "felt:showArea": false, "felt:strokeOpacity": 1, "felt:strokeStyle": "solid", "felt:strokeWidth": 2, "felt:type": "Polygon", "felt:widthScale": 1, "category": "venue"}, "type": "Feature"}, {"geometry": {"coordinates": [[[14.500379, 52.2759787], [14.5002719, 52.2759958], [14.5002405, 52.275905], [14.500262, 52.2758848], [14.5003032, 52.2758788], [14.5003477, 52.2758929], [14.500379, 52.2759787]]], "crs": {"properties": {"name": "EPSG:4326"}, "type": "name"}, "type": "Polygon"}, "properties": {"name": "Noland Friseur", "felt:color": "#DBB7FF", "felt:fillOpacity": 0.55, "felt:hasLongDescription": false, "felt:id": "ptWr7Sd7QTG4Zu9AUe9Bic1D", "felt:locked": false, "felt:ordering": 1771598388941974, "felt:parentId": "1o9A2aqzYRtW34nU9BJuX1OC", "felt:radiusDisplayAngle": 90, "felt:showArea": false, "felt:strokeOpacity": 1, "felt:strokeStyle": "solid", "felt:strokeWidth": 2, "felt:type": "Polygon", "felt:widthScale": 1, "category": "venue"}, "type": "Feature"}, {"geometry": {"coordinates": [[[14.5039763, 52.2757021], [14.5038012, 52.2752546], [14.5052356, 52.2750445], [14.5054106, 52.275492], [14.5039763, 52.2757021]]], "crs": {"properties": {"name": "EPSG:4326"}, "type": "name"}, "type": "Polygon"}, "properties": {"name": "Mein Zelt Steht Schon + KuschelMuschel", "felt:color": "#DBB7FF", "felt:fillOpacity": 0.25, "felt:hasLongDescription": false, "felt:id": "fIVT52R0R8a9AT3x4i0YV9BB", "felt:locked": false, "felt:ordering": 1775076676673287, "felt:parentId": "1o9A2aqzYRtW34nU9BJuX1OC", "felt:radiusDisplayAngle": 90, "felt:showArea": true, "felt:strokeOpacity": 1, "felt:strokeStyle": "solid", "felt:strokeWidth": 2, "felt:type": "Rectangle", "felt:widthScale": 1, "category": "venue"}, "type": "Feature"}, {"geometry": {"coordinates": [[[14.4942437, 52.278106], [14.4942982, 52.2781127], [14.4943199, 52.2780463], [14.4942654, 52.2780396], [14.4942437, 52.278106]]], "crs": {"properties": {"name": "EPSG:4326"}, "type": "name"}, "type": "Polygon"}, "properties": {"name": "Outzip Zeltverleih", "felt:color": "#DBB7FF", "felt:fillOpacity": 0.55, "felt:hasLongDescription": false, "felt:id": "1rMtx3oSRp9Bjl7QkP56D9BD", "felt:locked": false, "felt:ordering": 1775077179496335, "felt:parentId": "1o9A2aqzYRtW34nU9BJuX1OC", "felt:radiusDisplayAngle": 90, "felt:showArea": false, "felt:strokeOpacity": 1, "felt:strokeStyle": "solid", "felt:strokeWidth": 2, "felt:type": "Rectangle", "felt:widthScale": 1, "category": "venue"}, "type": "Feature"}, {"geometry": {"coordinates": [[[14.4949733, 52.276912], [14.4949678, 52.2768382], [14.4953535, 52.2768275], [14.495359, 52.2769013], [14.4949733, 52.276912]]], "crs": {"properties": {"name": "EPSG:4326"}, "type": "name"}, "type": "Polygon"}, "properties": {"name": "Cuddle Poodle", "felt:color": "#DBB7FF", "felt:fillOpacity": 0.55, "felt:hasLongDescription": false, "felt:id": "rcrqiGp9CStWh5tkf5RFeJC", "felt:locked": false, "felt:ordering": 1775208771029475, "felt:parentId": "1o9A2aqzYRtW34nU9BJuX1OC", "felt:radiusDisplayAngle": 90, "felt:showArea": true, "felt:strokeOpacity": 1, "felt:strokeStyle": "solid", "felt:strokeWidth": 2, "felt:type": "Rectangle", "felt:widthScale": 1, "category": "venue"}, "type": "Feature"}, {"geometry": {"coordinates": [[[14.4952041, 52.2765633], [14.4950622, 52.2765897], [14.4951307, 52.2767273], [14.4952726, 52.2767008], [14.4952041, 52.2765633]]], "crs": {"properties": {"name": "EPSG:4326"}, "type": "name"}, "type": "Polygon"}, "properties": {"name": "Neuro|divers", "felt:color": "#DBB7FF", "felt:fillOpacity": 0.55, "felt:hasLongDescription": false, "felt:id": "gWIdBhmYR9CCXe3QZtKsITD", "felt:locked": false, "felt:ordering": 1775208817301152, "felt:parentId": "1o9A2aqzYRtW34nU9BJuX1OC", "felt:radiusDisplayAngle": 90, "felt:showArea": true, "felt:strokeOpacity": 1, "felt:strokeStyle": "solid", "felt:strokeWidth": 2, "felt:type": "Rectangle", "felt:widthScale": 1, "category": "venue"}, "type": "Feature"}, {"geometry": {"coordinates": [[[14.4984786, 52.27626037521091], [14.49846676543299, 52.276260019480986], [14.498455044839897, 52.276258955717104], [14.49844355109698, 52.27625719416394], [14.498432394895767, 52.276254751786304], [14.498421683677018, 52.276251652105735], [14.498411520595983, 52.27624792497397], [14.498402003528952, 52.2762436062855], [14.498393224130654, 52.276238737631815], [14.498385266951546, 52.276233365900886], [14.498378208623558, 52.27622754282558], [14.49837211712208, 52.276221324485476], [14.49836705111134, 52.27621477076673], [14.49836305937942, 52.276207944785384], [14.49836018036845, 52.276200912279464], [14.498358441804376, 52.27619374097595], [14.498357860429978, 52.27618649993844], [14.498358441843639, 52.27617925890212], [14.498360180445466, 52.276172087602106], [14.49836305949123, 52.27616505510187], [14.498367051253645, 52.276158229128185], [14.498372117289415, 52.276151675418774], [14.49837820880949, 52.27614545708931], [14.498385267148928, 52.276139634025554], [14.498393224331902, 52.276134262306634], [14.498402003726337, 52.27612939366496], [14.49841152078191, 52.27612507498804], [14.498421683844352, 52.276121347866926], [14.498432395038074, 52.27611824819569], [14.498443551208789, 52.2761158058257], [14.498455044916911, 52.27611404427823], [14.498466765472255, 52.27611298051785], [14.4984786, 52.27611262478911], [14.498490434527747, 52.27611298051785], [14.49850215508309, 52.27611404427823], [14.498513648791212, 52.2761158058257], [14.498524804961926, 52.27611824819569], [14.498535516155648, 52.276121347866926], [14.49854567921809, 52.27612507498804], [14.498555196273664, 52.27612939366496], [14.498563975668098, 52.276134262306634], [14.498571932851075, 52.276139634025554], [14.498578991190511, 52.27614545708931], [14.498585082710587, 52.276151675418774], [14.498590148746358, 52.276158229128185], [14.498594140508771, 52.27616505510187], [14.498597019554534, 52.276172087602106], [14.498598758156362, 52.27617925890212], [14.498599339570024, 52.27618649993844], [14.498598758195627, 52.27619374097595], [14.498597019631552, 52.276200912279464], [14.49859414062058, 52.276207944785384], [14.498590148888661, 52.27621477076673], [14.498585082877922, 52.276221324485476], [14.498578991376444, 52.27622754282558], [14.498571933048456, 52.276233365900886], [14.498563975869349, 52.276238737631815], [14.498555196471049, 52.2762436062855], [14.49854567940402, 52.27624792497397], [14.498535516322985, 52.276251652105735], [14.498524805104234, 52.276254751786304], [14.498513648903021, 52.27625719416394], [14.498502155160104, 52.276258955717104], [14.49849043456701, 52.276260019480986], [14.4984786, 52.27626037521091]]], "crs": {"properties": {"name": "EPSG:4326"}, "type": "name"}, "type": "Polygon"}, "properties": {"name": "Momentarium ", "felt:color": "#DBB7FF", "felt:fillOpacity": 0.25, "felt:hasLongDescription": false, "felt:id": "XSx9AFR52Sc2O1jh8rBQN5A", "felt:locked": false, "felt:ordering": 1777476632204227, "felt:parentId": "1o9A2aqzYRtW34nU9BJuX1OC", "felt:position": [14.4984786, 52.2761865], "felt:radius": 8.214560003033599, "felt:radiusDisplayAngle": 150.72544194563307, "felt:radiusDisplayUnit": null, "felt:showRadius": false, "felt:strokeOpacity": 1, "felt:strokeStyle": "solid", "felt:strokeWidth": 2, "felt:type": "Circle", "felt:widthScale": 1, "category": "venue"}, "type": "Feature"}, {"geometry": {"coordinates": [[[14.4991474, 52.27609478260581], [14.49914019396067, 52.276094566002044], [14.499133057319646, 52.27609391827678], [14.499126058806885, 52.276092845667975], [14.499119265822078, 52.276091358505475], [14.49911274378554, 52.27608947111151], [14.49910655550819, 52.27608720166277], [14.499100760586618, 52.27608457201532], [14.49909541482914, 52.276081607494184], [14.499090569718355, 52.276078336649384], [14.499086271915301, 52.27607479098101], [14.499082562810111, 52.27607100463584], [14.499079478123397, 52.276067014078514], [14.499077047562247, 52.2760628577403], [14.499075294534123, 52.27605857564909], [14.499074235921467, 52.276054209043785], [14.49907388191909, 52.27604979997718], [14.499074235936025, 52.27604539091101], [14.499075294562678, 52.276041024307], [14.499077047603699, 52.2760367422179], [14.49907947817616, 52.276032585882525], [14.499082562872152, 52.276028595328654], [14.499086271984238, 52.27602480898743], [14.499090569791537, 52.276021263323344], [14.499095414903756, 52.27601799248299], [14.499100760659799, 52.27601502796631], [14.499106555577125, 52.27601239832315], [14.499112743847581, 52.27601012887835], [14.499119265874837, 52.276008241487844], [14.49912605884834, 52.276006754328186], [14.499133057348198, 52.27600568172149], [14.499140193975224, 52.27600503399752], [14.4991474, 52.276004817394195], [14.499154606024778, 52.27600503399752], [14.499161742651804, 52.27600568172149], [14.499168741151662, 52.276006754328186], [14.499175534125165, 52.276008241487844], [14.49918205615242, 52.27601012887835], [14.499188244422875, 52.27601239832315], [14.499194039340203, 52.27601502796631], [14.499199385096246, 52.27601799248299], [14.499204230208464, 52.276021263323344], [14.499208528015764, 52.27602480898743], [14.49921223712785, 52.276028595328654], [14.499215321823842, 52.276032585882525], [14.499217752396303, 52.2760367422179], [14.499219505437324, 52.276041024307], [14.499220564063977, 52.27604539091101], [14.499220918080912, 52.27604979997718], [14.499220564078534, 52.276054209043785], [14.499219505465879, 52.27605857564909], [14.499217752437755, 52.2760628577403], [14.499215321876605, 52.276067014078514], [14.49921223718989, 52.27607100463584], [14.4992085280847, 52.27607479098101], [14.499204230281647, 52.276078336649384], [14.499199385170861, 52.276081607494184], [14.499194039413384, 52.27608457201532], [14.499188244491812, 52.27608720166277], [14.49918205621446, 52.27608947111151], [14.499175534177924, 52.276091358505475], [14.499168741193117, 52.276092845667975], [14.499161742680355, 52.27609391827678], [14.499154606039331, 52.276094566002044], [14.4991474, 52.27609478260581]]], "crs": {"properties": {"name": "EPSG:4326"}, "type": "name"}, "type": "Polygon"}, "properties": {"name": "Feelings Oasis", "felt:color": "#DBB7FF", "felt:fillOpacity": 0.25, "felt:hasLongDescription": false, "felt:id": "e4miPc4hSnWeV8fzQzBFuD", "felt:locked": false, "felt:ordering": 1777477378486901, "felt:parentId": "PzG9Ass5OS3C1sjhY9AqIW0B", "felt:position": [14.4991474, 52.2760498], "felt:radius": 5.001844461451533, "felt:radiusDisplayAngle": 12.064316929788845, "felt:radiusDisplayUnit": null, "felt:showRadius": false, "felt:strokeOpacity": 1, "felt:strokeStyle": "solid", "felt:strokeWidth": 2, "felt:type": "Circle", "felt:widthScale": 1, "category": "venue"}, "type": "Feature"}, {"geometry": {"coordinates": [[[14.4842541, 52.27480235574543], [14.484248660579624, 52.27480219223911], [14.484243273543962, 52.274801703294806], [14.484237990773222, 52.274800893621325], [14.484232863143484, 52.2747997710163], [14.484227940036714, 52.27479834629104], [14.484223268865204, 52.27479663316647], [14.484218894614939, 52.274794648140926], [14.484214859412376, 52.274792410331344], [14.484211202118736, 52.27478994128908], [14.484207957955746, 52.2747872647924], [14.484205158166429, 52.27478440661747], [14.484202829714231, 52.2747813942901], [14.48420099502335, 52.27477825682069], [14.48419967176276, 52.27477502442479], [14.484198872676087, 52.27477172823218], [14.484198605458849, 52.27476839998699], [14.484198872684379, 52.274765071742046], [14.484199671779033, 52.274761775550175], [14.484200995046969, 52.274758543155485], [14.484202829744294, 52.274755405687685], [14.484205158201778, 52.274752393362284], [14.484207957995023, 52.2747495351896], [14.484211202160433, 52.274746858695366], [14.48421485945489, 52.27474438965564], [14.484218894656635, 52.2747421518486], [14.484223268904481, 52.27474016682549], [14.484227940072063, 52.274738453703165], [14.484232863173544, 52.27473702897988], [14.484237990796842, 52.27473590637647], [14.48424327356023, 52.27473509670419], [14.48424866058792, 52.274734607760635], [14.4842541, 52.27473444425456], [14.48425953941208, 52.274734607760635], [14.484264926439769, 52.27473509670419], [14.484270209203158, 52.27473590637647], [14.484275336826455, 52.27473702897988], [14.484280259927937, 52.274738453703165], [14.48428493109552, 52.27474016682549], [14.484289305343363, 52.2747421518486], [14.48429334054511, 52.27474438965564], [14.484296997839566, 52.274746858695366], [14.484300242004977, 52.2747495351896], [14.48430304179822, 52.274752393362284], [14.484305370255704, 52.274755405687685], [14.48430720495303, 52.274758543155485], [14.484308528220968, 52.274761775550175], [14.484309327315621, 52.274765071742046], [14.48430959454115, 52.27476839998699], [14.484309327323913, 52.27477172823218], [14.48430852823724, 52.27477502442479], [14.48430720497665, 52.27477825682069], [14.484305370285767, 52.2747813942901], [14.48430304183357, 52.27478440661747], [14.484300242044252, 52.2747872647924], [14.484296997881264, 52.27478994128908], [14.484293340587625, 52.274792410331344], [14.484289305385062, 52.274794648140926], [14.484284931134797, 52.27479663316647], [14.484280259963285, 52.27479834629104], [14.484275336856514, 52.2747997710163], [14.484270209226777, 52.274800893621325], [14.484264926456039, 52.274801703294806], [14.484259539420375, 52.27480219223911], [14.4842541, 52.27480235574543]]], "crs": {"properties": {"name": "EPSG:4326"}, "type": "name"}, "type": "Polygon"}, "properties": {"name": "Skull", "felt:color": "#DBB7FF", "felt:fillOpacity": 0.25, "felt:hasLongDescription": false, "felt:id": "9CJR2YxpMRAmKqjjZ3WEmKA", "felt:locked": false, "felt:ordering": 1777886281085815, "felt:parentId": "1o9A2aqzYRtW34nU9BJuX1OC", "felt:position": [14.4842541, 52.2747684], "felt:radius": 3.775711837162561, "felt:radiusDisplayAngle": 24.4055669179711, "felt:radiusDisplayUnit": null, "felt:showRadius": false, "felt:strokeOpacity": 1, "felt:strokeStyle": "solid", "felt:strokeWidth": 2, "felt:type": "Circle", "felt:widthScale": 1, "category": "venue"}, "type": "Feature"}, {"geometry": {"coordinates": [[[14.4837741, 52.27415001683897], [14.483768426608417, 52.27414984629708], [14.48376280785483, 52.27414933631381], [14.483757297851026, 52.27414849180059], [14.483751949661475, 52.27414732089056], [14.483746814792259, 52.274145834860256], [14.483741942695065, 52.27414404802101], [14.483737380290911, 52.27414197758106], [14.483733171518281, 52.27413964347993], [14.483729356909974, 52.27413706819634], [14.48372597320273, 52.2741342765317], [14.483723052983471, 52.27413129537131], [14.483720624375442, 52.27412815342543], [14.483718710767379, 52.27412488095272], [14.483717330588275, 52.27412150946891], [14.483716497129894, 52.27411807144326], [14.483716218418772, 52.27411459998585], [14.483716497138918, 52.2741111285287], [14.483717330605971, 52.27410769050386], [14.483718710793074, 52.27410431902136], [14.483720624408145, 52.27410104655041], [14.483723053021928, 52.27409790460667], [14.48372597324546, 52.27409492344873], [14.483729356955335, 52.274092131786745], [14.483733171564532, 52.27408955650591], [14.483737380336272, 52.27408722240754], [14.483741942737794, 52.27408515197025], [14.483746814830715, 52.27408336513345], [14.483751949694177, 52.27408187910528], [14.483757297876721, 52.27408070819702], [14.48376280787253, 52.2740798636851], [14.483768426617441, 52.274079353702646], [14.4837741, 52.274079183161014], [14.48377977338256, 52.274079353702646], [14.483785392127471, 52.2740798636851], [14.48379090212328, 52.27408070819702], [14.483796250305824, 52.27408187910528], [14.483801385169286, 52.27408336513345], [14.483806257262207, 52.27408515197025], [14.483810819663729, 52.27408722240754], [14.483815028435469, 52.27408955650591], [14.483818843044666, 52.274092131786745], [14.48382222675454, 52.27409492344873], [14.483825146978074, 52.27409790460667], [14.483827575591857, 52.27410104655041], [14.483829489206927, 52.27410431902136], [14.48383086939403, 52.27410769050386], [14.483831702861083, 52.2741111285287], [14.483831981581229, 52.27411459998585], [14.483831702870107, 52.27411807144326], [14.483830869411726, 52.27412150946891], [14.483829489232622, 52.27412488095272], [14.48382757562456, 52.27412815342543], [14.48382514701653, 52.27413129537131], [14.48382222679727, 52.2741342765317], [14.483818843090027, 52.27413706819634], [14.48381502848172, 52.27413964347993], [14.48381081970909, 52.27414197758106], [14.483806257304936, 52.27414404802101], [14.483801385207741, 52.274145834860256], [14.483796250338527, 52.27414732089056], [14.483790902148975, 52.27414849180059], [14.48378539214517, 52.27414933631381], [14.483779773391584, 52.27414984629708], [14.4837741, 52.27415001683897]]], "crs": {"properties": {"name": "EPSG:4326"}, "type": "name"}, "type": "Polygon"}, "properties": {"name": "Wasserwand Projektion", "felt:color": "#DBB7FF", "felt:fillOpacity": 0.25, "felt:hasLongDescription": false, "felt:id": "LUIB9B2bIQtOdS9C3tF7jIxA", "felt:locked": false, "felt:ordering": 1777886869238383, "felt:parentId": "1o9A2aqzYRtW34nU9BJuX1OC", "felt:position": [14.4837741, 52.2741146], "felt:radius": 3.9381782517797674, "felt:radiusDisplayAngle": 10.904564111262346, "felt:radiusDisplayUnit": null, "felt:showRadius": false, "felt:strokeOpacity": 1, "felt:strokeStyle": "solid", "felt:strokeWidth": 2, "felt:type": "Circle", "felt:widthScale": 1, "category": "venue"}, "type": "Feature"}, {"geometry": {"coordinates": [[[14.4827987, 52.2740356], [14.4828028, 52.273964], [14.4828936, 52.273966], [14.4828894, 52.2740376], [14.4827987, 52.2740356]]], "crs": {"properties": {"name": "EPSG:4326"}, "type": "name"}, "type": "Polygon"}, "properties": {"name": "Burghain", "felt:color": "#DBB7FF", "felt:fillOpacity": 0.25, "felt:hasLongDescription": false, "felt:id": "VqvAHVCYQlmjbrnyKTjicC", "felt:locked": false, "felt:ordering": 1777887018850232, "felt:parentId": "1o9A2aqzYRtW34nU9BJuX1OC", "felt:radiusDisplayAngle": 90, "felt:showArea": false, "felt:strokeOpacity": 1, "felt:strokeStyle": "solid", "felt:strokeWidth": 2, "felt:type": "Rectangle", "felt:widthScale": 1, "category": "venue"}, "type": "Feature"}, {"geometry": {"coordinates": [[[14.4829327, 52.2738245], [14.4829749, 52.2738356], [14.4830536, 52.2737234], [14.4830114, 52.2737123], [14.4829327, 52.2738245]]], "crs": {"properties": {"name": "EPSG:4326"}, "type": "name"}, "type": "Polygon"}, "properties": {"name": "Sektamt", "felt:color": "#DBB7FF", "felt:fillOpacity": 0.25, "felt:hasLongDescription": false, "felt:id": "nsFNsGbURrC2FwdkpPAvFD", "felt:locked": false, "felt:ordering": 1777887030027966, "felt:parentId": "1o9A2aqzYRtW34nU9BJuX1OC", "felt:radiusDisplayAngle": 90, "felt:showArea": false, "felt:strokeOpacity": 1, "felt:strokeStyle": "solid", "felt:strokeWidth": 2, "felt:type": "Rectangle", "felt:widthScale": 1, "category": "venue"}, "type": "Feature"}, {"geometry": {"coordinates": [[[14.482608399999998, 52.27411348947302], [14.482593504112318, 52.274113041702364], [14.482578751681075, 52.274111702702655], [14.482564284781109, 52.274109485369316], [14.482550242737368, 52.274106411056586], [14.4825367607831, 52.27410250937194], [14.482523968757475, 52.27409781789097], [14.482511989855109, 52.27409238179545], [14.482500939439644, 52.27408625343818], [14.482490923932708, 52.2740794918389], [14.482482039789028, 52.27407216211576], [14.48247437256749, 52.274064334858274], [14.482467996107214, 52.27405608544745], [14.482462971816425, 52.27404749332984], [14.482459348081091, 52.2740386412524], [14.482457159798976, 52.274029614465626], [14.482456428043566, 52.274020499902456], [14.482457159861175, 52.27401138534116], [14.4824593482031, 52.274002358559926], [14.482462971993552, 52.27399350649151], [14.482467996332655, 52.27398491438603], [14.482474372832582, 52.27397666498998], [14.482482040083582, 52.27396883774936], [14.482490924245408, 52.273961508044515], [14.482500939758467, 52.27395474646427], [14.482511990167804, 52.27394861812603], [14.482523969052028, 52.273943182048804], [14.482536761048193, 52.2739384905847], [14.482550242962809, 52.273934588914834], [14.48256428495824, 52.273931514614226], [14.482578751803086, 52.273929297289904], [14.48259350417452, 52.27392795829575], [14.482608399999998, 52.27392751052697], [14.48262329582548, 52.27392795829575], [14.482638048196913, 52.273929297289904], [14.482652515041758, 52.273931514614226], [14.48266655703719, 52.273934588914834], [14.482680038951804, 52.2739384905847], [14.482692830947968, 52.273943182048804], [14.482704809832192, 52.27394861812603], [14.482715860241532, 52.27395474646427], [14.48272587575459, 52.273961508044515], [14.482734759916417, 52.27396883774936], [14.482742427167414, 52.27397666498998], [14.482748803667342, 52.27398491438603], [14.482753828006445, 52.27399350649151], [14.482757451796898, 52.274002358559926], [14.482759640138823, 52.27401138534116], [14.48276037195643, 52.274020499902456], [14.48275964020102, 52.274029614465626], [14.482757451918907, 52.2740386412524], [14.482753828183574, 52.27404749332984], [14.482748803892783, 52.27405608544745], [14.482742427432507, 52.274064334858274], [14.48273476021097, 52.27407216211576], [14.482725876067288, 52.2740794918389], [14.482715860560353, 52.27408625343818], [14.482704810144888, 52.27409238179545], [14.482692831242524, 52.27409781789097], [14.482680039216897, 52.27410250937194], [14.48266655726263, 52.274106411056586], [14.48265251521889, 52.274109485369316], [14.482638048318922, 52.274111702702655], [14.482623295887679, 52.274113041702364], [14.482608399999998, 52.27411348947302]]], "crs": {"properties": {"name": "EPSG:4326"}, "type": "name"}, "type": "Polygon"}, "properties": {"name": "Shenanigames", "felt:color": "#DBB7FF", "felt:fillOpacity": 0.25, "felt:hasLongDescription": false, "felt:id": "gMioP8cmQZaJQXqSx9Ba1pA", "felt:locked": false, "felt:ordering": 1777887107082297, "felt:parentId": "1o9A2aqzYRtW34nU9BJuX1OC", "felt:position": [14.4826084, 52.2740205], "felt:radius": 10.33997191450424, "felt:radiusDisplayAngle": 10.89701733931031, "felt:radiusDisplayUnit": null, "felt:showRadius": false, "felt:strokeOpacity": 1, "felt:strokeStyle": "solid", "felt:strokeWidth": 2, "felt:type": "Circle", "felt:widthScale": 1, "category": "venue"}, "type": "Feature"}, {"geometry": {"coordinates": [[[14.4979499, 52.2762299], [14.4979288, 52.2761876], [14.4979723, 52.2761793], [14.4979936, 52.2762217], [14.4979499, 52.2762299]]], "crs": {"properties": {"name": "EPSG:4326"}, "type": "name"}, "type": "Polygon"}, "properties": {"name": "The Peepshow", "description": "possibility", "felt:color": "#DBB7FF", "felt:fillOpacity": 0.25, "felt:hasLongDescription": false, "felt:id": "4OIfXfmZQ82kZZZp3aL5cD", "felt:locked": false, "felt:ordering": 1777887140218665, "felt:parentId": "1o9A2aqzYRtW34nU9BJuX1OC", "felt:radiusDisplayAngle": 90, "felt:showArea": true, "felt:strokeOpacity": 1, "felt:strokeStyle": "solid", "felt:strokeWidth": 2, "felt:type": "Rectangle", "felt:widthScale": 1, "category": "venue"}, "type": "Feature"}, {"geometry": {"coordinates": [[[14.498957299999999, 52.27619997083843], [14.498952674992452, 52.276199831817365], [14.498948094526341, 52.276199416093], [14.498943602714144, 52.27619872766902], [14.49893924281454, 52.27619777317534], [14.49893505681582, 52.27619656180424], [14.498931085031488, 52.27619510522192], [14.498927365712046, 52.27619341745612], [14.49892393467659, 52.27619151476092], [14.498920824967882, 52.27618941546038], [14.49891806653411, 52.276187139771935], [14.498915685940469, 52.27618470961171], [14.498913706113335, 52.27618214838352], [14.498912146119478, 52.2761794807534], [14.498911020982417, 52.27617673241212], [14.498910341537762, 52.276173929827706], [14.498910114328856, 52.2761710999906], [14.49891034154376, 52.27616827015366], [14.498911020994179, 52.27616546756979], [14.498912146136554, 52.27616271922937], [14.498913706135072, 52.27616005160043], [14.498915685966024, 52.27615749037366], [14.498918066562506, 52.27615506021505], [14.498920824998033, 52.27615278452837], [14.498923934707328, 52.27615068522967], [14.49892736574219, 52.27614878253631], [14.498931085059887, 52.27614709477226], [14.498935056841377, 52.27614563819158], [14.498939242836277, 52.27614442682191], [14.49894360273122, 52.27614347232939], [14.498948094538104, 52.27614278390628], [14.498952674998447, 52.276142368182455], [14.498957299999999, 52.27614222916157], [14.49896192500155, 52.276142368182455], [14.498966505461896, 52.27614278390628], [14.49897099726878, 52.27614347232939], [14.498975357163722, 52.27614442682191], [14.498979543158622, 52.27614563819158], [14.498983514940111, 52.27614709477226], [14.498987234257807, 52.27614878253631], [14.498990665292672, 52.27615068522967], [14.498993775001967, 52.27615278452837], [14.498996533437492, 52.27615506021505], [14.498998914033974, 52.27615749037366], [14.499000893864928, 52.27616005160043], [14.499002453863444, 52.27616271922937], [14.49900357900582, 52.27616546756979], [14.499004258456237, 52.27616827015366], [14.499004485671142, 52.2761710999906], [14.499004258462236, 52.276173929827706], [14.49900357901758, 52.27617673241212], [14.49900245388052, 52.2761794807534], [14.499000893886663, 52.27618214838352], [14.498998914059529, 52.27618470961171], [14.498996533465888, 52.276187139771935], [14.498993775032115, 52.27618941546038], [14.498990665323408, 52.27619151476092], [14.498987234287952, 52.27619341745612], [14.49898351496851, 52.27619510522192], [14.498979543184177, 52.27619656180424], [14.498975357185458, 52.27619777317534], [14.498970997285856, 52.27619872766902], [14.498966505473657, 52.276199416093], [14.498961925007546, 52.276199831817365], [14.498957299999999, 52.27619997083843]]], "crs": {"properties": {"name": "EPSG:4326"}, "type": "name"}, "type": "Polygon"}, "properties": {"name": "Kollektiv Sonnenallee", "felt:color": "#DBB7FF", "felt:fillOpacity": 0.25, "felt:hasLongDescription": false, "felt:id": "HLPCvZGESMmlNjMLEB9B39AC", "felt:locked": false, "felt:ordering": 1777887893199643, "felt:parentId": "1o9A2aqzYRtW34nU9BJuX1OC", "felt:position": [14.4989573, 52.2761711], "felt:radius": 3.210295195516711, "felt:radiusDisplayAngle": 25.439995233556886, "felt:radiusDisplayUnit": null, "felt:showRadius": false, "felt:strokeOpacity": 1, "felt:strokeStyle": "solid", "felt:strokeWidth": 2, "felt:type": "Circle", "felt:widthScale": 1, "category": "venue"}, "type": "Feature"}, {"geometry": {"coordinates": [[[14.4985023, 52.2759274], [14.4986365, 52.2759088], [14.4986291, 52.2758887], [14.4984949, 52.2759074], [14.4985023, 52.2759274]]], "crs": {"properties": {"name": "EPSG:4326"}, "type": "name"}, "type": "Polygon"}, "properties": {"name": "Human Wash", "description": "FIXED!", "felt:color": "#DBB7FF", "felt:fillOpacity": 0.25, "felt:hasLongDescription": false, "felt:id": "2yf2GndFSAiwXjq4NMQefC", "felt:locked": false, "felt:ordering": 1777887941475247, "felt:parentId": "1o9A2aqzYRtW34nU9BJuX1OC", "felt:radiusDisplayAngle": 90, "felt:showArea": true, "felt:strokeOpacity": 1, "felt:strokeStyle": "solid", "felt:strokeWidth": 2, "felt:type": "Rectangle", "felt:widthScale": 1, "category": "venue"}, "type": "Feature"}, {"geometry": {"coordinates": [[[14.4943555, 52.2763215], [14.4942864, 52.2763076], [14.4943144, 52.2762554], [14.4943836, 52.2762694], [14.4943555, 52.2763215]]], "crs": {"properties": {"name": "EPSG:4326"}, "type": "name"}, "type": "Polygon"}, "properties": {"name": "Schrottpurri", "description": "5 x 6", "felt:color": "#DBB7FF", "felt:fillOpacity": 0.25, "felt:hasLongDescription": false, "felt:id": "OKDmmochQNikLohluEjW4B", "felt:locked": false, "felt:ordering": 1778066493395407, "felt:parentId": "1o9A2aqzYRtW34nU9BJuX1OC", "felt:radiusDisplayAngle": 90, "felt:showArea": true, "felt:strokeOpacity": 1, "felt:strokeStyle": "solid", "felt:strokeWidth": 2, "felt:type": "Rectangle", "felt:widthScale": 1, "category": "venue"}, "type": "Feature"}, {"geometry": {"coordinates": [[[14.4950498, 52.2761817], [14.495392, 52.2761323], [14.4955002, 52.2761175], [14.4958101, 52.2761126], [14.4958294, 52.2761392], [14.4958246, 52.2762163], [14.4957374, 52.2762963], [14.4955615, 52.2763753], [14.4953468, 52.276393], [14.4951047, 52.2764019], [14.4950628, 52.2763387], [14.4950498, 52.2761817]]], "crs": {"properties": {"name": "EPSG:4326"}, "type": "name"}, "type": "Polygon"}, "properties": {"name": "Schweißperle", "felt:color": "#DBB7FF", "felt:fillOpacity": 0.55, "felt:hasLongDescription": false, "felt:id": "V1RBn6NrTiy9B9CdrU19A6UCD", "felt:locked": false, "felt:ordering": 1783328067197013, "felt:parentId": "1o9A2aqzYRtW34nU9BJuX1OC", "felt:radiusDisplayAngle": 90, "felt:showArea": false, "felt:strokeOpacity": 1, "felt:strokeStyle": "solid", "felt:strokeWidth": 2, "felt:type": "Polygon", "felt:widthScale": 1, "category": "venue"}, "type": "Feature"}, {"geometry": {"coordinates": [[[14.502822, 52.2757849], [14.5027442, 52.275878], [14.5030144, 52.2759626], [14.5030924, 52.2758694], [14.502822, 52.2757849]]], "crs": {"properties": {"name": "EPSG:4326"}, "type": "name"}, "type": "Polygon"}, "properties": {"name": "The Losers Arcade", "description": "Space", "felt:color": "#DBB7FF", "felt:fillOpacity": 0.25, "felt:hasLongDescription": false, "felt:id": "k9AKaQK9AzQsmOE9C6DU89AnWB", "felt:locked": false, "felt:ordering": 1783342990352157, "felt:parentId": "1o9A2aqzYRtW34nU9BJuX1OC", "felt:radiusDisplayAngle": 90, "felt:showArea": true, "felt:strokeOpacity": 1, "felt:strokeStyle": "solid", "felt:strokeWidth": 1, "felt:type": "Rectangle", "felt:widthScale": 1, "category": "venue"}, "type": "Feature"}, {"geometry": {"coordinates": [[[14.4997429, 52.2760913], [14.4996745, 52.2759122], [14.4997316, 52.275904], [14.4998, 52.2760832], [14.4997429, 52.2760913]]], "crs": {"properties": {"name": "EPSG:4326"}, "type": "name"}, "type": "Polygon"}, "properties": {"name": "Bike Space", "description": "Thorsten checking for the possibility to use this holzhute (black structure marked in the map) ", "felt:color": "#DBB7FF", "felt:fillOpacity": 0.25, "felt:hasLongDescription": false, "felt:id": "yIipn1RVRUqg1RQr30q7uD", "felt:locked": false, "felt:ordering": 1783685676708515, "felt:radiusDisplayAngle": 90, "felt:showArea": false, "felt:strokeOpacity": 1, "felt:strokeStyle": "solid", "felt:strokeWidth": 2, "felt:type": "Rectangle", "felt:widthScale": 1, "category": "venue"}, "type": "Feature"}, {"geometry": {"coordinates": [[[14.5031196, 52.2757677], [14.5031025, 52.2757319], [14.5033244, 52.2756923], [14.5033415, 52.2757281], [14.5031196, 52.2757677]]], "crs": {"properties": {"name": "EPSG:4326"}, "type": "name"}, "type": "Polygon"}, "properties": {"name": "Neo:Trash Oasis", "felt:color": "#DBB7FF", "felt:fillOpacity": 0.25, "felt:hasLongDescription": false, "felt:id": "U9C4xqnDjRCyJhX3by9CsVLA", "felt:locked": false, "felt:ordering": 1783947414212452, "felt:parentId": "1o9A2aqzYRtW34nU9BJuX1OC", "felt:radiusDisplayAngle": 90, "felt:showArea": false, "felt:strokeOpacity": 1, "felt:strokeStyle": "solid", "felt:strokeWidth": 2, "felt:type": "Rectangle", "felt:widthScale": 1, "category": "venue"}, "type": "Feature"}, {"geometry": {"coordinates": [[[14.4821383, 52.2712636], [14.4821315, 52.2712249], [14.482273, 52.2712156], [14.4822798, 52.2712543], [14.4821383, 52.2712636]]], "crs": {"properties": {"name": "EPSG:4326"}, "type": "name"}, "type": "Polygon"}, "properties": {"name": "Krawal & Zunft zur Kuh", "felt:color": "#DBB7FF", "felt:fillOpacity": 0.25, "felt:hasLongDescription": false, "felt:id": "FdYYe9B2ZTbaEo9A9BvhpDfkA", "felt:locked": false, "felt:ordering": 1777888360579009, "felt:parentId": "1o9A2aqzYRtW34nU9BJuX1OC", "felt:radiusDisplayAngle": 90, "felt:showArea": true, "felt:strokeOpacity": 1, "felt:strokeStyle": "solid", "felt:strokeWidth": 2, "felt:type": "Rectangle", "felt:widthScale": 1, "category": "venue"}, "type": "Feature"}]}