{"type":"FeatureCollection","_smoothed":true,"features":[{"type":"Feature","properties":{"text":"Camp Waschbär"},"geometry":{"type":"Polygon","coordinates":[[[14.500679,52.277023],[14.500678,52.277028],[14.500678,52.27703],[14.500677,52.277032],[14.500678,52.277034],[14.500678,52.277036],[14.500678,52.277036],[14.500679,52.277038],[14.50068,52.27704],[14.500681,52.277041],[14.500682,52.277043],[14.500682,52.277043],[14.500684,52.277044],[14.500685,52.277045],[14.500687,52.277045],[14.500689,52.277046],[14.500695,52.277047],[14.507021,52.277872],[14.507027,52.277872],[14.50703,52.277872],[14.507032,52.277872],[14.507034,52.277871],[14.507036,52.277871],[14.507037,52.27787],[14.507039,52.27787],[14.507041,52.277869],[14.507043,52.277867],[14.507044,52.277866],[14.507044,52.277866],[14.507046,52.277864],[14.507048,52.277863],[14.507049,52.277861],[14.507051,52.277859],[14.507051,52.277859],[14.507052,52.277856],[14.507054,52.277854],[14.507055,52.277852],[14.507056,52.277849],[14.507426,52.27705],[14.507427,52.277047],[14.507428,52.277045],[14.50743,52.277043],[14.507431,52.27704],[14.507432,52.27704],[14.507433,52.277038],[14.507434,52.277036],[14.507436,52.277035],[14.507437,52.277034],[14.507437,52.277034],[14.507439,52.277032],[14.507441,52.277031],[14.507443,52.27703],[14.507445,52.27703],[14.507445,52.27703],[14.507448,52.277029],[14.50745,52.277028],[14.507452,52.277028],[14.507455,52.277028],[14.507455,52.277028],[14.507458,52.277028],[14.507461,52.277028],[14.507464,52.277029],[14.507466,52.277029],[14.50869,52.277247],[14.508701,52.277248],[14.508706,52.277248],[14.508709,52.277248],[14.508712,52.277248],[14.508715,52.277247],[14.508717,52.277247],[14.508717,52.277247],[14.50872,52.277246],[14.508723,52.277246],[14.508726,52.277245],[14.508728,52.277244],[14.508734,52.277242],[14.50883,52.277206],[14.508836,52.277203],[14.508838,52.277203],[14.508839,52.277202],[14.50884,52.277201],[14.50884,52.2772],[14.50884,52.2772],[14.508841,52.277198],[14.508841,52.277197],[14.508841,52.277196],[14.508841,52.277194],[14.508841,52.277194],[14.50884,52.277193],[14.50884,52.277191],[14.508839,52.27719],[14.508838,52.277189],[14.508833,52.277185],[14.506329,52.275362],[14.506323,52.275359],[14.506321,52.275357],[14.506319,52.275356],[14.506316,52.275355],[14.506314,52.275355],[14.506309,52.275353],[14.506304,52.275352],[14.506301,52.275352],[14.506299,52.275351],[14.506296,52.275351],[14.506294,52.275351],[14.506287,52.275352],[14.502191,52.275989],[14.502185,52.275991],[14.502183,52.275991],[14.50218,52.275992],[14.502178,52.275993],[14.502175,52.275994],[14.502175,52.275994],[14.502173,52.275996],[14.502171,52.275997],[14.502169,52.275999],[14.502167,52.276],[14.502163,52.276004],[14.502156,52.276012],[14.50215,52.276021],[14.502146,52.276025],[14.502145,52.276027],[14.502143,52.276029],[14.502141,52.27603],[14.502139,52.276032],[14.502139,52.276032],[14.502137,52.276033],[14.502135,52.276035],[14.502133,52.276036],[14.50213,52.276037],[14.50213,52.276036],[14.502128,52.276037],[14.502126,52.276038],[14.502124,52.276038],[14.502121,52.276038],[14.502121,52.276038],[14.502118,52.276039],[14.502115,52.276039],[14.502112,52.276039],[14.502109,52.276039],[14.501948,52.276026],[14.501946,52.276026],[14.501943,52.276026],[14.501941,52.276026],[14.501938,52.276027],[14.501937,52.276027],[14.501935,52.276027],[14.501933,52.276027],[14.501931,52.276028],[14.501929,52.276028],[14.501929,52.276028],[14.501927,52.276029],[14.501925,52.27603],[14.501924,52.276032],[14.501922,52.276033],[14.501921,52.276033],[14.50192,52.276035],[14.501918,52.276037],[14.501917,52.276039],[14.501916,52.276042],[14.501914,52.276047],[14.501838,52.276307],[14.501836,52.276313],[14.501835,52.276315],[14.501834,52.276317],[14.501832,52.276319],[14.501831,52.27632],[14.501831,52.27632],[14.501829,52.276322],[14.501828,52.276324],[14.501826,52.276325],[14.501824,52.276326],[14.501824,52.276326],[14.501821,52.276327],[14.501819,52.276328],[14.501817,52.276328],[14.501814,52.276328],[14.501809,52.276329],[14.500948,52.276296],[14.500941,52.276297],[14.500939,52.276297],[14.500937,52.276297],[14.500935,52.276298],[14.500933,52.276299],[14.500933,52.276299],[14.500931,52.2763],[14.500929,52.276301],[14.500927,52.276303],[14.500926,52.276304],[14.500925,52.276304],[14.500924,52.276306],[14.500922,52.276308],[14.500921,52.27631],[14.50092,52.276312],[14.500919,52.276313],[14.500918,52.276315],[14.500917,52.276317],[14.500916,52.276319],[14.500915,52.276322],[14.500679,52.277023]]]}},{"type":"Feature","properties":{"text":"Camp Qualle"},"geometry":{"type":"Polygon","coordinates":[[[14.494521,52.277901],[14.494521,52.277901],[14.494521,52.277902],[14.494521,52.277903],[14.494521,52.277903],[14.494521,52.277904],[14.494521,52.277904],[14.494521,52.277905],[14.494521,52.277905],[14.494521,52.277906],[14.494521,52.277906],[14.49452,52.277907],[14.49452,52.277907],[14.49452,52.277908],[14.49452,52.277908],[14.49452,52.277909],[14.49452,52.277909],[14.49452,52.27791],[14.49452,52.27791],[14.494519,52.277911],[14.494519,52.277912],[14.494519,52.277912],[14.494519,52.277912],[14.494519,52.277912],[14.494519,52.277912],[14.494519,52.277913],[14.494519,52.277915],[14.494519,52.277916],[14.494519,52.277916],[14.494519,52.277917],[14.494519,52.277917],[14.494519,52.277918],[14.49452,52.277918],[14.49452,52.277919],[14.49452,52.277919],[14.49452,52.27792],[14.49452,52.27792],[14.49452,52.27792],[14.49452,52.277921],[14.49452,52.277921],[14.49452,52.277921],[14.494521,52.277921],[14.494521,52.277921],[14.494521,52.277922],[14.494521,52.277922],[14.494521,52.277922],[14.494521,52.277923],[14.494521,52.277923],[14.494521,52.277923],[14.494521,52.277924],[14.494522,52.277924],[14.494522,52.277924],[14.494522,52.277925],[14.494523,52.277925],[14.494523,52.277925],[14.494523,52.277925],[14.494523,52.277926],[14.494524,52.277926],[14.494526,52.277928],[14.494526,52.277929],[14.494527,52.277929],[14.494527,52.277929],[14.494527,52.277929],[14.494528,52.277929],[14.494528,52.277929],[14.494528,52.277929],[14.494529,52.277929],[14.494529,52.277929],[14.49453,52.277929],[14.494531,52.27793],[14.494531,52.27793],[14.494531,52.27793],[14.494531,52.27793],[14.494532,52.27793],[14.494532,52.27793],[14.494532,52.27793],[14.494532,52.27793],[14.494532,52.27793],[14.494532,52.27793],[14.494534,52.277931],[14.494534,52.277931],[14.494535,52.277931],[14.494535,52.277931],[14.494536,52.277932],[14.494536,52.277932],[14.494537,52.277932],[14.494537,52.277932],[14.494538,52.277932],[14.494538,52.277932],[14.494539,52.277932],[14.494539,52.277932],[14.49454,52.277932],[14.49454,52.277932],[14.494541,52.277932],[14.494541,52.277932],[14.494542,52.277933],[14.494542,52.277933],[14.494543,52.277933],[14.494543,52.277933],[14.500137,52.27859],[14.500138,52.27859],[14.500139,52.27859],[14.50014,52.27859],[14.500141,52.27859],[14.500141,52.278591],[14.500142,52.278591],[14.500142,52.278591],[14.500143,52.278591],[14.500143,52.278591],[14.500144,52.278591],[14.500146,52.278591],[14.500146,52.278591],[14.500147,52.278591],[14.500147,52.278591],[14.500148,52.27859],[14.500148,52.27859],[14.500149,52.27859],[14.500149,52.27859],[14.50015,52.27859],[14.50015,52.27859],[14.500152,52.27859],[14.500153,52.27859],[14.500153,52.27859],[14.500154,52.27859],[14.500154,52.27859],[14.500155,52.27859],[14.500155,52.278589],[14.500156,52.278589],[14.500156,52.278589],[14.500157,52.278589],[14.500157,52.278589],[14.500158,52.278588],[14.500159,52.278588],[14.500159,52.278588],[14.50016,52.278588],[14.50016,52.278588],[14.50016,52.278588],[14.50016,52.278588],[14.500161,52.278588],[14.500161,52.278588],[14.500162,52.278588],[14.500162,52.278588],[14.500162,52.278587],[14.500163,52.278587],[14.500163,52.278586],[14.500163,52.278586],[14.500164,52.278586],[14.500164,52.278586],[14.500164,52.278585],[14.500165,52.278585],[14.500165,52.278585],[14.500165,52.278585],[14.500165,52.278584],[14.500166,52.278584],[14.500166,52.278583],[14.500166,52.278583],[14.500167,52.278583],[14.500167,52.278583],[14.500167,52.278582],[14.500168,52.278582],[14.500168,52.278582],[14.500168,52.278582],[14.500168,52.278581],[14.500169,52.278581],[14.500169,52.27858],[14.50017,52.27858],[14.50017,52.278579],[14.50017,52.278578],[14.500171,52.278577],[14.500171,52.278577],[14.500171,52.278576],[14.500171,52.278576],[14.500173,52.278571],[14.500847,52.276136],[14.500847,52.276136],[14.500847,52.276135],[14.500847,52.276134],[14.500847,52.276134],[14.500847,52.276133],[14.500847,52.276133],[14.500847,52.276132],[14.500847,52.276132],[14.500847,52.276131],[14.500847,52.276131],[14.500848,52.27613],[14.500848,52.27613],[14.500848,52.276129],[14.500848,52.276129],[14.500848,52.276128],[14.500848,52.276128],[14.500848,52.276127],[14.500848,52.276127],[14.500849,52.276126],[14.500849,52.276125],[14.500849,52.276125],[14.500849,52.276125],[14.500849,52.276125],[14.500849,52.276125],[14.500849,52.276124],[14.500849,52.276122],[14.500849,52.276121],[14.500849,52.276121],[14.500849,52.27612],[14.500849,52.27612],[14.500849,52.276119],[14.500848,52.276118],[14.500848,52.276118],[14.500848,52.276118],[14.500848,52.276118],[14.500848,52.276117],[14.500848,52.276117],[14.500848,52.276117],[14.500848,52.276116],[14.500848,52.276116],[14.500848,52.276116],[14.500848,52.276116],[14.500847,52.276116],[14.500847,52.276115],[14.500847,52.276115],[14.500847,52.276115],[14.500847,52.276114],[14.500846,52.276114],[14.500846,52.276113],[14.500846,52.276113],[14.500846,52.276113],[14.500846,52.276112],[14.500845,52.276112],[14.500844,52.276111],[14.500844,52.276111],[14.500844,52.276111],[14.500844,52.276111],[14.500843,52.276111],[14.500843,52.27611],[14.500842,52.27611],[14.500842,52.27611],[14.500842,52.27611],[14.500841,52.27611],[14.500841,52.27611],[14.500841,52.276109],[14.500841,52.276109],[14.500841,52.276109],[14.50084,52.276109],[14.500839,52.276109],[14.500838,52.276109],[14.500838,52.276109],[14.500837,52.276109],[14.500837,52.276109],[14.500836,52.276109],[14.500834,52.276108],[14.500832,52.276108],[14.500831,52.276108],[14.500829,52.276108],[14.500828,52.276108],[14.500591,52.276108],[14.500579,52.276108],[14.500567,52.276109],[14.500556,52.27611],[14.500545,52.276111],[14.49671,52.276678],[14.496705,52.276679],[14.496705,52.276679],[14.496704,52.276679],[14.496703,52.276679],[14.496702,52.276679],[14.496701,52.276679],[14.496698,52.276679],[14.496695,52.276679],[14.496693,52.276679],[14.496693,52.276679],[14.496692,52.276679],[14.496691,52.276679],[14.496691,52.276679],[14.496687,52.276678],[14.496676,52.276676],[14.496665,52.276673],[14.496549,52.276625],[14.496544,52.276623],[14.496544,52.276623],[14.496543,52.276623],[14.496543,52.276623],[14.496542,52.276623],[14.496542,52.276623],[14.496541,52.276622],[14.496541,52.276622],[14.49654,52.276622],[14.49654,52.276622],[14.496539,52.276621],[14.496539,52.276621],[14.496538,52.276621],[14.496537,52.276621],[14.496536,52.276621],[14.496536,52.276621],[14.496536,52.276621],[14.496535,52.276621],[14.496535,52.276621],[14.496534,52.27662],[14.496534,52.27662],[14.496533,52.27662],[14.496533,52.27662],[14.496532,52.27662],[14.496532,52.27662],[14.496527,52.276619],[14.496523,52.276618],[14.496523,52.276618],[14.496522,52.276618],[14.496521,52.276618],[14.49652,52.276618],[14.496519,52.276618],[14.496516,52.276618],[14.496513,52.276618],[14.496512,52.276618],[14.496511,52.276618],[14.49651,52.276618],[14.496509,52.276618],[14.496509,52.276618],[14.496505,52.276619],[14.494829,52.276824],[14.494829,52.276824],[14.494828,52.276824],[14.494828,52.276824],[14.494827,52.276825],[14.494827,52.276825],[14.494826,52.276825],[14.494826,52.276825],[14.494825,52.276825],[14.494825,52.276825],[14.494824,52.276825],[14.494824,52.276825],[14.494823,52.276825],[14.494823,52.276825],[14.494822,52.276826],[14.494822,52.276826],[14.494821,52.276826],[14.494821,52.276826],[14.49482,52.276826],[14.49482,52.276826],[14.494818,52.276826],[14.494818,52.276826],[14.494818,52.276826],[14.494818,52.276826],[14.494818,52.276826],[14.494818,52.276826],[14.494818,52.276827],[14.494818,52.276827],[14.494818,52.276827],[14.494818,52.276827],[14.494816,52.276827],[14.494816,52.276827],[14.494815,52.276827],[14.494815,52.276827],[14.494814,52.276827],[14.494813,52.276828],[14.494811,52.276829],[14.494808,52.276831],[14.494806,52.276832],[14.494805,52.276833],[14.494805,52.276833],[14.494804,52.276833],[14.494804,52.276834],[14.494803,52.276834],[14.494803,52.276834],[14.494803,52.276834],[14.494803,52.276835],[14.494803,52.276835],[14.494802,52.276836],[14.494801,52.276837],[14.4948,52.276838],[14.494799,52.276839],[14.494798,52.27684],[14.494798,52.27684],[14.494798,52.276841],[14.494798,52.276841],[14.494797,52.276842],[14.494796,52.276843],[14.494796,52.276844],[14.494796,52.276844],[14.494796,52.276845],[14.494796,52.276845],[14.494794,52.27685],[14.494521,52.277901]]]}},{"type":"Feature","properties":{"text":"Camp Stille Fische"},"geometry":{"type":"Polygon","coordinates":[[[14.501452,52.27761],[14.501442,52.27761],[14.501433,52.277613],[14.501427,52.27762],[14.501423,52.277629],[14.500963,52.279168],[14.500962,52.279178],[14.500964,52.279185],[14.50097,52.27919],[14.500979,52.279193],[14.50691,52.279879],[14.50692,52.279879],[14.506927,52.279875],[14.506932,52.279869],[14.506934,52.279859],[14.50705,52.278355],[14.50705,52.278345],[14.507046,52.278337],[14.507039,52.278332],[14.507029,52.278329],[14.501452,52.27761]]]}},{"type":"Feature","properties":{"text":"Camp Taucher"},"geometry":{"type":"Polygon","coordinates":[[[14.488887,52.276954],[14.488886,52.276954],[14.488885,52.276954],[14.488884,52.276954],[14.488883,52.276955],[14.488881,52.276955],[14.488881,52.276955],[14.488881,52.276955],[14.488881,52.276955],[14.488881,52.276955],[14.48888,52.276955],[14.488879,52.276955],[14.488879,52.276955],[14.488878,52.276955],[14.488878,52.276955],[14.488878,52.276955],[14.488878,52.276955],[14.488877,52.276956],[14.488877,52.276956],[14.488877,52.276956],[14.488877,52.276956],[14.488876,52.276956],[14.488876,52.276956],[14.488875,52.276956],[14.488874,52.276956],[14.488874,52.276956],[14.488873,52.276956],[14.488873,52.276956],[14.488873,52.276956],[14.488873,52.276956],[14.488872,52.276957],[14.488872,52.276957],[14.488872,52.276957],[14.488872,52.276957],[14.488872,52.276957],[14.488872,52.276957],[14.488871,52.276957],[14.488871,52.276957],[14.488871,52.276957],[14.488871,52.276957],[14.48887,52.276958],[14.48887,52.276958],[14.48887,52.276958],[14.48887,52.276958],[14.488869,52.276958],[14.488869,52.276958],[14.488868,52.276958],[14.488868,52.276958],[14.488868,52.276958],[14.488868,52.276958],[14.488868,52.276958],[14.488867,52.276959],[14.488866,52.27696],[14.488866,52.27696],[14.488866,52.27696],[14.488866,52.27696],[14.488865,52.27696],[14.488865,52.27696],[14.488865,52.27696],[14.488865,52.27696],[14.488865,52.27696],[14.488865,52.27696],[14.488864,52.276961],[14.488863,52.276962],[14.488863,52.276962],[14.488863,52.276962],[14.488863,52.276962],[14.488862,52.276962],[14.488862,52.276962],[14.488862,52.276962],[14.488862,52.276962],[14.488862,52.276962],[14.488862,52.276962],[14.488861,52.276963],[14.488861,52.276963],[14.488861,52.276963],[14.488861,52.276963],[14.488861,52.276964],[14.488861,52.276964],[14.488861,52.276964],[14.488861,52.276964],[14.488861,52.276964],[14.488861,52.276964],[14.48886,52.276964],[14.48886,52.276964],[14.48886,52.276964],[14.48886,52.276964],[14.48886,52.276964],[14.48886,52.276964],[14.48886,52.276965],[14.48886,52.276965],[14.48886,52.276965],[14.48886,52.276965],[14.48886,52.276965],[14.488859,52.276965],[14.488859,52.276965],[14.488859,52.276965],[14.488859,52.276965],[14.488858,52.276966],[14.488857,52.276967],[14.488857,52.276967],[14.488857,52.276967],[14.488857,52.276967],[14.488857,52.276967],[14.488857,52.276967],[14.488857,52.276968],[14.488857,52.276968],[14.488857,52.276968],[14.488857,52.276968],[14.488857,52.276968],[14.488856,52.276968],[14.488856,52.276968],[14.488856,52.276968],[14.488856,52.276968],[14.488856,52.276968],[14.488856,52.276969],[14.488856,52.276969],[14.488856,52.276969],[14.488856,52.276969],[14.488855,52.27697],[14.488855,52.27697],[14.488855,52.27697],[14.488855,52.27697],[14.488855,52.276971],[14.488855,52.276971],[14.488855,52.276971],[14.488855,52.276971],[14.488855,52.276971],[14.488854,52.276971],[14.488854,52.276971],[14.488854,52.276971],[14.488854,52.276971],[14.488854,52.276971],[14.488854,52.276972],[14.488854,52.276972],[14.488854,52.276972],[14.488854,52.276972],[14.488854,52.276972],[14.488854,52.276972],[14.488854,52.276972],[14.488853,52.276972],[14.488853,52.276972],[14.488853,52.276972],[14.488853,52.276972],[14.488851,52.276976],[14.488624,52.277409],[14.488623,52.277411],[14.488622,52.277413],[14.488621,52.277414],[14.488621,52.277415],[14.488621,52.277415],[14.488621,52.277415],[14.48862,52.277416],[14.48862,52.277416],[14.48862,52.277416],[14.48862,52.277416],[14.48862,52.277416],[14.48862,52.277417],[14.48862,52.277417],[14.48862,52.277418],[14.48862,52.277419],[14.48862,52.27742],[14.48862,52.27742],[14.48862,52.27742],[14.48862,52.27742],[14.48862,52.27742],[14.488619,52.277421],[14.488619,52.277421],[14.488619,52.277421],[14.488619,52.277421],[14.488619,52.277422],[14.488619,52.277422],[14.488619,52.277423],[14.488619,52.277424],[14.488619,52.277425],[14.488619,52.277425],[14.488619,52.277425],[14.488619,52.277425],[14.488619,52.277425],[14.488619,52.277425],[14.48862,52.277425],[14.48862,52.277425],[14.48862,52.277425],[14.48862,52.277425],[14.48862,52.277427],[14.48862,52.277428],[14.48862,52.277428],[14.48862,52.277429],[14.48862,52.277429],[14.48862,52.277429],[14.48862,52.277429],[14.488621,52.27743],[14.488622,52.277431],[14.488624,52.277433],[14.488625,52.277434],[14.488625,52.277434],[14.488625,52.277434],[14.488625,52.277434],[14.488626,52.277434],[14.488626,52.277434],[14.488626,52.277434],[14.488627,52.277434],[14.488627,52.277434],[14.488627,52.277434],[14.488627,52.277434],[14.488628,52.277435],[14.488628,52.277435],[14.488628,52.277435],[14.488628,52.277435],[14.488629,52.277435],[14.488629,52.277435],[14.48863,52.277435],[14.48863,52.277435],[14.488631,52.277435],[14.488631,52.277435],[14.488631,52.277435],[14.488631,52.277435],[14.488632,52.277436],[14.488633,52.277437],[14.488633,52.277437],[14.488633,52.277437],[14.488633,52.277437],[14.488633,52.277437],[14.488634,52.277437],[14.488635,52.277437],[14.488636,52.277437],[14.488637,52.277437],[14.488637,52.277437],[14.488637,52.277437],[14.488637,52.277437],[14.488637,52.277437],[14.488638,52.277438],[14.488638,52.277438],[14.488638,52.277438],[14.488638,52.277438],[14.488639,52.277438],[14.488639,52.277438],[14.48864,52.277438],[14.48864,52.277438],[14.488641,52.277438],[14.488641,52.277438],[14.488641,52.277438],[14.488641,52.277438],[14.494184,52.278386],[14.494184,52.278386],[14.494184,52.278386],[14.494184,52.278386],[14.494184,52.278386],[14.494185,52.278386],[14.494186,52.278386],[14.494186,52.278386],[14.494187,52.278386],[14.494187,52.278386],[14.494187,52.278386],[14.494187,52.278386],[14.494188,52.278387],[14.494188,52.278387],[14.494188,52.278387],[14.494188,52.278387],[14.494188,52.278387],[14.494189,52.278387],[14.49419,52.278387],[14.494191,52.278387],[14.494194,52.278387],[14.494196,52.278387],[14.494197,52.278387],[14.494199,52.278387],[14.4942,52.278387],[14.494201,52.278387],[14.494201,52.278387],[14.494202,52.278387],[14.494202,52.278387],[14.494202,52.278387],[14.494202,52.278387],[14.494203,52.278386],[14.494204,52.278385],[14.494204,52.278385],[14.494204,52.278385],[14.494204,52.278385],[14.494204,52.278385],[14.494205,52.278385],[14.494206,52.278385],[14.494207,52.278385],[14.494207,52.278385],[14.494208,52.278385],[14.494208,52.278385],[14.494208,52.278385],[14.494208,52.278385],[14.494209,52.278384],[14.49421,52.278383],[14.49421,52.278383],[14.49421,52.278383],[14.49421,52.278383],[14.494211,52.278383],[14.494211,52.278383],[14.494211,52.278383],[14.494211,52.278383],[14.494211,52.278383],[14.494211,52.278382],[14.494211,52.278382],[14.494211,52.278382],[14.494211,52.278382],[14.494211,52.278382],[14.494211,52.278382],[14.494212,52.278382],[14.494212,52.278382],[14.494212,52.278382],[14.494212,52.278382],[14.494212,52.278382],[14.494212,52.278382],[14.494212,52.278381],[14.494212,52.278381],[14.494212,52.278381],[14.494212,52.278381],[14.494213,52.27838],[14.494214,52.278379],[14.494214,52.278379],[14.494214,52.278379],[14.494214,52.278379],[14.494215,52.278379],[14.494215,52.278379],[14.494215,52.278379],[14.494215,52.278379],[14.494215,52.278379],[14.494215,52.278379],[14.494215,52.278378],[14.494215,52.278378],[14.494215,52.278378],[14.494215,52.278378],[14.494215,52.278378],[14.494216,52.278378],[14.494216,52.278378],[14.494216,52.278378],[14.494216,52.278378],[14.494216,52.278377],[14.494216,52.278377],[14.494216,52.278377],[14.494216,52.278377],[14.494216,52.278377],[14.494216,52.278377],[14.494217,52.278377],[14.494217,52.278377],[14.494217,52.278377],[14.494217,52.278377],[14.494217,52.278377],[14.494217,52.278377],[14.494217,52.278376],[14.494217,52.278376],[14.494217,52.278376],[14.494217,52.278376],[14.494218,52.278374],[14.49422,52.278369],[14.494783,52.276588],[14.494784,52.276584],[14.494784,52.276584],[14.494784,52.276584],[14.494784,52.276584],[14.494784,52.276584],[14.494784,52.276583],[14.494784,52.276582],[14.494784,52.276581],[14.494784,52.276581],[14.494784,52.27658],[14.494784,52.27658],[14.494784,52.27658],[14.494784,52.27658],[14.494784,52.27658],[14.494785,52.27658],[14.494785,52.27658],[14.494785,52.27658],[14.494785,52.27658],[14.494785,52.276579],[14.494785,52.276578],[14.494785,52.276578],[14.494785,52.276578],[14.494785,52.276578],[14.494785,52.276578],[14.494784,52.276578],[14.494784,52.276578],[14.494784,52.276578],[14.494784,52.276578],[14.494784,52.276578],[14.494784,52.276577],[14.494784,52.276576],[14.494784,52.276575],[14.494784,52.276574],[14.494784,52.276574],[14.494784,52.276574],[14.494784,52.276574],[14.494784,52.276574],[14.494783,52.276574],[14.494783,52.276574],[14.494783,52.276574],[14.494783,52.276574],[14.494783,52.276573],[14.494783,52.276573],[14.494783,52.276573],[14.494783,52.276573],[14.494783,52.276573],[14.494783,52.276573],[14.494782,52.276573],[14.494782,52.276573],[14.494782,52.276573],[14.494782,52.276573],[14.494782,52.276573],[14.494782,52.276573],[14.494782,52.276572],[14.494782,52.276572],[14.494782,52.276572],[14.494782,52.276572],[14.494781,52.276571],[14.494781,52.276571],[14.494781,52.276571],[14.494781,52.276571],[14.494781,52.27657],[14.494781,52.27657],[14.494781,52.27657],[14.494781,52.27657],[14.494781,52.27657],[14.494781,52.27657],[14.49478,52.27657],[14.494779,52.27657],[14.494779,52.27657],[14.494779,52.27657],[14.494779,52.27657],[14.494779,52.27657],[14.494779,52.27657],[14.494779,52.276569],[14.494779,52.276569],[14.494779,52.276569],[14.494779,52.276569],[14.494778,52.276569],[14.494778,52.276569],[14.494778,52.276569],[14.494778,52.276569],[14.494778,52.276569],[14.494777,52.276568],[14.494777,52.276568],[14.494777,52.276568],[14.494777,52.276568],[14.494777,52.276568],[14.494776,52.276568],[14.494775,52.276568],[14.494773,52.276568],[14.494767,52.276568],[14.488887,52.276954]]]}}]}
