{"type":"FeatureCollection","_smoothed":true,"features":[{"type":"Feature","properties":{"slug":"cashless-01","text":"Cashless Automat"},"geometry":{"type":"Point","coordinates":[14.482419,52.271969]}},{"type":"Feature","properties":{"slug":"cashless-02","text":"Cashless Automat"},"geometry":{"type":"Point","coordinates":[14.483274,52.274047]}},{"type":"Feature","properties":{"slug":"cashless-03","text":"Cashless Automat"},"geometry":{"type":"Point","coordinates":[14.484148,52.275177]}},{"type":"Feature","properties":{"slug":"cashless-04","text":"Cashless Automat"},"geometry":{"type":"Point","coordinates":[14.495009,52.276395]}},{"type":"Feature","properties":{"slug":"cashless-05","text":"Cashless Automat"},"geometry":{"type":"Point","coordinates":[14.495904,52.276448]}},{"type":"Feature","properties":{"slug":"cashless-06","text":"Cashless Automat"},"geometry":{"type":"Point","coordinates":[14.500615,52.275721]}},{"type":"Feature","properties":{"slug":"cashless-07","text":"Cashless Automat"},"geometry":{"type":"Point","coordinates":[14.501526,52.275578]}}]}
