{"type":"FeatureCollection","_smoothed":true,"features":[{"type":"Feature","properties":{"text":"Food Court","slug":"food-court"},"geometry":{"type":"Polygon","coordinates":[[[14.495499,52.276778],[14.495488,52.276778],[14.49548,52.276775],[14.495473,52.276769],[14.495468,52.276759],[14.495378,52.276499],[14.495376,52.276489],[14.495378,52.276482],[14.495383,52.276477],[14.495393,52.276474],[14.49634,52.276344],[14.496351,52.276344],[14.496359,52.276347],[14.496366,52.276353],[14.496371,52.276363],[14.496466,52.276614],[14.496468,52.276624],[14.496466,52.276631],[14.496461,52.276637],[14.496451,52.276639],[14.495499,52.276778]]]}}]}
