{"type":"FeatureCollection","features":[{"type":"Feature","properties":{"text":"l'Amore Pizza"},"geometry":{"type":"Polygon","coordinates":[[[14.496672,52.276553],[14.496706,52.276438],[14.496938,52.276464],[14.496904,52.276579],[14.496672,52.276553]]]}},{"type":"Feature","properties":{"text":"Küche"},"geometry":{"type":"Polygon","coordinates":[[[14.493303,52.276667],[14.493526,52.276659],[14.493517,52.276567],[14.493295,52.276575],[14.493303,52.276667]]]}},{"type":"Feature","properties":{"text":"Vegitos"},"geometry":{"type":"Polygon","coordinates":[[[14.495627,52.276623],[14.49571,52.276686],[14.495573,52.276753],[14.49549,52.276689],[14.495627,52.276623]]]}},{"type":"Feature","properties":{"text":"Asta la Pasta Foodtruck"},"geometry":{"type":"Polygon","coordinates":[[[14.502908,52.275737],[14.502815,52.275751],[14.50276,52.275621],[14.502853,52.275606],[14.502908,52.275737]]]}},{"type":"Feature","properties":{"text":"Vegabunt"},"geometry":{"type":"Polygon","coordinates":[[[14.49549,52.276517],[14.495564,52.276573],[14.495425,52.276642],[14.495351,52.276586],[14.49549,52.276517]]]}},{"type":"Feature","properties":{"text":"Leuchtstoff"},"geometry":{"type":"Polygon","coordinates":[[[14.495825,52.276748],[14.495971,52.276727],[14.495941,52.27665],[14.495795,52.276671],[14.495825,52.276748]]]}},{"type":"Feature","properties":{"text":"Bullarbü"},"geometry":{"type":"Polygon","coordinates":[[[14.495413,52.276459],[14.495487,52.276514],[14.49537,52.276572],[14.495297,52.276517],[14.495413,52.276459]]]}},{"type":"Feature","properties":{"text":"Langos"},"geometry":{"type":"Polygon","coordinates":[[[14.495984,52.276737],[14.496083,52.276722],[14.496048,52.276634],[14.495949,52.276648],[14.495984,52.276737]]]}},{"type":"Feature","properties":{"text":"Tante Eden"},"geometry":{"type":"Polygon","coordinates":[[[14.502367,52.275959],[14.502446,52.275989],[14.50253,52.275904],[14.50245,52.275875],[14.502367,52.275959]]]}},{"type":"Feature","properties":{},"geometry":{"type":"Polygon","coordinates":[[[14.496363,52.276585],[14.496434,52.276574],[14.496481,52.276688],[14.496409,52.276699],[14.496363,52.276585]]]}},{"type":"Feature","properties":{"text":"De Loite"},"geometry":{"type":"Polygon","coordinates":[[[14.502472,52.275517],[14.502526,52.275579],[14.502418,52.275614],[14.502365,52.275551],[14.502472,52.275517]]]}},{"type":"Feature","properties":{"text":"Om Ganesh"},"geometry":{"type":"Polygon","coordinates":[[[14.496241,52.276605],[14.496357,52.276587],[14.496386,52.276655],[14.496269,52.276673],[14.496241,52.276605]]]}},{"type":"Feature","properties":{"text":"Bar - Porto Loco"},"geometry":{"type":"Polygon","coordinates":[[[14.482686,52.274317],[14.482672,52.274273],[14.482848,52.274253],[14.482861,52.274297],[14.482686,52.274317]]]}},{"type":"Feature","properties":{"text":"Apfelkrapfen"},"geometry":{"type":"Polygon","coordinates":[[[14.49609,52.276721],[14.496175,52.276708],[14.49614,52.27662],[14.496055,52.276632],[14.49609,52.276721]]]}},{"type":"Feature","properties":{"text":"Bar"},"geometry":{"type":"Polygon","coordinates":[[[14.48331,52.274795],[14.483312,52.274752],[14.48349,52.274754],[14.483488,52.274798],[14.48331,52.274795]]]}},{"type":"Feature","properties":{"text":"Spätzlemacher"},"geometry":{"type":"Polygon","coordinates":[[[14.49618,52.276698],[14.496265,52.276685],[14.496234,52.276606],[14.496149,52.276618],[14.49618,52.276698]]]}},{"type":"Feature","properties":{"text":"Nice Fries"},"geometry":{"type":"Polygon","coordinates":[[[14.495568,52.276576],[14.495624,52.276619],[14.495532,52.276664],[14.495476,52.276621],[14.495568,52.276576]]]}},{"type":"Feature","properties":{"text":"Bar"},"geometry":{"type":"Polygon","coordinates":[[[14.484359,52.276177],[14.484339,52.276144],[14.484508,52.276105],[14.484528,52.276138],[14.484359,52.276177]]]}},{"type":"Feature","properties":{"text":"Bar"},"geometry":{"type":"Polygon","coordinates":[[[14.484126,52.275702],[14.484109,52.27567],[14.484275,52.275636],[14.484293,52.275668],[14.484126,52.275702]]]}},{"type":"Feature","properties":{"text":"Food"},"geometry":{"type":"Polygon","coordinates":[[[14.48257,52.272765],[14.482521,52.272728],[14.482611,52.272684],[14.482659,52.272722],[14.48257,52.272765]]]}},{"type":"Feature","properties":{"text":"Waldtraut Bar"},"geometry":{"type":"Polygon","coordinates":[[[14.48219,52.271648],[14.482139,52.271592],[14.482205,52.27157],[14.482256,52.271626],[14.48219,52.271648]]]}},{"type":"Feature","properties":{"text":"Bitte Drehen Sie durch"},"geometry":{"type":"Polygon","coordinates":[[[14.502562,52.275562],[14.502545,52.275511],[14.502633,52.2755],[14.50265,52.275551],[14.502562,52.275562]]]}},{"type":"Feature","properties":{"text":"Fullpower Jewellery"},"geometry":{"type":"Polygon","coordinates":[[[14.502543,52.276],[14.502499,52.275988],[14.502553,52.275911],[14.502597,52.275922],[14.502543,52.276]]]}},{"type":"Feature","properties":{"text":"Catuma"},"geometry":{"type":"Polygon","coordinates":[[[14.484536,52.275511],[14.484609,52.275511],[14.484609,52.275465],[14.484536,52.275465],[14.484536,52.275511]]]}},{"type":"Feature","properties":{"text":"PinkPuk Bar"},"geometry":{"type":"Polygon","coordinates":[[[14.484291,52.274878],[14.484365,52.274878],[14.484365,52.274833],[14.484291,52.274833],[14.484291,52.274878]]]}},{"type":"Feature","properties":{"text":"Raversnacks"},"geometry":{"type":"Polygon","coordinates":[[[14.484038,52.274505],[14.484112,52.274505],[14.484112,52.27446],[14.484038,52.27446],[14.484038,52.274505]]]}},{"type":"Feature","properties":{"text":"Haus of Flausch Teabar"},"geometry":{"type":"Polygon","coordinates":[[[14.484173,52.274665],[14.484248,52.274665],[14.484248,52.274621],[14.484173,52.274621],[14.484173,52.274665]]]}},{"type":"Feature","properties":{"text":"Bar"},"geometry":{"type":"Polygon","coordinates":[[[14.482856,52.272872],[14.482817,52.272837],[14.482877,52.272812],[14.482916,52.272847],[14.482856,52.272872]]]}},{"type":"Feature","properties":{"text":"Zirkus Mond Bar"},"geometry":{"type":"Polygon","coordinates":[[[14.497384,52.276442],[14.497367,52.276411],[14.497455,52.276393],[14.497473,52.276423],[14.497384,52.276442]]]}},{"type":"Feature","properties":{"text":"Grinskäffchen"},"geometry":{"type":"Polygon","coordinates":[[[14.484426,52.275048],[14.484497,52.275049],[14.484499,52.275007],[14.484428,52.275006],[14.484426,52.275048]]]}},{"type":"Feature","properties":{"text":"Bar Schlupfloch"},"geometry":{"type":"Polygon","coordinates":[[[14.483349,52.275352],[14.48342,52.275352],[14.483419,52.275312],[14.483348,52.275313],[14.483349,52.275352]]]}},{"type":"Feature","properties":{"text":"Bar"},"geometry":{"type":"Polygon","coordinates":[[[14.485294,52.276678],[14.485252,52.276644],[14.485303,52.276621],[14.485345,52.276655],[14.485294,52.276678]]]}},{"type":"Feature","properties":{"text":"Bimsbar"},"geometry":{"type":"Polygon","coordinates":[[[14.481996,52.27182],[14.481951,52.271784],[14.481993,52.271765],[14.482038,52.271802],[14.481996,52.27182]]]}},{"type":"Feature","properties":{"text":"Strandflitzer Bar"},"geometry":{"type":"Polygon","coordinates":[[[14.493464,52.27632],[14.493508,52.276321],[14.49351,52.276267],[14.493467,52.276266],[14.493464,52.27632]]]}},{"type":"Feature","properties":{"text":"Moving Cafe"},"geometry":{"type":"Polygon","coordinates":[[[14.502802,52.27558],[14.50275,52.275588],[14.502734,52.275548],[14.502785,52.27554],[14.502802,52.27558]]]}},{"type":"Feature","properties":{"text":"Communitea"},"geometry":{"type":"Polygon","coordinates":[[[14.495291,52.276798],[14.495216,52.276802],[14.495219,52.276829],[14.495294,52.276825],[14.495291,52.276798]]]}},{"type":"Feature","properties":{"text":"Spüllmobil"},"geometry":{"type":"Polygon","coordinates":[[[14.493256,52.276579],[14.493254,52.276523],[14.49329,52.276522],[14.493292,52.276578],[14.493256,52.276579]]]}},{"type":"Feature","properties":{"text":"Gastroplan Raumcont."},"geometry":{"type":"Polygon","coordinates":[[[14.492727,52.27667],[14.492758,52.276668],[14.492752,52.276621],[14.492721,52.276623],[14.492727,52.27667]]]}},{"type":"Feature","properties":{"text":"FanMan"},"geometry":{"type":"Polygon","coordinates":[[[14.502413,52.275866],[14.502387,52.275886],[14.502353,52.275869],[14.502379,52.275849],[14.502413,52.275866]]]}}]}
