{"type": "FeatureCollection", "features": [{"type": "Feature", "properties": {"name": "Helenesee north shore (clipped to festival)"}, "geometry": {"type": "LineString", "coordinates": [[14.504953, 52.274572], [14.504424, 52.274716], [14.503221, 52.274909], [14.501825, 52.275149], [14.500814, 52.275149], [14.500574, 52.275294], [14.4999, 52.275294], [14.499418, 52.275197], [14.499082, 52.275294], [14.497926, 52.27539], [14.496483, 52.275582], [14.495472, 52.275582], [14.495231, 52.275486], [14.493354, 52.275534], [14.4929597, 52.2755658], [14.4927209, 52.27547], [14.4908668, 52.275642], [14.4908305, 52.2757463], [14.4907141, 52.2757591], [14.4905612, 52.2757758], [14.4901847, 52.2758992], [14.4897322, 52.2760301], [14.4891759, 52.2761751], [14.4891646, 52.276178], [14.488493, 52.276353], [14.487675, 52.276593], [14.487097, 52.276497], [14.486568, 52.276208], [14.485413, 52.27462], [14.484209, 52.273224], [14.483295, 52.272502], [14.483006, 52.271347], [14.482573, 52.270914], [14.481995, 52.270433]]}}]}