{"type":"FeatureCollection","_smoothed":true,"features":[{"type":"Feature","properties":{"text":"Produktion","slug":"produktion-base"},"geometry":{"type":"Polygon","coordinates":[[[14.49187,52.27666],[14.491871,52.27667],[14.491876,52.276678],[14.491883,52.276682],[14.491893,52.276683],[14.492874,52.276683],[14.492884,52.276682],[14.492891,52.276678],[14.492896,52.27667],[14.492897,52.27666],[14.492897,52.276429],[14.492896,52.276419],[14.492891,52.276411],[14.492884,52.276407],[14.492874,52.276406],[14.491893,52.276406],[14.491883,52.276407],[14.491876,52.276411],[14.491871,52.276419],[14.49187,52.276429],[14.49187,52.27666]]]}},{"type":"Feature","properties":{"text":"Künstlerbereich","slug":"kuenstlerbereich-base"},"geometry":{"type":"Polygon","coordinates":[[[14.489654,52.276621],[14.489644,52.276624],[14.489639,52.276629],[14.489637,52.276636],[14.489639,52.276646],[14.489681,52.27676],[14.489686,52.27677],[14.489692,52.276776],[14.489701,52.27678],[14.489712,52.276781],[14.49086,52.276719],[14.49087,52.276717],[14.490876,52.276712],[14.490879,52.276705],[14.490878,52.276695],[14.490831,52.276486],[14.490827,52.276476],[14.490821,52.27647],[14.490813,52.276466],[14.490803,52.276466],[14.489654,52.276621]]]}}]}
