{"type":"FeatureCollection","features":[{"type":"Feature","properties":{"text":"A Quarter to Infinity","slug":"a-quarter-to-infinity"},"geometry":{"type":"MultiPolygon","coordinates":[[[[14.502185,52.275806],[14.502262,52.275767],[14.502357,52.275834],[14.502275,52.275874],[14.502185,52.275806]]]]}},{"type":"Feature","properties":{"text":"Burghain","slug":"burghain"},"geometry":{"type":"Polygon","coordinates":[[[14.482799,52.274036],[14.482803,52.273964],[14.482894,52.273966],[14.482889,52.274038],[14.482799,52.274036]]]}},{"type":"Feature","properties":{"text":"Community Corner","slug":"community-corner"},"geometry":{"type":"Polygon","coordinates":[[[14.494331,52.276443],[14.494361,52.276218],[14.494723,52.276213],[14.494737,52.27644],[14.494331,52.276443]]]}},{"type":"Feature","properties":{"text":"Cuddle Poodle","slug":"cuddle-poodle"},"geometry":{"type":"Polygon","coordinates":[[[14.494957,52.27692],[14.494966,52.27677],[14.495379,52.276741],[14.495421,52.276903],[14.494957,52.27692]]]}},{"type":"Feature","properties":{"text":"Food Court","slug":"food-court"},"geometry":{"type":"Polygon","coordinates":[[[14.495476,52.276781],[14.49537,52.276477],[14.496363,52.276341],[14.496474,52.276636],[14.495476,52.276781]]]}},{"type":"Feature","properties":{"text":"Human Wash","slug":"human-wash"},"geometry":{"type":"Polygon","coordinates":[[[14.498502,52.275927],[14.498636,52.275909],[14.498629,52.275889],[14.498495,52.275907],[14.498502,52.275927]]]}},{"type":"Feature","properties":{"text":"Kollektiv Sonnenallee","slug":"kollektiv-sonnenallee"},"geometry":{"type":"Point","coordinates":[14.498957,52.276171]}},{"type":"Feature","properties":{"text":"Krawal & Zunft zur Kuh","slug":"krawal-zunft-zur-kuh"},"geometry":{"type":"Polygon","coordinates":[[[14.482138,52.271264],[14.482131,52.271225],[14.482273,52.271216],[14.48228,52.271254],[14.482138,52.271264]]]}},{"type":"Feature","properties":{"text":"KuschelMuschel","slug":"kuschelmuschel"},"geometry":{"type":"Point","coordinates":[14.504583,52.275254]}},{"type":"Feature","properties":{"text":"Marktplatz","slug":"marktplatz"},"geometry":{"type":"Polygon","coordinates":[[[14.502298,52.275953],[14.502123,52.275514],[14.502703,52.275416],[14.502863,52.275855],[14.502298,52.275953]]]}},{"type":"Feature","properties":{"text":"Mein Zelt Steht Schon + KuschelMuschel","slug":"mein-zelt-steht-schon-kuschelmuschel"},"geometry":{"type":"Polygon","coordinates":[[[14.503976,52.275702],[14.503801,52.275255],[14.505236,52.275044],[14.505411,52.275492],[14.503976,52.275702]]]}},{"type":"Feature","properties":{"text":"Momentarium","slug":"momentarium"},"geometry":{"type":"Point","coordinates":[14.498479,52.276187]}},{"type":"Feature","properties":{"text":"Müllstation Recycling","slug":"muellstation-recycling-1"},"geometry":{"type":"Point","coordinates":[14.494963,52.278314]}},{"type":"Feature","properties":{"text":"Müllstation Recycling","slug":"muellstation-recycling-2"},"geometry":{"type":"Point","coordinates":[14.500757,52.278975]}},{"type":"Feature","properties":{"text":"Neo:Trash Oasis","slug":"neo-trash-oasis"},"geometry":{"type":"Polygon","coordinates":[[[14.50312,52.275768],[14.503103,52.275732],[14.503324,52.275692],[14.503341,52.275728],[14.50312,52.275768]]]}},{"type":"Feature","properties":{"text":"Neuro|divers","slug":"neuro-divers"},"geometry":{"type":"Polygon","coordinates":[[[14.495204,52.276563],[14.495062,52.27659],[14.495131,52.276727],[14.495273,52.276701],[14.495204,52.276563]]]}},{"type":"Feature","properties":{"text":"Noland Friseur","slug":"noland-friseur"},"geometry":{"type":"MultiPolygon","coordinates":[[[[14.500379,52.275979],[14.500348,52.275893],[14.500303,52.275879],[14.500262,52.275885],[14.500241,52.275905],[14.500272,52.275996],[14.500379,52.275979]]]]}},{"type":"Feature","properties":{"text":"Outzip Zeltverleih","slug":"outzip-zeltverleih"},"geometry":{"type":"Polygon","coordinates":[[[14.494244,52.278106],[14.494298,52.278113],[14.49432,52.278046],[14.494265,52.27804],[14.494244,52.278106]]]}},{"type":"Feature","properties":{"text":"Schrottpurri","slug":"schrottpurri"},"geometry":{"type":"Polygon","coordinates":[[[14.494355,52.276322],[14.494286,52.276308],[14.494314,52.276255],[14.494384,52.276269],[14.494355,52.276322]]]}},{"type":"Feature","properties":{"text":"Schweißperle","slug":"schweissperle"},"geometry":{"type":"Polygon","coordinates":[[[14.495101,52.276442],[14.495049,52.276191],[14.495705,52.276123],[14.495779,52.27622],[14.495844,52.276294],[14.495761,52.276365],[14.495691,52.276425],[14.495101,52.276442]]]}},{"type":"Feature","properties":{"text":"Sektamt","slug":"sektamt"},"geometry":{"type":"Polygon","coordinates":[[[14.482488,52.274],[14.482706,52.273684],[14.483073,52.27377],[14.482776,52.274075],[14.482488,52.274]]]}},{"type":"Feature","properties":{"text":"Shenanigames","slug":"shenanigames"},"geometry":{"type":"Polygon","coordinates":[[[14.482508,52.27396],[14.482708,52.27396],[14.482708,52.27408],[14.482508,52.27408],[14.482508,52.27396]]]}},{"type":"Feature","properties":{"text":"Skalahara","slug":"skalahara"},"geometry":{"type":"Polygon","coordinates":[[[14.49434,52.27622],[14.494309,52.276174],[14.494383,52.276155],[14.494415,52.276201],[14.49434,52.27622]]]}},{"type":"Feature","properties":{"text":"Skull","slug":"skull"},"geometry":{"type":"Point","coordinates":[14.484254,52.274768]}},{"type":"Feature","properties":{"text":"Sterne Backstage","slug":"sterne-backstage"},"geometry":{"type":"Polygon","coordinates":[[[14.494956,52.276809],[14.495052,52.276804],[14.495041,52.276721],[14.494944,52.276726],[14.494956,52.276809]]]}},{"type":"Feature","properties":{"text":"The Losers Arcade","slug":"the-losers-arcade"},"geometry":{"type":"Polygon","coordinates":[[[14.502822,52.275785],[14.502744,52.275878],[14.503014,52.275963],[14.503092,52.275869],[14.502822,52.275785]]]}},{"type":"Feature","properties":{"text":"The Peepshow","slug":"the-peepshow"},"geometry":{"type":"Polygon","coordinates":[[[14.49795,52.27623],[14.497929,52.276188],[14.497972,52.276179],[14.497994,52.276222],[14.49795,52.27623]]]}},{"type":"Feature","properties":{"text":"Wasserwand Projektion","slug":"wasserwand-projektion"},"geometry":{"type":"Point","coordinates":[14.483774,52.274115]}}]}
