{"type": "FeatureCollection", "name": "TOILETS & SHOWERS", "features": [{"type": "Feature", "geometry": {"type": "Polygon", "coordinates": [[[14.4920117, 52.2768897], [14.4920728, 52.2768897], [14.4920728, 52.2768704], [14.4920117, 52.2768704], [14.4920117, 52.2768897]]]}, "properties": {"id": "f3a4e882-fcb1-416c-b93e-80c7c62b5470", "text": "Hot Unit", "symbol": null, "description": null, "color": "#43D6E0", "type": "Rectangle", "parentId": "6493c509-4eea-4a0f-8399-cdc2c0510abf", "radius": null, "rotation": null}}, {"type": "Feature", "geometry": {"type": "Polygon", "coordinates": [[[14.4921232, 52.2768461], [14.4921613, 52.2768463], [14.4921619, 52.2767954], [14.4921238, 52.2767952], [14.4921232, 52.2768461]]]}, "properties": {"id": "eee32398-a6ac-4381-94ed-791916afb4a5", "text": "WC 14", "symbol": null, "description": null, "color": "#43D6E0", "type": "Rectangle", "parentId": "6493c509-4eea-4a0f-8399-cdc2c0510abf", "radius": null, "rotation": null}}, {"type": "Feature", "geometry": {"type": "Polygon", "coordinates": [[[14.4991215, 52.2764614], [14.4990676, 52.2763804], [14.4992455, 52.276336], [14.4992995, 52.276417], [14.4991215, 52.2764614]]]}, "properties": {"id": "08267e56-51c8-4034-bc7a-a47cff9cf264", "text": "Toilet House", "symbol": null, "description": null, "color": "#43D6E0", "type": "Rectangle", "parentId": "6493c509-4eea-4a0f-8399-cdc2c0510abf", "radius": null, "rotation": null}}, {"type": "Feature", "geometry": {"type": "MultiPolygon", "coordinates": [[[[14.5030011, 52.2761333], [14.5030832, 52.2761197], [14.5030706, 52.2760931], [14.5029876, 52.2761079], [14.5030011, 52.2761333]]]]}, "properties": {"id": "1844be56-5e4e-413d-9953-c3eef5d97504", "text": "Shower Container", "symbol": null, "description": null, "color": "#43D6E0", "type": "Polygon", "parentId": "6493c509-4eea-4a0f-8399-cdc2c0510abf", "radius": null, "rotation": null}}, {"type": "Feature", "geometry": {"type": "MultiPolygon", "coordinates": [[[[14.5029314, 52.2760377], [14.5027774, 52.2760636], [14.5028563, 52.2762309], [14.5030084, 52.2762061], [14.5029314, 52.2760377]]]]}, "properties": {"id": "85ac3584-328c-4ae1-a7f6-cd83b2da3588", "text": "", "symbol": null, "description": null, "color": "#43D6E0", "type": "Polygon", "parentId": "6493c509-4eea-4a0f-8399-cdc2c0510abf", "radius": null, "rotation": null}}, {"type": "Feature", "geometry": {"type": "MultiPolygon", "coordinates": [[[[14.5029781, 52.2760893], [14.5030602, 52.2760757], [14.5030476, 52.2760491], [14.5029646, 52.2760638], [14.5029781, 52.2760893]]]]}, "properties": {"id": "0e1d8f8d-5da8-4061-b00c-a370d630dee2", "text": "Shower Container", "symbol": null, "description": null, "color": "#43D6E0", "type": "Polygon", "parentId": "6493c509-4eea-4a0f-8399-cdc2c0510abf", "radius": null, "rotation": null}}, {"type": "Feature", "geometry": {"type": "MultiPolygon", "coordinates": [[[[14.5030226, 52.276178], [14.5031046, 52.2761644], [14.5030921, 52.2761379], [14.503009, 52.2761526], [14.5030226, 52.276178]]]]}, "properties": {"id": "9b16d9c0-26e7-41e6-a51f-dee38987ce5d", "text": "Shower Container", "symbol": null, "description": null, "color": "#43D6E0", "type": "Polygon", "parentId": "6493c509-4eea-4a0f-8399-cdc2c0510abf", "radius": null, "rotation": null}}, {"type": "Feature", "geometry": {"type": "Polygon", "coordinates": [[[14.5033693, 52.2756549], [14.5033854, 52.2756751], [14.503445, 52.2756572], [14.5034288, 52.2756371], [14.5033693, 52.2756549]]]}, "properties": {"id": "6ff405ac-685a-4fc3-a94a-1b5606522367", "text": "WC Wagen", "symbol": null, "description": "2,5 x 4,5", "color": "#43D6E0", "type": "Rectangle", "parentId": "6493c509-4eea-4a0f-8399-cdc2c0510abf", "radius": null, "rotation": null}}, {"type": "Feature", "geometry": {"type": "Polygon", "coordinates": [[[14.4947711, 52.2763867], [14.4949428, 52.2763879], [14.4949452, 52.2762689], [14.4947735, 52.2762676], [14.4947711, 52.2763867]]]}, "properties": {"id": "205271e2-ff63-4d73-862e-57643ea5fca4", "text": "", "symbol": null, "description": null, "color": "#43D6E0", "type": "Rectangle", "parentId": "6493c509-4eea-4a0f-8399-cdc2c0510abf", "radius": null, "rotation": null}}, {"type": "Feature", "geometry": {"type": "Polygon", "coordinates": [[[14.501521, 52.2757185], [14.5015288, 52.2757404], [14.5015936, 52.2757317], [14.5015858, 52.2757098], [14.501521, 52.2757185]]]}, "properties": {"id": "7a2797f9-382e-4cfc-8c84-29e9586be5d8", "text": "WC Wagen", "symbol": null, "description": "2,5 x 4,5", "color": "#43D6E0", "type": "Rectangle", "parentId": "6493c509-4eea-4a0f-8399-cdc2c0510abf", "radius": null, "rotation": null}}, {"type": "Feature", "geometry": {"type": "Polygon", "coordinates": [[[14.4941666, 52.2782834], [14.4942103, 52.2782898], [14.4942163, 52.2782748], [14.4941725, 52.2782683], [14.4941666, 52.2782834]]]}, "properties": {"id": "f6447028-662d-4db9-b43c-3269dc28de6b", "text": "DIXI x2", "symbol": null, "description": null, "color": "#43D6E0", "type": "Rectangle", "parentId": "6493c509-4eea-4a0f-8399-cdc2c0510abf", "radius": null, "rotation": null}}, {"type": "Feature", "geometry": {"type": "Polygon", "coordinates": [[[14.4926931, 52.2780751], [14.4927213, 52.2781221], [14.4927647, 52.2781124], [14.4927364, 52.2780653], [14.4926931, 52.2780751]]]}, "properties": {"id": "d38fada5-0b06-4238-9c8c-d5e725c7fe06", "text": "DIXI x10", "symbol": null, "description": null, "color": "#43D6E0", "type": "Rectangle", "parentId": "6493c509-4eea-4a0f-8399-cdc2c0510abf", "radius": null, "rotation": null}}, {"type": "Feature", "geometry": {"type": "Polygon", "coordinates": [[[14.4950238, 52.2762267], [14.495024, 52.2762377], [14.4949712, 52.2762379], [14.4949711, 52.2762269], [14.4950238, 52.2762267]]]}, "properties": {"id": "82ad1001-f263-4752-aaea-6c850d1f602e", "text": "Urinal", "symbol": null, "description": null, "color": "#43D6E0", "type": "Rectangle", "parentId": "6493c509-4eea-4a0f-8399-cdc2c0510abf", "radius": null, "rotation": null}}, {"type": "Feature", "geometry": {"type": "Polygon", "coordinates": [[[14.4933052, 52.2764477], [14.4932675, 52.2764521], [14.4932802, 52.2764928], [14.4933179, 52.2764884], [14.4933052, 52.2764477]]]}, "properties": {"id": "d204b9dc-abe5-4bb3-8df6-98c83adadf10", "text": "Wagen (?)", "symbol": null, "description": "4,5 x 2,5", "color": "#43D6E0", "type": "Rectangle", "parentId": "6493c509-4eea-4a0f-8399-cdc2c0510abf", "radius": null, "rotation": null}}, {"type": "Feature", "geometry": {"type": "Polygon", "coordinates": [[[14.4948097, 52.276401], [14.4948931, 52.2764013], [14.4948927, 52.2764312], [14.4948094, 52.2764309], [14.4948097, 52.276401]]]}, "properties": {"id": "9ac3ae45-51af-473d-b0cf-2c5e50d0d6f5", "text": "ECO Toilets x8", "symbol": null, "description": "", "color": "#43D6E0", "type": "Rectangle", "parentId": "6493c509-4eea-4a0f-8399-cdc2c0510abf", "radius": null, "rotation": null}}, {"type": "Feature", "geometry": {"type": "Polygon", "coordinates": [[[14.4933104, 52.2765456], [14.4933093, 52.2765154], [14.4933476, 52.2765149], [14.4933487, 52.2765451], [14.4933104, 52.2765456]]]}, "properties": {"id": "c020eb50-bd8d-44e1-8307-19603870e684", "text": "Dusche WC", "symbol": null, "description": null, "color": "#43D6E0", "type": "Rectangle", "parentId": "6493c509-4eea-4a0f-8399-cdc2c0510abf", "radius": null, "rotation": null}}, {"type": "Feature", "geometry": {"type": "Polygon", "coordinates": [[[14.4823106, 52.271994], [14.4823328, 52.27199], [14.4823194, 52.2719621], [14.4822972, 52.2719661], [14.4823106, 52.271994]]]}, "properties": {"id": "d0ca2c29-6f3b-421d-8d33-49451b19e83f", "text": "Urinal", "symbol": null, "description": null, "color": "#43D6E0", "type": "Rectangle", "parentId": "6493c509-4eea-4a0f-8399-cdc2c0510abf", "radius": null, "rotation": null}}, {"type": "Feature", "geometry": {"type": "Polygon", "coordinates": [[[14.4921223, 52.2769695], [14.4921663, 52.2769695], [14.4921663, 52.2769164], [14.4921223, 52.2769164], [14.4921223, 52.2769695]]]}, "properties": {"id": "c4f9196f-1ffa-4cd4-9249-8a655365f7a7", "text": "Dusche 10", "symbol": null, "description": null, "color": "#43D6E0", "type": "Rectangle", "parentId": "6493c509-4eea-4a0f-8399-cdc2c0510abf", "radius": null, "rotation": null}}, {"type": "Feature", "geometry": {"type": "Polygon", "coordinates": [[[14.4895511, 52.2765036], [14.4895639, 52.2765194], [14.4895882, 52.2765121], [14.4895754, 52.2764963], [14.4895511, 52.2765036]]]}, "properties": {"id": "f80979cb-99e3-44dc-86bb-b5850f7b3f2a", "text": "DIXI", "symbol": null, "description": null, "color": "#43D6E0", "type": "Rectangle", "parentId": "6493c509-4eea-4a0f-8399-cdc2c0510abf", "radius": null, "rotation": null}}, {"type": "Feature", "geometry": {"type": "Polygon", "coordinates": [[[14.4908554, 52.27673], [14.4908522, 52.2767051], [14.4908983, 52.2767029], [14.4909015, 52.2767278], [14.4908554, 52.27673]]]}, "properties": {"id": "0cf6fe86-270a-4962-8495-db51644c00f9", "text": "Dusche WC", "symbol": null, "description": null, "color": "#43D6E0", "type": "Rectangle", "parentId": "6493c509-4eea-4a0f-8399-cdc2c0510abf", "radius": null, "rotation": null}}, {"type": "Feature", "geometry": {"type": "Polygon", "coordinates": [[[14.485265, 52.2764361], [14.485311, 52.2764291], [14.4852885, 52.2763736], [14.4852426, 52.2763806], [14.485265, 52.2764361]]]}, "properties": {"id": "b62eb8b8-220e-496c-8219-d2efad52a987", "text": "DIXI 10", "symbol": null, "description": null, "color": "#43D6E0", "type": "Rectangle", "parentId": "6493c509-4eea-4a0f-8399-cdc2c0510abf", "radius": null, "rotation": null}}, {"type": "Feature", "geometry": {"type": "Polygon", "coordinates": [[[14.4908054, 52.2767329], [14.4908021, 52.2767081], [14.4908483, 52.2767058], [14.4908515, 52.2767307], [14.4908054, 52.2767329]]]}, "properties": {"id": "02f64b52-fb76-4c17-8eb8-8efb31999af0", "text": "Dusche WC", "symbol": null, "description": null, "color": "#43D6E0", "type": "Rectangle", "parentId": "6493c509-4eea-4a0f-8399-cdc2c0510abf", "radius": null, "rotation": null}}, {"type": "Feature", "geometry": {"type": "Polygon", "coordinates": [[[14.4895728, 52.2766624], [14.4896871, 52.2766235], [14.4897103, 52.2766491], [14.489596, 52.276688], [14.4895728, 52.2766624]]]}, "properties": {"id": "523db2ca-3250-464f-b09b-1c5f04ce66f6", "text": "Dixi Toilets x8", "symbol": null, "description": null, "color": "#43D6E0", "type": "Rectangle", "parentId": "6493c509-4eea-4a0f-8399-cdc2c0510abf", "radius": null, "rotation": null}}, {"type": "Feature", "geometry": {"type": "Polygon", "coordinates": [[[14.492036, 52.2769696], [14.49208, 52.2769696], [14.49208, 52.2769166], [14.492036, 52.2769166], [14.492036, 52.2769696]]]}, "properties": {"id": "4fd2d709-c2d4-49dd-bbce-7ebceb00eda5", "text": "Dusche 10", "symbol": null, "description": null, "color": "#43D6E0", "type": "Rectangle", "parentId": "6493c509-4eea-4a0f-8399-cdc2c0510abf", "radius": null, "rotation": null}}, {"type": "Feature", "geometry": {"type": "Polygon", "coordinates": [[[14.4920385, 52.276845], [14.4920766, 52.2768452], [14.4920772, 52.2767943], [14.4920391, 52.2767941], [14.4920385, 52.276845]]]}, "properties": {"id": "4f97c555-28da-4a3f-8fda-bd2f5c1e853c", "text": "WC 14", "symbol": null, "description": null, "color": "#43D6E0", "type": "Rectangle", "parentId": "6493c509-4eea-4a0f-8399-cdc2c0510abf", "radius": null, "rotation": null}}, {"type": "Feature", "geometry": {"type": "Polygon", "coordinates": [[[14.4852198, 52.2763362], [14.485243, 52.2763364], [14.4852435, 52.2763222], [14.4852203, 52.2763219], [14.4852198, 52.2763362]]]}, "properties": {"id": "afcc56e4-4447-400e-b5d7-a85926ce7931", "text": "Urinal", "symbol": null, "description": null, "color": "#43D6E0", "type": "Rectangle", "parentId": "6493c509-4eea-4a0f-8399-cdc2c0510abf", "radius": null, "rotation": null}}, {"type": "Feature", "geometry": {"type": "Polygon", "coordinates": [[[14.4840312, 52.275528], [14.4840222, 52.2754978], [14.4841121, 52.2754878], [14.4841211, 52.275518], [14.4840312, 52.275528]]]}, "properties": {"id": "816240c3-cf02-42e7-8efb-bb9a55cbb4d1", "text": "WC 9 + 7", "symbol": null, "description": null, "color": "#43D6E0", "type": "Rectangle", "parentId": "6493c509-4eea-4a0f-8399-cdc2c0510abf", "radius": null, "rotation": null}}, {"type": "Feature", "geometry": {"type": "Polygon", "coordinates": [[[14.4889263, 52.2765323], [14.4889543, 52.2765366], [14.4889608, 52.2765205], [14.4889329, 52.2765162], [14.4889263, 52.2765323]]]}, "properties": {"id": "7e082708-51ec-44a4-aad0-da96f5ad1ba1", "text": "DIXI", "symbol": null, "description": null, "color": "#43D6E0", "type": "Rectangle", "parentId": "6493c509-4eea-4a0f-8399-cdc2c0510abf", "radius": null, "rotation": null}}, {"type": "Feature", "geometry": {"type": "Polygon", "coordinates": [[[14.4889162, 52.2765516], [14.4889442, 52.2765558], [14.4889507, 52.2765397], [14.4889228, 52.2765355], [14.4889162, 52.2765516]]]}, "properties": {"id": "18678751-0225-4c00-9aad-6fd0164263d3", "text": "DIXI", "symbol": null, "description": null, "color": "#43D6E0", "type": "Rectangle", "parentId": "6493c509-4eea-4a0f-8399-cdc2c0510abf", "radius": null, "rotation": null}}, {"type": "Feature", "geometry": {"type": "Polygon", "coordinates": [[[14.4852376, 52.2763689], [14.4852608, 52.2763691], [14.4852612, 52.2763549], [14.485238, 52.2763546], [14.4852376, 52.2763689]]]}, "properties": {"id": "b7689b26-de65-43c3-9012-f4a97392772d", "text": "Urinal", "symbol": null, "description": null, "color": "#43D6E0", "type": "Rectangle", "parentId": "6493c509-4eea-4a0f-8399-cdc2c0510abf", "radius": null, "rotation": null}}, {"type": "Feature", "geometry": {"type": "Polygon", "coordinates": [[[14.4922344, 52.2768973], [14.492258, 52.2768973], [14.492258, 52.2768668], [14.4922344, 52.2768668], [14.4922344, 52.2768973]]]}, "properties": {"id": "73d92e4d-ecbd-4124-852f-a20d383ed109", "text": "Urinal", "symbol": null, "description": null, "color": "#43D6E0", "type": "Rectangle", "parentId": "6493c509-4eea-4a0f-8399-cdc2c0510abf", "radius": null, "rotation": null}}, {"type": "Feature", "geometry": {"type": "Polygon", "coordinates": [[[14.4895809, 52.2764941], [14.4895936, 52.2765099], [14.4896179, 52.2765026], [14.4896052, 52.2764868], [14.4895809, 52.2764941]]]}, "properties": {"id": "cd1c96fd-5d20-4fe9-9d1b-1866a46da2e8", "text": "DIXI", "symbol": null, "description": null, "color": "#43D6E0", "type": "Rectangle", "parentId": "6493c509-4eea-4a0f-8399-cdc2c0510abf", "radius": null, "rotation": null}}, {"type": "Feature", "geometry": {"type": "Polygon", "coordinates": [[[14.4852288, 52.276353], [14.485252, 52.2763533], [14.4852525, 52.2763391], [14.4852293, 52.2763388], [14.4852288, 52.276353]]]}, "properties": {"id": "d24879ef-17e5-482f-8b8c-f43971d652ff", "text": "Urinal", "symbol": null, "description": null, "color": "#43D6E0", "type": "Rectangle", "parentId": "6493c509-4eea-4a0f-8399-cdc2c0510abf", "radius": null, "rotation": null}}, {"type": "Feature", "geometry": {"type": "Polygon", "coordinates": [[[14.4841037, 52.2756901], [14.4840524, 52.2756994], [14.4840269, 52.275647], [14.4840782, 52.2756377], [14.4841037, 52.2756901]]]}, "properties": {"id": "e4a75718-5621-4cfd-ab60-ded427318dce", "text": "Kühlung", "symbol": null, "description": null, "color": "#43D6E0", "type": "Rectangle", "parentId": "6493c509-4eea-4a0f-8399-cdc2c0510abf", "radius": null, "rotation": null}}, {"type": "Feature", "geometry": {"type": "Polygon", "coordinates": [[[14.4843594, 52.2761768], [14.4843393, 52.2761439], [14.4845078, 52.2761053], [14.4845279, 52.2761381], [14.4843594, 52.2761768]]]}, "properties": {"id": "21a4447f-f8bf-467d-bf4e-6b81fdeac64d", "text": "Bar", "symbol": null, "description": null, "color": "#43D6E0", "type": "Rectangle", "parentId": "6493c509-4eea-4a0f-8399-cdc2c0510abf", "radius": null, "rotation": null}}, {"type": "Feature", "geometry": {"type": "Polygon", "coordinates": [[[14.4825463, 52.2753192], [14.4825755, 52.2753101], [14.4825305, 52.2752558], [14.4825013, 52.2752649], [14.4825463, 52.2753192]]]}, "properties": {"id": "c012ced5-0e0a-4de8-b3b3-023017ada9f8", "text": "Dixi x5", "symbol": null, "description": null, "color": "#43D6E0", "type": "Rectangle", "parentId": "6493c509-4eea-4a0f-8399-cdc2c0510abf", "radius": null, "rotation": null}}, {"type": "Feature", "geometry": {"type": "Polygon", "coordinates": [[[14.4842594, 52.2761856], [14.4842711, 52.2762064], [14.4841722, 52.2762273], [14.4841605, 52.2762065], [14.4842594, 52.2761856]]]}, "properties": {"id": "06576053-fcc2-4dce-a0b1-2487a8157c5c", "text": "Kühlung", "symbol": null, "description": null, "color": "#43D6E0", "type": "Rectangle", "parentId": "6493c509-4eea-4a0f-8399-cdc2c0510abf", "radius": null, "rotation": null}}, {"type": "Feature", "geometry": {"type": "Polygon", "coordinates": [[[14.4833432, 52.2753928], [14.4833432, 52.2753663], [14.483445, 52.2753663], [14.483445, 52.2753928], [14.4833432, 52.2753928]]]}, "properties": {"id": "04b00e09-ef4d-4e24-8c12-34b3282ac480", "text": "Kühlung", "symbol": null, "description": null, "color": "#43D6E0", "type": "Rectangle", "parentId": "6493c509-4eea-4a0f-8399-cdc2c0510abf", "radius": null, "rotation": null}}, {"type": "Feature", "geometry": {"type": "Polygon", "coordinates": [[[14.4824378, 52.275204], [14.4824671, 52.2751949], [14.4824221, 52.2751407], [14.4823928, 52.2751498], [14.4824378, 52.275204]]]}, "properties": {"id": "49a89221-ed1f-484e-a9eb-cce9c163701c", "text": "Dixi x5", "symbol": null, "description": null, "color": "#43D6E0", "type": "Rectangle", "parentId": "6493c509-4eea-4a0f-8399-cdc2c0510abf", "radius": null, "rotation": null}}, {"type": "Feature", "geometry": {"type": "Polygon", "coordinates": [[[14.4832594, 52.2740476], [14.4833108, 52.2740388], [14.4832858, 52.2739841], [14.4832344, 52.2739928], [14.4832594, 52.2740476]]]}, "properties": {"id": "f1b8c459-227e-48b0-986e-a4b7ca9048f4", "text": "WC 9 + 7", "symbol": null, "description": null, "color": "#43D6E0", "type": "Rectangle", "parentId": "6493c509-4eea-4a0f-8399-cdc2c0510abf", "radius": null, "rotation": null}}, {"type": "Feature", "geometry": {"type": "Polygon", "coordinates": [[[14.482172, 52.271998], [14.482206, 52.271986], [14.4821707, 52.2719485], [14.4821367, 52.2719605], [14.482172, 52.271998]]]}, "properties": {"id": "6fa38730-770c-46be-8528-c85877e8d7bf", "text": "WC Wagen 4,5 x 2,5", "symbol": null, "description": null, "color": "#43D6E0", "type": "Rectangle", "parentId": "6493c509-4eea-4a0f-8399-cdc2c0510abf", "radius": null, "rotation": null}}, {"type": "Feature", "geometry": {"type": "Polygon", "coordinates": [[[14.4827554, 52.2742376], [14.4827625, 52.2742616], [14.4826634, 52.2742727], [14.4826563, 52.2742487], [14.4827554, 52.2742376]]]}, "properties": {"id": "8bad4091-dd97-4499-88de-4698ca9fab89", "text": "Kühlung", "symbol": null, "description": null, "color": "#43D6E0", "type": "Rectangle", "parentId": "6493c509-4eea-4a0f-8399-cdc2c0510abf", "radius": null, "rotation": null}}, {"type": "Feature", "geometry": {"type": "Polygon", "coordinates": [[[14.4830158, 52.2729637], [14.4829814, 52.2729751], [14.4829491, 52.2729387], [14.4829834, 52.2729273], [14.4830158, 52.2729637]]]}, "properties": {"id": "dccec90a-15e4-4d15-a631-8598e0a612c5", "text": "WC Wagen", "symbol": null, "description": "4,5 x 2,5", "color": "#43D6E0", "type": "Rectangle", "parentId": "6493c509-4eea-4a0f-8399-cdc2c0510abf", "radius": null, "rotation": null}}, {"type": "Feature", "geometry": {"type": "Polygon", "coordinates": [[[14.5027231, 52.2779661], [14.5027497, 52.2779768], [14.5027873, 52.277942], [14.5027607, 52.2779313], [14.5027231, 52.2779661]]]}, "properties": {"id": "495da4cc-e499-48e2-bcb6-e7d9909ed7e2", "text": "WC 14", "symbol": null, "description": null, "color": "#43D6E0", "type": "Rectangle", "parentId": "6493c509-4eea-4a0f-8399-cdc2c0510abf", "radius": null, "rotation": null}}, {"type": "Feature", "geometry": {"type": "Polygon", "coordinates": [[[14.4965879, 52.2782174], [14.4966185, 52.27818], [14.4967653, 52.2782249], [14.4967347, 52.2782623], [14.4965879, 52.2782174]]]}, "properties": {"id": "115268ab-86d6-4afa-9ec3-f426685ba731", "text": "Dixi x10 + urinal", "symbol": null, "description": "check lageplan to be sure it's like this here", "color": "#43D6E0", "type": "Rectangle", "parentId": "6493c509-4eea-4a0f-8399-cdc2c0510abf", "radius": null, "rotation": null}}, {"type": "Feature", "geometry": {"type": "Polygon", "coordinates": [[[14.4995116, 52.2785613], [14.499507, 52.278591], [14.499364, 52.2785827], [14.4993686, 52.278553], [14.4995116, 52.2785613]]]}, "properties": {"id": "86ad7d04-0eed-49b2-a010-da30f36b5baa", "text": "DIXI x8 ", "symbol": null, "description": null, "color": "#43D6E0", "type": "Rectangle", "parentId": "6493c509-4eea-4a0f-8399-cdc2c0510abf", "radius": null, "rotation": null}}]}