{"type":"FeatureCollection","features":[{"type":"Feature","properties":{"slug":"parking-p4-p5-fill"},"geometry":{"type":"MultiPolygon","coordinates":[[[[14.5083794,52.2773821],[14.5092155,52.2779082],[14.5083458,52.2783837],[14.5080928,52.2785221],[14.5072806,52.2780252],[14.5074239,52.2773236],[14.5083794,52.2773821]]],[[[14.5081644,52.2786829],[14.5090005,52.2792821],[14.5101832,52.2786644],[14.5093471,52.2780652],[14.5081644,52.2786829]]],[[[14.5070797,52.2792439],[14.5080351,52.278621],[14.5071803,52.2781057],[14.5070797,52.2792439]]],[[[14.5079123,52.2788445],[14.5080172,52.2786249],[14.5070946,52.2792493],[14.5077277,52.2793836],[14.5079123,52.2788445]]]]}},{"type":"Feature","properties":{"text":"Parkplatz P4/P5","slug":"parking-p4-p5-label"},"geometry":{"type":"Point","coordinates":[14.508354,52.278365]}},{"type":"Feature","properties":{"slug":"parking-p6-fill"},"geometry":{"type":"MultiPolygon","coordinates":[[[[14.5113677,52.2793353],[14.5109658,52.2803904],[14.5131438,52.2805903],[14.5113677,52.2793353]]]]}},{"type":"Feature","properties":{"text":"Parkplatz P6","slug":"parking-p6-label"},"geometry":{"type":"Point","coordinates":[14.511826,52.280105]}},{"type":"Feature","properties":{"text":"E3","slug":"entrance-e3"},"geometry":{"type":"Point","coordinates":[14.509576,52.277855]}}]}