{
  "type": "FeatureCollection",
  "features": [
    {
      "type": "Feature",
      "properties": {
        "text": "Artist Office",
        "_dropped_reason": "staff-only"
      },
      "geometry": {
        "type": "Polygon",
        "coordinates": [
          [
            [
              14.49124,
              52.276611
            ],
            [
              14.491284,
              52.276612
            ],
            [
              14.491286,
              52.276583
            ],
            [
              14.491243,
              52.276581
            ],
            [
              14.49124,
              52.276611
            ]
          ]
        ]
      }
    },
    {
      "type": "Feature",
      "properties": {
        "text": "Weez",
        "_dropped_reason": "Weezevent ticketing staff"
      },
      "geometry": {
        "type": "Polygon",
        "coordinates": [
          [
            [
              14.492178,
              52.276519
            ],
            [
              14.492219,
              52.276519
            ],
            [
              14.492219,
              52.276463
            ],
            [
              14.492178,
              52.276463
            ],
            [
              14.492178,
              52.276519
            ]
          ]
        ]
      }
    },
    {
      "type": "Feature",
      "properties": {
        "text": "Internet",
        "_dropped_reason": "staff wifi hub"
      },
      "geometry": {
        "type": "Polygon",
        "coordinates": [
          [
            [
              14.492259,
              52.27652
            ],
            [
              14.492299,
              52.27652
            ],
            [
              14.492299,
              52.276463
            ],
            [
              14.492259,
              52.276463
            ],
            [
              14.492259,
              52.27652
            ]
          ]
        ]
      }
    },
    {
      "type": "Feature",
      "properties": {
        "text": "Crew Bar - Kiosk",
        "_dropped_reason": "crew-only bar"
      },
      "geometry": {
        "type": "Polygon",
        "coordinates": [
          [
            [
              14.49446,
              52.276224
            ],
            [
              14.494462,
              52.276192
            ],
            [
              14.494568,
              52.276193
            ],
            [
              14.494566,
              52.276226
            ],
            [
              14.49446,
              52.276224
            ]
          ]
        ]
      }
    },
    {
      "type": "Feature",
      "properties": {
        "_dropped_reason": "anonymous polygon (no text property)"
      },
      "geometry": {
        "type": "Polygon",
        "coordinates": [
          [
            [
              14.492835,
              52.276652
            ],
            [
              14.492756,
              52.276656
            ],
            [
              14.492749,
              52.276602
            ],
            [
              14.492827,
              52.276598
            ],
            [
              14.492835,
              52.276652
            ]
          ]
        ]
      }
    },
    {
      "type": "Feature",
      "properties": {
        "text": "Tent",
        "_dropped_reason": "generic tent, staff area"
      },
      "geometry": {
        "type": "MultiPolygon",
        "coordinates": [
          [
            [
              [
                14.492959,
                52.276571
              ],
              [
                14.492981,
                52.276545
              ],
              [
                14.492991,
                52.276517
              ],
              [
                14.492984,
                52.276489
              ],
              [
                14.492957,
                52.27646
              ],
              [
                14.493001,
                52.276475
              ],
              [
                14.493047,
                52.27648
              ],
              [
                14.493092,
                52.276477
              ],
              [
                14.493142,
                52.27646
              ],
              [
                14.493114,
                52.276488
              ],
              [
                14.493105,
                52.276514
              ],
              [
                14.493114,
                52.276541
              ],
              [
                14.49314,
                52.276572
              ],
              [
                14.49309,
                52.276558
              ],
              [
                14.493047,
                52.27655
              ],
              [
                14.492999,
                52.276557
              ],
              [
                14.492959,
                52.276571
              ]
            ]
          ]
        ]
      }
    },
    {
      "type": "Feature",
      "properties": {
        "text": "Gastroleitung",
        "_dropped_reason": "staff office (gastro management)"
      },
      "geometry": {
        "type": "Polygon",
        "coordinates": [
          [
            [
              14.492318,
              52.276518
            ],
            [
              14.492395,
              52.276518
            ],
            [
              14.492396,
              52.276462
            ],
            [
              14.492319,
              52.276462
            ],
            [
              14.492318,
              52.276518
            ]
          ]
        ]
      }
    },
    {
      "type": "Feature",
      "properties": {
        "text": "Sterne Office",
        "_dropped_reason": "staff-only"
      },
      "geometry": {
        "type": "Polygon",
        "coordinates": [
          [
            [
              14.491184,
              52.276678
            ],
            [
              14.491222,
              52.276677
            ],
            [
              14.49122,
              52.27662
            ],
            [
              14.491181,
              52.276621
            ],
            [
              14.491184,
              52.276678
            ]
          ]
        ]
      }
    },
    {
      "type": "Feature",
      "properties": {
        "text": "Logisticszentrale",
        "_dropped_reason": "staff logistics"
      },
      "geometry": {
        "type": "Polygon",
        "coordinates": [
          [
            [
              14.491925,
              52.276543
            ],
            [
              14.491884,
              52.276543
            ],
            [
              14.491884,
              52.27659
            ],
            [
              14.491925,
              52.27659
            ],
            [
              14.491925,
              52.276543
            ]
          ]
        ]
      }
    },
    {
      "type": "Feature",
      "properties": {
        "text": "Lager",
        "_dropped_reason": "storage (staff)"
      },
      "geometry": {
        "type": "Polygon",
        "coordinates": [
          [
            [
              14.491984,
              52.276586
            ],
            [
              14.492023,
              52.276586
            ],
            [
              14.492022,
              52.276561
            ],
            [
              14.491983,
              52.276561
            ],
            [
              14.491984,
              52.276586
            ]
          ]
        ]
      }
    },
    {
      "type": "Feature",
      "properties": {
        "_dropped_reason": "anonymous polygon (no text property)"
      },
      "geometry": {
        "type": "Polygon",
        "coordinates": [
          [
            [
              14.492679,
              52.276661
            ],
            [
              14.49272,
              52.276661
            ],
            [
              14.492718,
              52.276606
            ],
            [
              14.492677,
              52.276607
            ],
            [
              14.492679,
              52.276661
            ]
          ]
        ]
      }
    },
    {
      "type": "Feature",
      "properties": {
        "text": "Rezi raum",
        "_dropped_reason": "reception room (staff)"
      },
      "geometry": {
        "type": "Polygon",
        "coordinates": [
          [
            [
              14.491959,
              52.276461
            ],
            [
              14.491924,
              52.276461
            ],
            [
              14.491924,
              52.276519
            ],
            [
              14.491959,
              52.276519
            ],
            [
              14.491959,
              52.276461
            ]
          ]
        ]
      }
    },
    {
      "type": "Feature",
      "properties": {
        "text": "Cashflow",
        "_dropped_reason": "cashless-support staff"
      },
      "geometry": {
        "type": "Polygon",
        "coordinates": [
          [
            [
              14.492113,
              52.27652
            ],
            [
              14.49215,
              52.27652
            ],
            [
              14.492153,
              52.276464
            ],
            [
              14.492116,
              52.276463
            ],
            [
              14.492113,
              52.27652
            ]
          ]
        ]
      }
    },
    {
      "type": "Feature",
      "properties": {
        "_dropped_reason": "anonymous polygon (no text property)"
      },
      "geometry": {
        "type": "Polygon",
        "coordinates": [
          [
            [
              14.492604,
              52.276661
            ],
            [
              14.492647,
              52.276662
            ],
            [
              14.492652,
              52.276609
            ],
            [
              14.492609,
              52.276608
            ],
            [
              14.492604,
              52.276661
            ]
          ]
        ]
      }
    },
    {
      "type": "Feature",
      "properties": {
        "text": "Tent",
        "_dropped_reason": "generic tent, staff area"
      },
      "geometry": {
        "type": "MultiPolygon",
        "coordinates": [
          [
            [
              [
                14.483857,
                52.274406
              ],
              [
                14.483879,
                52.274379
              ],
              [
                14.483889,
                52.274351
              ],
              [
                14.483882,
                52.274323
              ],
              [
                14.483855,
                52.274295
              ],
              [
                14.483899,
                52.27431
              ],
              [
                14.483944,
                52.274315
              ],
              [
                14.48399,
                52.274311
              ],
              [
                14.48404,
                52.274294
              ],
              [
                14.484012,
                52.274322
              ],
              [
                14.484003,
                52.274349
              ],
              [
                14.484012,
                52.274376
              ],
              [
                14.484037,
                52.274407
              ],
              [
                14.483988,
                52.274392
              ],
              [
                14.483945,
                52.274385
              ],
              [
                14.483897,
                52.274392
              ],
              [
                14.483857,
                52.274406
              ]
            ]
          ]
        ]
      }
    },
    {
      "type": "Feature",
      "properties": {
        "text": "Secu point",
        "_dropped_reason": "Horst: security post, not shown on static"
      },
      "geometry": {
        "type": "Polygon",
        "coordinates": [
          [
            [
              14.494361,
              52.278324
            ],
            [
              14.494403,
              52.278329
            ],
            [
              14.494413,
              52.278302
            ],
            [
              14.494371,
              52.278297
            ],
            [
              14.494361,
              52.278324
            ]
          ]
        ]
      }
    }
  ]
}
